{"type":"FeatureCollection","features":[{"type":"Feature","geometry":{"type":"Point","coordinates":[11.854342792880363,48.158140222903846]},"properties":{"id":"111","land-id":"09175","name":"Anzing","population":4351,"area":16.21,"centroid_coordinates":[11.854342792880363,48.158140222903846]}},{"type":"Feature","geometry":{"type":"Point","coordinates":[11.993184180680966,47.99137595252014]},"properties":{"id":"112","land-id":"09175","name":"A\u00dfling","population":4545,"area":31.31,"centroid_coordinates":[11.993184180680966,47.99137595252014]}},{"type":"Feature","geometry":{"type":"Point","coordinates":[11.91324758252467,48.07614320899845]},"properties":{"id":"113","land-id":"09175","name":"Baiern","population":1479,"area":549.56,"centroid_coordinates":[11.91324758252467,48.07614320899845]}},{"type":"Feature","geometry":{"type":"Point","coordinates":[11.91746503605894,48.02382729044997]},"properties":{"id":"114","land-id":"09175","name":"Bruck","population":1341,"area":21.63,"centroid_coordinates":[11.91746503605894,48.02382729044997]}},{"type":"Feature","geometry":{"type":"Point","coordinates":[11.980533851147129,48.081630757077]},"properties":{"id":"115","land-id":"09175","name":"Ebersberg","population":12240,"area":40.83,"centroid_coordinates":[11.980533851147129,48.081630757077]}},{"type":"Feature","geometry":{"type":"Point","coordinates":[11.80249046529887,47.99483209500703]},"properties":{"id":"116","land-id":"09175","name":"Egmating","population":2299,"area":19.25,"centroid_coordinates":[11.80249046529887,47.99483209500703]}},{"type":"Feature","geometry":{"type":"Point","coordinates":[11.905567772532155,48.1747683077456]},"properties":{"id":"118","land-id":"09175","name":"Forstinning","population":3730,"area":12.33,"centroid_coordinates":[11.905567772532155,48.1747683077456]}},{"type":"Feature","geometry":{"type":"Point","coordinates":[12.046791477722584,48.03374545089473]},"properties":{"id":"119","land-id":"09175","name":"Frauenneuharting","population":1557,"area":22.67,"centroid_coordinates":[12.046791477722584,48.03374545089473]}},{"type":"Feature","geometry":{"type":"Point","coordinates":[11.864609852638672,47.98632617365871]},"properties":{"id":"121","land-id":"09175","name":"Glonn","population":4999,"area":30.17,"centroid_coordinates":[11.864609852638672,47.98632617365871]}},{"type":"Feature","geometry":{"type":"Point","coordinates":[11.97469287623484,48.03657591414757]},"properties":{"id":"122","land-id":"09175","name":"Grafing b.M\u00fcnchen","population":13953,"area":29.59,"centroid_coordinates":[11.97469287623484,48.03657591414757]}},{"type":"Feature","geometry":{"type":"Point","coordinates":[11.998690179857086,48.15014418590451]},"properties":{"id":"123","land-id":"09175","name":"Hohenlinden","population":3298,"area":17.3,"centroid_coordinates":[11.998690179857086,48.15014418590451]}},{"type":"Feature","geometry":{"type":"Point","coordinates":[11.878792923081672,48.06734445711717]},"properties":{"id":"124","land-id":"09175","name":"Kirchseeon","population":10373,"area":17.93,"centroid_coordinates":[11.878792923081672,48.06734445711717]}},{"type":"Feature","geometry":{"type":"Point","coordinates":[11.862195985960657,48.19100341972629]},"properties":{"id":"127","land-id":"09175","name":"Markt Schwaben","population":13588,"area":10.83,"centroid_coordinates":[11.862195985960657,48.19100341972629]}},{"type":"Feature","geometry":{"type":"Point","coordinates":[11.872992836690747,48.03770380896456]},"properties":{"id":"128","land-id":"09175","name":"Moosach","population":1435,"area":18.17,"centroid_coordinates":[11.872992836690747,48.03770380896456]}},{"type":"Feature","geometry":{"type":"Point","coordinates":[11.813982143629048,48.032218525946725]},"properties":{"id":"131","land-id":"09175","name":"Oberpframmern","population":2448,"area":18.51,"centroid_coordinates":[11.813982143629048,48.032218525946725]}},{"type":"Feature","geometry":{"type":"Point","coordinates":[11.793155696079486,48.12710941483947]},"properties":{"id":"132","land-id":"09175","name":"Vaterstetten","population":24404,"area":34.14,"centroid_coordinates":[11.793155696079486,48.12710941483947]}},{"type":"Feature","geometry":{"type":"Point","coordinates":[11.795361023333763,48.19823657680372]},"properties":{"id":"133","land-id":"09175","name":"Pliening","population":5837,"area":22.82,"centroid_coordinates":[11.795361023333763,48.19823657680372]}},{"type":"Feature","geometry":{"type":"Point","coordinates":[11.802583298960954,48.16826821342379]},"properties":{"id":"135","land-id":"09175","name":"Poing","population":16588,"area":12.9,"centroid_coordinates":[11.802583298960954,48.16826821342379]}},{"type":"Feature","geometry":{"type":"Point","coordinates":[12.06231382092541,47.99339998534674]},"properties":{"id":"136","land-id":"09175","name":"Emmering","population":1442,"area":17.3,"centroid_coordinates":[12.06231382092541,47.99339998534674]}},{"type":"Feature","geometry":{"type":"Point","coordinates":[12.043047613096947,48.098854265582744]},"properties":{"id":"137","land-id":"09175","name":"Steinh\u00f6ring","population":3846,"area":36.32,"centroid_coordinates":[12.043047613096947,48.098854265582744]}},{"type":"Feature","geometry":{"type":"Point","coordinates":[11.819662526984159,48.082473481875176]},"properties":{"id":"139","land-id":"09175","name":"Zorneding","population":9468,"area":23.87,"centroid_coordinates":[11.819662526984159,48.082473481875176]}}]}