{"type":"FeatureCollection","features":[{"type":"Feature","geometry":{"type":"Point","coordinates":[11.921078413083219,48.39188226123373]},"properties":{"id":"112","land-id":"09177","name":"Berglern","population":2959,"area":19.91,"centroid_coordinates":[11.921078413083219,48.39188226123373]}},{"type":"Feature","geometry":{"type":"Point","coordinates":[11.996275696593134,48.30785604294809]},"properties":{"id":"113","land-id":"09177","name":"Bockhorn","population":4065,"area":47.24,"centroid_coordinates":[11.996275696593134,48.30785604294809]}},{"type":"Feature","geometry":{"type":"Point","coordinates":[12.00033196360815,48.216677641658094]},"properties":{"id":"114","land-id":"09177","name":"Buch a.Buchrain","population":1639,"area":22.79,"centroid_coordinates":[12.00033196360815,48.216677641658094]}},{"type":"Feature","geometry":{"type":"Point","coordinates":[12.165745292650335,48.280202152875084]},"properties":{"id":"115","land-id":"09177","name":"Dorfen","population":14788,"area":99.51,"centroid_coordinates":[12.165745292650335,48.280202152875084]}},{"type":"Feature","geometry":{"type":"Point","coordinates":[11.870719076832527,48.37843429433527]},"properties":{"id":"116","land-id":"09177","name":"Eitting","population":3026,"area":35.67,"centroid_coordinates":[11.870719076832527,48.37843429433527]}},{"type":"Feature","geometry":{"type":"Point","coordinates":[11.914185049759308,48.3063897667072]},"properties":{"id":"117","land-id":"09177","name":"Erding","population":36941,"area":54.54,"centroid_coordinates":[11.914185049759308,48.3063897667072]}},{"type":"Feature","geometry":{"type":"Point","coordinates":[11.795794147522466,48.231211242737906]},"properties":{"id":"118","land-id":"09177","name":"Finsing","population":4793,"area":23.14,"centroid_coordinates":[11.795794147522466,48.231211242737906]}},{"type":"Feature","geometry":{"type":"Point","coordinates":[11.973822720588494,48.179966283744896]},"properties":{"id":"119","land-id":"09177","name":"Forstern","population":3719,"area":15.41,"centroid_coordinates":[11.973822720588494,48.179966283744896]}},{"type":"Feature","geometry":{"type":"Point","coordinates":[12.00179746826607,48.36042744386234]},"properties":{"id":"120","land-id":"09177","name":"Fraunberg","population":3841,"area":42.36,"centroid_coordinates":[12.00179746826607,48.36042744386234]}},{"type":"Feature","geometry":{"type":"Point","coordinates":[12.132261798288164,48.39727899872423]},"properties":{"id":"121","land-id":"09177","name":"Hohenpolding","population":1642,"area":27.45,"centroid_coordinates":[12.132261798288164,48.39727899872423]}},{"type":"Feature","geometry":{"type":"Point","coordinates":[12.075082450919956,48.343044740630624]},"properties":{"id":"122","land-id":"09177","name":"Inning a.Holz","population":1576,"area":11.89,"centroid_coordinates":[12.075082450919956,48.343044740630624]}},{"type":"Feature","geometry":{"type":"Point","coordinates":[12.05857751794968,48.19110748854694]},"properties":{"id":"123","land-id":"09177","name":"Isen","population":5586,"area":43.82,"centroid_coordinates":[12.05857751794968,48.19110748854694]}},{"type":"Feature","geometry":{"type":"Point","coordinates":[12.062362447183911,48.40879855358757]},"properties":{"id":"124","land-id":"09177","name":"Kirchberg","population":1161,"area":17.1,"centroid_coordinates":[12.062362447183911,48.40879855358757]}},{"type":"Feature","geometry":{"type":"Point","coordinates":[11.96769258045455,48.426187271000906]},"properties":{"id":"126","land-id":"09177","name":"Langenpreising","population":2884,"area":27.44,"centroid_coordinates":[11.96769258045455,48.426187271000906]}},{"type":"Feature","geometry":{"type":"Point","coordinates":[12.046722129290298,48.260573279070506]},"properties":{"id":"127","land-id":"09177","name":"Lengdorf","population":2713,"area":33.89,"centroid_coordinates":[12.046722129290298,48.260573279070506]}},{"type":"Feature","geometry":{"type":"Point","coordinates":[11.807934969637659,48.27744908209045]},"properties":{"id":"130","land-id":"09177","name":"Moosinning","population":6119,"area":40.01,"centroid_coordinates":[11.807934969637659,48.27744908209045]}},{"type":"Feature","geometry":{"type":"Point","coordinates":[11.833685813553831,48.24388958755088]},"properties":{"id":"131","land-id":"09177","name":"Neuching","population":2789,"area":19.68,"centroid_coordinates":[11.833685813553831,48.24388958755088]}},{"type":"Feature","geometry":{"type":"Point","coordinates":[11.8240026911773,48.33266038048026]},"properties":{"id":"133","land-id":"09177","name":"Oberding","population":6297,"area":64.71,"centroid_coordinates":[11.8240026911773,48.33266038048026]}},{"type":"Feature","geometry":{"type":"Point","coordinates":[11.884922989744476,48.21249098481276]},"properties":{"id":"134","land-id":"09177","name":"Ottenhofen","population":1926,"area":10.26,"centroid_coordinates":[11.884922989744476,48.21249098481276]}},{"type":"Feature","geometry":{"type":"Point","coordinates":[11.941217166977562,48.20708452874583]},"properties":{"id":"135","land-id":"09177","name":"Pastetten","population":2843,"area":22.09,"centroid_coordinates":[11.941217166977562,48.20708452874583]}},{"type":"Feature","geometry":{"type":"Point","coordinates":[12.146990606044758,48.21961752773088]},"properties":{"id":"137","land-id":"09177","name":"Sankt Wolfgang","population":4592,"area":46.35,"centroid_coordinates":[12.146990606044758,48.21961752773088]}},{"type":"Feature","geometry":{"type":"Point","coordinates":[12.083507445178226,48.37649301457719]},"properties":{"id":"138","land-id":"09177","name":"Steinkirchen","population":1347,"area":18.08,"centroid_coordinates":[12.083507445178226,48.37649301457719]}},{"type":"Feature","geometry":{"type":"Point","coordinates":[12.146668061488137,48.339123071886796]},"properties":{"id":"139","land-id":"09177","name":"Taufkirchen (Vils)","population":10605,"area":70.21,"centroid_coordinates":[12.146668061488137,48.339123071886796]}},{"type":"Feature","geometry":{"type":"Point","coordinates":[11.976692173565148,48.25877446586034]},"properties":{"id":"142","land-id":"09177","name":"Walpertskirchen","population":2157,"area":18.46,"centroid_coordinates":[11.976692173565148,48.25877446586034]}},{"type":"Feature","geometry":{"type":"Point","coordinates":[11.984463376583212,48.39474835845505]},"properties":{"id":"143","land-id":"09177","name":"Wartenberg","population":5576,"area":17.92,"centroid_coordinates":[11.984463376583212,48.39474835845505]}},{"type":"Feature","geometry":{"type":"Point","coordinates":[11.913742577320669,48.24146313591506]},"properties":{"id":"144","land-id":"09177","name":"W\u00f6rth","population":4333,"area":21.04,"centroid_coordinates":[11.913742577320669,48.24146313591506]}}]}