{"type":"FeatureCollection","features":[{"type":"Feature","geometry":{"type":"Point","coordinates":[12.505801806273492,48.00206834609433]},"properties":{"id":"111","land-id":"09189","name":"Altenmarkt a.d.Alz","population":4076,"area":26.11,"centroid_coordinates":[12.505801806273492,48.00206834609433]}},{"type":"Feature","geometry":{"type":"Point","coordinates":[12.572746925383939,47.794006516731976]},"properties":{"id":"113","land-id":"09189","name":"Bergen","population":4569,"area":36.92,"centroid_coordinates":[12.572746925383939,47.794006516731976]}},{"type":"Feature","geometry":{"type":"Point","coordinates":[12.53941413111622,47.91408911783177]},"properties":{"id":"114","land-id":"09189","name":"Chieming","population":4593,"area":37.67,"centroid_coordinates":[12.53941413111622,47.91408911783177]}},{"type":"Feature","geometry":{"type":"Point","coordinates":[12.521966395920158,48.125840254798696]},"properties":{"id":"115","land-id":"09189","name":"Engelsberg","population":2413,"area":34.13,"centroid_coordinates":[12.521966395920158,48.125840254798696]}},{"type":"Feature","geometry":{"type":"Point","coordinates":[12.822747728888283,47.994348141452505]},"properties":{"id":"118","land-id":"09189","name":"Fridolfing","population":4338,"area":44.28,"centroid_coordinates":[12.822747728888283,47.994348141452505]}},{"type":"Feature","geometry":{"type":"Point","coordinates":[12.55045351625646,47.84545795672872]},"properties":{"id":"119","land-id":"09189","name":"Grabenst\u00e4tt","population":4306,"area":37.74,"centroid_coordinates":[12.55045351625646,47.84545795672872]}},{"type":"Feature","geometry":{"type":"Point","coordinates":[12.425548728983873,47.785939422834]},"properties":{"id":"120","land-id":"09189","name":"Grassau","population":6762,"area":35.7,"centroid_coordinates":[12.425548728983873,47.785939422834]}},{"type":"Feature","geometry":{"type":"Point","coordinates":[12.768285163405208,47.7682135226838]},"properties":{"id":"124","land-id":"09189","name":"Inzell","population":4332,"area":45.21,"centroid_coordinates":[12.768285163405208,47.7682135226838]}},{"type":"Feature","geometry":{"type":"Point","coordinates":[12.467506838372634,48.04023764544248]},"properties":{"id":"126","land-id":"09189","name":"Kienberg","population":1331,"area":22.81,"centroid_coordinates":[12.467506838372634,48.04023764544248]}},{"type":"Feature","geometry":{"type":"Point","coordinates":[12.821680933683963,47.94934003412153]},"properties":{"id":"127","land-id":"09189","name":"Kirchansch\u00f6ring","population":3301,"area":25.08,"centroid_coordinates":[12.821680933683963,47.94934003412153]}},{"type":"Feature","geometry":{"type":"Point","coordinates":[12.451270075677268,47.757750821041675]},"properties":{"id":"129","land-id":"09189","name":"Marquartstein","population":3025,"area":13.36,"centroid_coordinates":[12.451270075677268,47.757750821041675]}},{"type":"Feature","geometry":{"type":"Point","coordinates":[12.594461093179893,47.91070675987638]},"properties":{"id":"130","land-id":"09189","name":"Nu\u00dfdorf","population":2352,"area":16.13,"centroid_coordinates":[12.594461093179893,47.91070675987638]}},{"type":"Feature","geometry":{"type":"Point","coordinates":[12.400583309390285,48.01418639986526]},"properties":{"id":"133","land-id":"09189","name":"Obing","population":4352,"area":43.82,"centroid_coordinates":[12.400583309390285,48.01418639986526]}},{"type":"Feature","geometry":{"type":"Point","coordinates":[12.649123466121358,48.0060417069887]},"properties":{"id":"134","land-id":"09189","name":"Palling","population":3539,"area":53.82,"centroid_coordinates":[12.649123466121358,48.0060417069887]}},{"type":"Feature","geometry":{"type":"Point","coordinates":[12.822100812431804,47.90378799001296]},"properties":{"id":"135","land-id":"09189","name":"Petting","population":2272,"area":29.8,"centroid_coordinates":[12.822100812431804,47.90378799001296]}},{"type":"Feature","geometry":{"type":"Point","coordinates":[12.376839406373294,47.97451571332063]},"properties":{"id":"137","land-id":"09189","name":"Pittenhart","population":1883,"area":27.88,"centroid_coordinates":[12.376839406373294,47.97451571332063]}},{"type":"Feature","geometry":{"type":"Point","coordinates":[12.521013204158312,47.66764333965078]},"properties":{"id":"139","land-id":"09189","name":"Reit im Winkl","population":1893,"area":71.86,"centroid_coordinates":[12.521013204158312,47.66764333965078]}},{"type":"Feature","geometry":{"type":"Point","coordinates":[12.62734236644592,47.730182040774935]},"properties":{"id":"140","land-id":"09189","name":"Ruhpolding","population":6197,"area":147.78,"centroid_coordinates":[12.62734236644592,47.730182040774935]}},{"type":"Feature","geometry":{"type":"Point","coordinates":[12.383067712851332,47.72184843381973]},"properties":{"id":"141","land-id":"09189","name":"Schleching","population":1634,"area":45.18,"centroid_coordinates":[12.383067712851332,47.72184843381973]}},{"type":"Feature","geometry":{"type":"Point","coordinates":[12.39390914781962,48.07869244107797]},"properties":{"id":"142","land-id":"09189","name":"Schnaitsee","population":3648,"area":61.2,"centroid_coordinates":[12.39390914781962,48.07869244107797]}},{"type":"Feature","geometry":{"type":"Point","coordinates":[12.470372299675857,47.960788198679786]},"properties":{"id":"143","land-id":"09189","name":"Seeon-Seebruck","population":4438,"area":47.81,"centroid_coordinates":[12.470372299675857,47.960788198679786]}},{"type":"Feature","geometry":{"type":"Point","coordinates":[12.677952924854413,47.8108193351142]},"properties":{"id":"145","land-id":"09189","name":"Siegsdorf","population":8046,"area":57.04,"centroid_coordinates":[12.677952924854413,47.8108193351142]}},{"type":"Feature","geometry":{"type":"Point","coordinates":[12.508264486312003,47.77914266095757]},"properties":{"id":"146","land-id":"09189","name":"Staudach-Egerndach","population":1125,"area":19.37,"centroid_coordinates":[12.508264486312003,47.77914266095757]}},{"type":"Feature","geometry":{"type":"Point","coordinates":[12.702224242955314,47.86985318818061]},"properties":{"id":"148","land-id":"09189","name":"Surberg","population":3291,"area":23.72,"centroid_coordinates":[12.702224242955314,47.86985318818061]}},{"type":"Feature","geometry":{"type":"Point","coordinates":[12.508207340402269,48.082278791035435]},"properties":{"id":"149","land-id":"09189","name":"Tacherting","population":5641,"area":50.14,"centroid_coordinates":[12.508207340402269,48.082278791035435]}},{"type":"Feature","geometry":{"type":"Point","coordinates":[12.718219400522708,47.98024214663759]},"properties":{"id":"150","land-id":"09189","name":"Taching a.See","population":2035,"area":26.66,"centroid_coordinates":[12.718219400522708,47.98024214663759]}},{"type":"Feature","geometry":{"type":"Point","coordinates":[12.740154307910208,48.04670320457212]},"properties":{"id":"152","land-id":"09189","name":"Tittmoning","population":5879,"area":72.04,"centroid_coordinates":[12.740154307910208,48.04670320457212]}},{"type":"Feature","geometry":{"type":"Point","coordinates":[12.592095864437638,47.95783475656912]},"properties":{"id":"154","land-id":"09189","name":"Traunreut","population":20285,"area":45.07,"centroid_coordinates":[12.592095864437638,47.95783475656912]}},{"type":"Feature","geometry":{"type":"Point","coordinates":[12.643979717041631,47.879643347605274]},"properties":{"id":"155","land-id":"09189","name":"Traunstein","population":20824,"area":48.54,"centroid_coordinates":[12.643979717041631,47.879643347605274]}},{"type":"Feature","geometry":{"type":"Point","coordinates":[12.56562283941918,48.031258440151674]},"properties":{"id":"157","land-id":"09189","name":"Trostberg","population":11269,"area":51.69,"centroid_coordinates":[12.56562283941918,48.031258440151674]}},{"type":"Feature","geometry":{"type":"Point","coordinates":[12.477460225644249,47.82677119291839]},"properties":{"id":"159","land-id":"09189","name":"\u00dcbersee","population":5032,"area":30.55,"centroid_coordinates":[12.477460225644249,47.82677119291839]}},{"type":"Feature","geometry":{"type":"Point","coordinates":[12.471570745704812,47.7202644384296]},"properties":{"id":"160","land-id":"09189","name":"Unterw\u00f6ssen","population":3421,"area":40.48,"centroid_coordinates":[12.471570745704812,47.7202644384296]}},{"type":"Feature","geometry":{"type":"Point","coordinates":[12.597257948252572,47.8422154793617]},"properties":{"id":"161","land-id":"09189","name":"Vachendorf","population":1777,"area":9.95,"centroid_coordinates":[12.597257948252572,47.8422154793617]}},{"type":"Feature","geometry":{"type":"Point","coordinates":[12.723076148570533,47.9357088348262]},"properties":{"id":"162","land-id":"09189","name":"Waging a.See","population":6828,"area":48.81,"centroid_coordinates":[12.723076148570533,47.9357088348262]}},{"type":"Feature","geometry":{"type":"Point","coordinates":[12.717923719968578,47.90182095224739]},"properties":{"id":"165","land-id":"09189","name":"Wonneberg","population":1562,"area":18.08,"centroid_coordinates":[12.717923719968578,47.90182095224739]}}]}