{"type":"FeatureCollection","features":[{"type":"Feature","geometry":{"type":"Point","coordinates":[10.859443705420201,47.82274223432867]},"properties":{"id":"111","land-id":"09190","name":"Altenstadt","population":3299,"area":18.67,"centroid_coordinates":[10.859443705420201,47.82274223432867]}},{"type":"Feature","geometry":{"type":"Point","coordinates":[11.299929086707653,47.75667239742582]},"properties":{"id":"113","land-id":"09190","name":"Antdorf","population":1347,"area":22.35,"centroid_coordinates":[11.299929086707653,47.75667239742582]}},{"type":"Feature","geometry":{"type":"Point","coordinates":[10.767819654307269,47.72971268885521]},"properties":{"id":"114","land-id":"09190","name":"Bernbeuren","population":2444,"area":41.61,"centroid_coordinates":[10.767819654307269,47.72971268885521]}},{"type":"Feature","geometry":{"type":"Point","coordinates":[11.27264246474077,47.86358617455003]},"properties":{"id":"115","land-id":"09190","name":"Bernried am Starnberger See","population":2447,"area":13.8,"centroid_coordinates":[11.27264246474077,47.86358617455003]}},{"type":"Feature","geometry":{"type":"Point","coordinates":[11.015594175436785,47.750052132524225]},"properties":{"id":"117","land-id":"09190","name":"B\u00f6bing","population":1876,"area":40.34,"centroid_coordinates":[11.015594175436785,47.750052132524225]}},{"type":"Feature","geometry":{"type":"Point","coordinates":[10.812187501580935,47.77451656303915]},"properties":{"id":"118","land-id":"09190","name":"Burggen","population":1709,"area":24.86,"centroid_coordinates":[10.812187501580935,47.77451656303915]}},{"type":"Feature","geometry":{"type":"Point","coordinates":[11.221924595357287,47.7873630356171]},"properties":{"id":"120","land-id":"09190","name":"Eberfing","population":1493,"area":25.98,"centroid_coordinates":[11.221924595357287,47.7873630356171]}},{"type":"Feature","geometry":{"type":"Point","coordinates":[11.157084309751777,47.73799743695764]},"properties":{"id":"121","land-id":"09190","name":"Eglfing","population":1181,"area":16.19,"centroid_coordinates":[11.157084309751777,47.73799743695764]}},{"type":"Feature","geometry":{"type":"Point","coordinates":[11.287157960736621,47.727730904967665]},"properties":{"id":"126","land-id":"09190","name":"Habach","population":1129,"area":12.16,"centroid_coordinates":[11.287157960736621,47.727730904967665]}},{"type":"Feature","geometry":{"type":"Point","coordinates":[10.896926425093593,47.85402555059494]},"properties":{"id":"129","land-id":"09190","name":"Hohenfurch","population":1698,"area":12.46,"centroid_coordinates":[10.896926425093593,47.85402555059494]}},{"type":"Feature","geometry":{"type":"Point","coordinates":[11.006626191803363,47.80171511361203]},"properties":{"id":"130","land-id":"09190","name":"Hohenpei\u00dfenberg","population":3877,"area":20.58,"centroid_coordinates":[11.006626191803363,47.80171511361203]}},{"type":"Feature","geometry":{"type":"Point","coordinates":[11.13118789556016,47.757188417695794]},"properties":{"id":"131","land-id":"09190","name":"Huglfing","population":2882,"area":24.39,"centroid_coordinates":[11.13118789556016,47.757188417695794]}},{"type":"Feature","geometry":{"type":"Point","coordinates":[11.323027057184126,47.7868871205801]},"properties":{"id":"132","land-id":"09190","name":"Iffeldorf","population":2751,"area":27.51,"centroid_coordinates":[11.323027057184126,47.7868871205801]}},{"type":"Feature","geometry":{"type":"Point","coordinates":[10.784693580071414,47.80787350429202]},"properties":{"id":"133","land-id":"09190","name":"Ingenried","population":1137,"area":17.48,"centroid_coordinates":[10.784693580071414,47.80787350429202]}},{"type":"Feature","geometry":{"type":"Point","coordinates":[11.114775997474698,47.77490315219896]},"properties":{"id":"135","land-id":"09190","name":"Oberhausen","population":2119,"area":14.88,"centroid_coordinates":[11.114775997474698,47.77490315219896]}},{"type":"Feature","geometry":{"type":"Point","coordinates":[11.231600902226722,47.746098363616596]},"properties":{"id":"136","land-id":"09190","name":"Obers\u00f6chering","population":1556,"area":24.31,"centroid_coordinates":[11.231600902226722,47.746098363616596]}},{"type":"Feature","geometry":{"type":"Point","coordinates":[11.17247782060493,47.920446564024196]},"properties":{"id":"138","land-id":"09190","name":"P\u00e4hl","population":2544,"area":32.26,"centroid_coordinates":[11.17247782060493,47.920446564024196]}},{"type":"Feature","geometry":{"type":"Point","coordinates":[11.067741197972287,47.79942754879318]},"properties":{"id":"139","land-id":"09190","name":"Pei\u00dfenberg","population":13035,"area":32.62,"centroid_coordinates":[11.067741197972287,47.79942754879318]}},{"type":"Feature","geometry":{"type":"Point","coordinates":[10.935168912404086,47.80101163975607]},"properties":{"id":"140","land-id":"09190","name":"Peiting","population":11756,"area":75.05,"centroid_coordinates":[10.935168912404086,47.80101163975607]}},{"type":"Feature","geometry":{"type":"Point","coordinates":[11.381259144135544,47.76104796620764]},"properties":{"id":"141","land-id":"09190","name":"Penzberg","population":16945,"area":25.7,"centroid_coordinates":[11.381259144135544,47.76104796620764]}},{"type":"Feature","geometry":{"type":"Point","coordinates":[11.130525513144255,47.81162075712606]},"properties":{"id":"142","land-id":"09190","name":"Polling","population":3621,"area":29.2,"centroid_coordinates":[11.130525513144255,47.81162075712606]}},{"type":"Feature","geometry":{"type":"Point","coordinates":[10.813037006372497,47.67575126048399]},"properties":{"id":"143","land-id":"09190","name":"Prem","population":955,"area":16.01,"centroid_coordinates":[10.813037006372497,47.67575126048399]}},{"type":"Feature","geometry":{"type":"Point","coordinates":[11.105947112153281,47.90446323717893]},"properties":{"id":"144","land-id":"09190","name":"Raisting","population":2365,"area":21.9,"centroid_coordinates":[11.105947112153281,47.90446323717893]}},{"type":"Feature","geometry":{"type":"Point","coordinates":[10.96394226693156,47.727885240286746]},"properties":{"id":"145","land-id":"09190","name":"Rottenbuch","population":1843,"area":31.56,"centroid_coordinates":[10.96394226693156,47.727885240286746]}},{"type":"Feature","geometry":{"type":"Point","coordinates":[10.896508214494483,47.812710452247934]},"properties":{"id":"148","land-id":"09190","name":"Schongau","population":12623,"area":21.34,"centroid_coordinates":[10.896508214494483,47.812710452247934]}},{"type":"Feature","geometry":{"type":"Point","coordinates":[10.828051942142192,47.82151245936873]},"properties":{"id":"149","land-id":"09190","name":"Schwabbruck","population":1001,"area":7.32,"centroid_coordinates":[10.828051942142192,47.82151245936873]}},{"type":"Feature","geometry":{"type":"Point","coordinates":[10.810445909117682,47.83977666012783]},"properties":{"id":"151","land-id":"09190","name":"Schwabsoien","population":1490,"area":16.95,"centroid_coordinates":[10.810445909117682,47.83977666012783]}},{"type":"Feature","geometry":{"type":"Point","coordinates":[11.262945666426603,47.824701737927015]},"properties":{"id":"152","land-id":"09190","name":"Seeshaupt","population":3147,"area":30.07,"centroid_coordinates":[11.262945666426603,47.824701737927015]}},{"type":"Feature","geometry":{"type":"Point","coordinates":[11.343172388692311,47.7191651918208]},"properties":{"id":"153","land-id":"09190","name":"Sindelsdorf","population":1214,"area":17.55,"centroid_coordinates":[11.343172388692311,47.7191651918208]}},{"type":"Feature","geometry":{"type":"Point","coordinates":[10.867365024098152,47.7081776126211]},"properties":{"id":"154","land-id":"09190","name":"Steingaden","population":2934,"area":64.09,"centroid_coordinates":[10.867365024098152,47.7081776126211]}},{"type":"Feature","geometry":{"type":"Point","coordinates":[11.145537529067134,47.84422036072971]},"properties":{"id":"157","land-id":"09190","name":"Weilheim i.OB","population":23156,"area":55.37,"centroid_coordinates":[11.145537529067134,47.84422036072971]}},{"type":"Feature","geometry":{"type":"Point","coordinates":[11.023766973326707,47.862835886905344]},"properties":{"id":"158","land-id":"09190","name":"Wessobrunn","population":2235,"area":51.0,"centroid_coordinates":[11.023766973326707,47.862835886905344]}},{"type":"Feature","geometry":{"type":"Point","coordinates":[11.184947559488485,47.87069338889636]},"properties":{"id":"159","land-id":"09190","name":"Wielenbach","population":3392,"area":33.07,"centroid_coordinates":[11.184947559488485,47.87069338889636]}},{"type":"Feature","geometry":{"type":"Point","coordinates":[10.943782502420799,47.66833232746599]},"properties":{"id":"160","land-id":"09190","name":"Wildsteig","population":1315,"area":47.61,"centroid_coordinates":[10.943782502420799,47.66833232746599]}}]}