{"type":"FeatureCollection","features":[{"type":"Feature","geometry":{"type":"Point","coordinates":[12.310374171514512,48.011513021328796]},"properties":{"id":"113","land-id":"09187","name":"Amerang","population":3722,"area":39.8,"centroid_coordinates":[12.310374171514512,48.011513021328796]}},{"type":"Feature","geometry":{"type":"Point","coordinates":[12.309930469124845,47.74317737991832]},"properties":{"id":"114","land-id":"09187","name":"Aschau i.Chiemgau","population":5278,"area":79.54,"centroid_coordinates":[12.309930469124845,47.74317737991832]}},{"type":"Feature","geometry":{"type":"Point","coordinates":[12.295462708072497,48.08815729250038]},"properties":{"id":"116","land-id":"09187","name":"Babensham","population":3128,"area":54.34,"centroid_coordinates":[12.295462708072497,48.08815729250038]}},{"type":"Feature","geometry":{"type":"Point","coordinates":[12.003174293650622,47.86305579437187]},"properties":{"id":"117","land-id":"09187","name":"Bad Aibling","population":18358,"area":41.48,"centroid_coordinates":[12.003174293650622,47.86305579437187]}},{"type":"Feature","geometry":{"type":"Point","coordinates":[12.374947523002314,47.81508517499097]},"properties":{"id":"118","land-id":"09187","name":"Bernau a.Chiemsee","population":6673,"area":26.84,"centroid_coordinates":[12.374947523002314,47.81508517499097]}},{"type":"Feature","geometry":{"type":"Point","coordinates":[12.06990251677172,47.72894378267497]},"properties":{"id":"120","land-id":"09187","name":"Brannenburg","population":6622,"area":33.73,"centroid_coordinates":[12.06990251677172,47.72894378267497]}},{"type":"Feature","geometry":{"type":"Point","coordinates":[12.384444398949489,47.893642438947914]},"properties":{"id":"121","land-id":"09187","name":"Breitbrunn a.Chiemsee","population":1460,"area":8.06,"centroid_coordinates":[12.384444398949489,47.893642438947914]}},{"type":"Feature","geometry":{"type":"Point","coordinates":[11.933676737641811,47.88952559461196]},"properties":{"id":"122","land-id":"09187","name":"Bruckm\u00fchl","population":16728,"area":50.27,"centroid_coordinates":[11.933676737641811,47.88952559461196]}},{"type":"Feature","geometry":{"type":"Point","coordinates":[12.451060318289844,47.87794767254253]},"properties":{"id":"123","land-id":"09187","name":"Chiemsee","population":193,"area":76.76,"centroid_coordinates":[12.451060318289844,47.87794767254253]}},{"type":"Feature","geometry":{"type":"Point","coordinates":[12.14903296771696,48.05849263896268]},"properties":{"id":"124","land-id":"09187","name":"Edling","population":4332,"area":20.06,"centroid_coordinates":[12.14903296771696,48.05849263896268]}},{"type":"Feature","geometry":{"type":"Point","coordinates":[12.385203269437053,47.93320845037802]},"properties":{"id":"125","land-id":"09187","name":"Eggst\u00e4tt","population":2835,"area":24.34,"centroid_coordinates":[12.385203269437053,47.93320845037802]}},{"type":"Feature","geometry":{"type":"Point","coordinates":[12.246687819141544,48.03251088837501]},"properties":{"id":"126","land-id":"09187","name":"Eiselfing","population":3274,"area":34.86,"centroid_coordinates":[12.246687819141544,48.03251088837501]}},{"type":"Feature","geometry":{"type":"Point","coordinates":[12.30131070296748,47.9040920238552]},"properties":{"id":"128","land-id":"09187","name":"Bad Endorf","population":8116,"area":40.17,"centroid_coordinates":[12.30131070296748,47.9040920238552]}},{"type":"Feature","geometry":{"type":"Point","coordinates":[11.999535401736027,47.78711302361303]},"properties":{"id":"129","land-id":"09187","name":"Bad Feilnbach","population":8236,"area":57.5,"centroid_coordinates":[11.999535401736027,47.78711302361303]}},{"type":"Feature","geometry":{"type":"Point","coordinates":[11.863169966220434,47.91160919197921]},"properties":{"id":"130","land-id":"09187","name":"Feldkirchen-Westerham","population":10575,"area":53.28,"centroid_coordinates":[11.863169966220434,47.91160919197921]}},{"type":"Feature","geometry":{"type":"Point","coordinates":[12.104713560136789,47.704419048801626]},"properties":{"id":"131","land-id":"09187","name":"Flintsbach a.Inn","population":2952,"area":31.31,"centroid_coordinates":[12.104713560136789,47.704419048801626]}},{"type":"Feature","geometry":{"type":"Point","coordinates":[12.282413449781707,47.79761750774032]},"properties":{"id":"132","land-id":"09187","name":"Frasdorf","population":2985,"area":32.76,"centroid_coordinates":[12.282413449781707,47.79761750774032]}},{"type":"Feature","geometry":{"type":"Point","coordinates":[12.189799529289786,47.989989573287545]},"properties":{"id":"134","land-id":"09187","name":"Griesst\u00e4tt","population":2838,"area":29.63,"centroid_coordinates":[12.189799529289786,47.989989573287545]}},{"type":"Feature","geometry":{"type":"Point","coordinates":[12.067978133151426,47.900317342705016]},"properties":{"id":"137","land-id":"09187","name":"Gro\u00dfkarolinenfeld","population":7376,"area":29.12,"centroid_coordinates":[12.067978133151426,47.900317342705016]}},{"type":"Feature","geometry":{"type":"Point","coordinates":[12.416770775813081,47.90431676139817]},"properties":{"id":"138","land-id":"09187","name":"Gstadt a.Chiemsee","population":1158,"area":10.68,"centroid_coordinates":[12.416770775813081,47.90431676139817]}},{"type":"Feature","geometry":{"type":"Point","coordinates":[12.267465111567168,47.952363264015375]},"properties":{"id":"139","land-id":"09187","name":"Halfing","population":2779,"area":22.81,"centroid_coordinates":[12.267465111567168,47.952363264015375]}},{"type":"Feature","geometry":{"type":"Point","coordinates":[12.119738822172469,47.92623355108221]},"properties":{"id":"142","land-id":"09187","name":"Schechen","population":5373,"area":31.39,"centroid_coordinates":[12.119738822172469,47.92623355108221]}},{"type":"Feature","geometry":{"type":"Point","coordinates":[12.320214527996898,47.9481494196699]},"properties":{"id":"145","land-id":"09187","name":"H\u00f6slwang","population":1213,"area":16.2,"centroid_coordinates":[12.320214527996898,47.9481494196699]}},{"type":"Feature","geometry":{"type":"Point","coordinates":[12.12770084029437,47.6258579572523]},"properties":{"id":"148","land-id":"09187","name":"Kiefersfelden","population":6531,"area":36.78,"centroid_coordinates":[12.12770084029437,47.6258579572523]}},{"type":"Feature","geometry":{"type":"Point","coordinates":[12.047480065268175,47.842993740189364]},"properties":{"id":"150","land-id":"09187","name":"Kolbermoor","population":19047,"area":19.84,"centroid_coordinates":[12.047480065268175,47.842993740189364]}},{"type":"Feature","geometry":{"type":"Point","coordinates":[12.150792062249726,47.77914812255689]},"properties":{"id":"154","land-id":"09187","name":"Neubeuern","population":4106,"area":15.31,"centroid_coordinates":[12.150792062249726,47.77914812255689]}},{"type":"Feature","geometry":{"type":"Point","coordinates":[12.176388302583153,47.728657082253065]},"properties":{"id":"156","land-id":"09187","name":"Nu\u00dfdorf a.Inn","population":2547,"area":28.59,"centroid_coordinates":[12.176388302583153,47.728657082253065]}},{"type":"Feature","geometry":{"type":"Point","coordinates":[12.11359727609672,47.663128145879384]},"properties":{"id":"157","land-id":"09187","name":"Oberaudorf","population":4978,"area":59.29,"centroid_coordinates":[12.11359727609672,47.663128145879384]}},{"type":"Feature","geometry":{"type":"Point","coordinates":[12.103616672166472,48.05301669402555]},"properties":{"id":"159","land-id":"09187","name":"Pfaffing","population":4108,"area":35.37,"centroid_coordinates":[12.103616672166472,48.05301669402555]}},{"type":"Feature","geometry":{"type":"Point","coordinates":[12.333697871895893,47.846163514883926]},"properties":{"id":"162","land-id":"09187","name":"Prien a.Chiemsee","population":10918,"area":20.56,"centroid_coordinates":[12.333697871895893,47.846163514883926]}},{"type":"Feature","geometry":{"type":"Point","coordinates":[12.191697677812146,47.887923785541034]},"properties":{"id":"163","land-id":"09187","name":"Prutting","population":2895,"area":16.21,"centroid_coordinates":[12.191697677812146,47.887923785541034]}},{"type":"Feature","geometry":{"type":"Point","coordinates":[12.146895151803891,48.01500950383203]},"properties":{"id":"164","land-id":"09187","name":"Ramerberg","population":1393,"area":8.11,"centroid_coordinates":[12.146895151803891,48.01500950383203]}},{"type":"Feature","geometry":{"type":"Point","coordinates":[12.084732610249961,47.786910619172126]},"properties":{"id":"165","land-id":"09187","name":"Raubling","population":11108,"area":44.26,"centroid_coordinates":[12.084732610249961,47.786910619172126]}},{"type":"Feature","geometry":{"type":"Point","coordinates":[12.237545814958105,47.839525010928064]},"properties":{"id":"167","land-id":"09187","name":"Riedering","population":5533,"area":38.09,"centroid_coordinates":[12.237545814958105,47.839525010928064]}},{"type":"Feature","geometry":{"type":"Point","coordinates":[12.328019892621192,47.87491161532264]},"properties":{"id":"168","land-id":"09187","name":"Rimsting","population":3777,"area":19.96,"centroid_coordinates":[12.328019892621192,47.87491161532264]}},{"type":"Feature","geometry":{"type":"Point","coordinates":[12.187365699324651,47.80722267481396]},"properties":{"id":"169","land-id":"09187","name":"Rohrdorf","population":5846,"area":28.66,"centroid_coordinates":[12.187365699324651,47.80722267481396]}},{"type":"Feature","geometry":{"type":"Point","coordinates":[12.126385024368386,47.988219757209535]},"properties":{"id":"170","land-id":"09187","name":"Rott a.Inn","population":4146,"area":19.59,"centroid_coordinates":[12.126385024368386,47.988219757209535]}},{"type":"Feature","geometry":{"type":"Point","coordinates":[12.21502591004447,47.76133734750072]},"properties":{"id":"172","land-id":"09187","name":"Samerberg","population":2775,"area":33.41,"centroid_coordinates":[12.21502591004447,47.76133734750072]}},{"type":"Feature","geometry":{"type":"Point","coordinates":[12.253896843993786,47.98692828277013]},"properties":{"id":"173","land-id":"09187","name":"Schonstett","population":1444,"area":13.54,"centroid_coordinates":[12.253896843993786,47.98692828277013]}},{"type":"Feature","geometry":{"type":"Point","coordinates":[12.230619222537726,47.919418162347675]},"properties":{"id":"174","land-id":"09187","name":"S\u00f6chtenau","population":2655,"area":25.59,"centroid_coordinates":[12.230619222537726,47.919418162347675]}},{"type":"Feature","geometry":{"type":"Point","coordinates":[12.214729483084609,48.10449339625268]},"properties":{"id":"176","land-id":"09187","name":"Soyen","population":2914,"area":28.91,"centroid_coordinates":[12.214729483084609,48.10449339625268]}},{"type":"Feature","geometry":{"type":"Point","coordinates":[12.180869744561514,47.8626077126104]},"properties":{"id":"177","land-id":"09187","name":"Stephanskirchen","population":10168,"area":26.59,"centroid_coordinates":[12.180869744561514,47.8626077126104]}},{"type":"Feature","geometry":{"type":"Point","coordinates":[12.003447873833041,47.94405588098738]},"properties":{"id":"179","land-id":"09187","name":"Tuntenhausen","population":7014,"area":69.02,"centroid_coordinates":[12.003447873833041,47.94405588098738]}},{"type":"Feature","geometry":{"type":"Point","coordinates":[12.176438205805368,47.931498651175666]},"properties":{"id":"181","land-id":"09187","name":"Vogtareuth","population":3191,"area":34.28,"centroid_coordinates":[12.176438205805368,47.931498651175666]}},{"type":"Feature","geometry":{"type":"Point","coordinates":[12.200453935950085,48.054206536806085]},"properties":{"id":"182","land-id":"09187","name":"Wasserburg a.Inn","population":12347,"area":18.8,"centroid_coordinates":[12.200453935950085,48.054206536806085]}},{"type":"Feature","geometry":{"type":"Point","coordinates":[12.114350469676266,48.107269428458785]},"properties":{"id":"186","land-id":"09187","name":"Albaching","population":1732,"area":18.14,"centroid_coordinates":[12.114350469676266,48.107269428458785]}}]}