{"type":"FeatureCollection","features":[{"type":"Feature","geometry":{"type":"Point","coordinates":[11.073914686361922,47.66444530593734]},"properties":{"id":"112","land-id":"09180","name":"Bad Kohlgrub","population":2898,"area":32.63,"centroid_coordinates":[11.073914686361922,47.66444530593734]}},{"type":"Feature","geometry":{"type":"Point","coordinates":[11.004809055876462,47.695978093705385]},"properties":{"id":"113","land-id":"09180","name":"Bad Bayersoien","population":1267,"area":17.65,"centroid_coordinates":[11.004809055876462,47.695978093705385]}},{"type":"Feature","geometry":{"type":"Point","coordinates":[11.197589031097015,47.58576176777869]},"properties":{"id":"114","land-id":"09180","name":"Eschenlohe","population":1565,"area":55.05,"centroid_coordinates":[11.197589031097015,47.58576176777869]}},{"type":"Feature","geometry":{"type":"Point","coordinates":[11.044262429140984,47.57252109356537]},"properties":{"id":"115","land-id":"09180","name":"Ettal","population":690,"area":14.69,"centroid_coordinates":[11.044262429140984,47.57252109356537]}},{"type":"Feature","geometry":{"type":"Point","coordinates":[11.107618055886526,47.53463985442499]},"properties":{"id":"116","land-id":"09180","name":"Farchant","population":3559,"area":25.75,"centroid_coordinates":[11.107618055886526,47.53463985442499]}},{"type":"Feature","geometry":{"type":"Point","coordinates":[11.071828190352338,47.4742215785088]},"properties":{"id":"117","land-id":"09180","name":"Garmisch-Partenkirchen","population":28519,"area":205.76,"centroid_coordinates":[11.071828190352338,47.4742215785088]}},{"type":"Feature","geometry":{"type":"Point","coordinates":[11.006825614323667,47.45463137500026]},"properties":{"id":"118","land-id":"09180","name":"Grainau","population":3576,"area":49.28,"centroid_coordinates":[11.006825614323667,47.45463137500026]}},{"type":"Feature","geometry":{"type":"Point","coordinates":[11.303831925587899,47.68566066806339]},"properties":{"id":"119","land-id":"09180","name":"Gro\u00dfweil","population":1630,"area":22.05,"centroid_coordinates":[11.303831925587899,47.68566066806339]}},{"type":"Feature","geometry":{"type":"Point","coordinates":[11.223537467636266,47.49554197954889]},"properties":{"id":"122","land-id":"09180","name":"Kr\u00fcn","population":1991,"area":36.32,"centroid_coordinates":[11.223537467636266,47.49554197954889]}},{"type":"Feature","geometry":{"type":"Point","coordinates":[11.295486743052685,47.46372673056587]},"properties":{"id":"123","land-id":"09180","name":"Mittenwald","population":7398,"area":132.8,"centroid_coordinates":[11.295486743052685,47.46372673056587]}},{"type":"Feature","geometry":{"type":"Point","coordinates":[11.181423635208747,47.66341670237416]},"properties":{"id":"124","land-id":"09180","name":"Murnau a.Staffelsee","population":11955,"area":38.15,"centroid_coordinates":[11.181423635208747,47.66341670237416]}},{"type":"Feature","geometry":{"type":"Point","coordinates":[11.071172779302024,47.59623526612364]},"properties":{"id":"125","land-id":"09180","name":"Oberammergau","population":5188,"area":30.03,"centroid_coordinates":[11.071172779302024,47.59623526612364]}},{"type":"Feature","geometry":{"type":"Point","coordinates":[11.144064725067894,47.55996635842434]},"properties":{"id":"126","land-id":"09180","name":"Oberau","population":3106,"area":17.87,"centroid_coordinates":[11.144064725067894,47.55996635842434]}},{"type":"Feature","geometry":{"type":"Point","coordinates":[11.239455345542112,47.63173993568652]},"properties":{"id":"127","land-id":"09180","name":"Ohlstadt","population":3332,"area":41.14,"centroid_coordinates":[11.239455345542112,47.63173993568652]}},{"type":"Feature","geometry":{"type":"Point","coordinates":[11.25436492214409,47.697266054659266]},"properties":{"id":"128","land-id":"09180","name":"Riegsee","population":1265,"area":20.39,"centroid_coordinates":[11.25436492214409,47.697266054659266]}},{"type":"Feature","geometry":{"type":"Point","coordinates":[10.989721424897837,47.63377850983737]},"properties":{"id":"129","land-id":"09180","name":"Saulgrub","population":1635,"area":35.52,"centroid_coordinates":[10.989721424897837,47.63377850983737]}},{"type":"Feature","geometry":{"type":"Point","coordinates":[11.123427570277386,47.62294801404252]},"properties":{"id":"131","land-id":"09180","name":"Schwaigen","population":622,"area":23.53,"centroid_coordinates":[11.123427570277386,47.62294801404252]}},{"type":"Feature","geometry":{"type":"Point","coordinates":[11.16795132708472,47.69106128897356]},"properties":{"id":"132","land-id":"09180","name":"Seehausen a.Staffelsee","population":2436,"area":15.75,"centroid_coordinates":[11.16795132708472,47.69106128897356]}},{"type":"Feature","geometry":{"type":"Point","coordinates":[11.205648012208576,47.7155445179617]},"properties":{"id":"133","land-id":"09180","name":"Spatzenhausen","population":738,"area":7.73,"centroid_coordinates":[11.205648012208576,47.7155445179617]}},{"type":"Feature","geometry":{"type":"Point","coordinates":[11.107777679191795,47.70867720103355]},"properties":{"id":"134","land-id":"09180","name":"Uffing a.Staffelsee","population":3084,"area":42.6,"centroid_coordinates":[11.107777679191795,47.70867720103355]}},{"type":"Feature","geometry":{"type":"Point","coordinates":[11.020706203997813,47.614634722466555]},"properties":{"id":"135","land-id":"09180","name":"Unterammergau","population":1707,"area":30.03,"centroid_coordinates":[11.020706203997813,47.614634722466555]}},{"type":"Feature","geometry":{"type":"Point","coordinates":[11.275939601058424,47.54170271342085]},"properties":{"id":"136","land-id":"09180","name":"Wallgau","population":1523,"area":33.92,"centroid_coordinates":[11.275939601058424,47.54170271342085]}}]}