{"type":"FeatureCollection","features":[{"type":"Feature","geometry":{"type":"Point","coordinates":[12.92722723252377,47.819713210729475]},"properties":{"id":"111","land-id":"09172","name":"Ainring","population":9667,"area":32.9,"centroid_coordinates":[12.92722723252377,47.819713210729475]}},{"type":"Feature","geometry":{"type":"Point","coordinates":[12.8462576727328,47.796832950411215]},"properties":{"id":"112","land-id":"09172","name":"Anger","population":4250,"area":45.97,"centroid_coordinates":[12.8462576727328,47.796832950411215]}},{"type":"Feature","geometry":{"type":"Point","coordinates":[12.861190528063343,47.730157944729406]},"properties":{"id":"114","land-id":"09172","name":"Bad Reichenhall","population":18464,"area":41.96,"centroid_coordinates":[12.861190528063343,47.730157944729406]}},{"type":"Feature","geometry":{"type":"Point","coordinates":[12.902207327902042,47.71004911259048]},"properties":{"id":"115","land-id":"09172","name":"Bayerisch Gmain","population":2981,"area":12.32,"centroid_coordinates":[12.902207327902042,47.71004911259048]}},{"type":"Feature","geometry":{"type":"Point","coordinates":[13.031367032361626,47.64314166780071]},"properties":{"id":"116","land-id":"09172","name":"Berchtesgaden","population":7745,"area":35.65,"centroid_coordinates":[13.031367032361626,47.64314166780071]}},{"type":"Feature","geometry":{"type":"Point","coordinates":[12.944109803761307,47.66215720220849]},"properties":{"id":"117","land-id":"09172","name":"Bischofswiesen","population":7096,"area":62.03,"centroid_coordinates":[12.944109803761307,47.66215720220849]}},{"type":"Feature","geometry":{"type":"Point","coordinates":[12.97504560920809,47.84519890728039]},"properties":{"id":"118","land-id":"09172","name":"Freilassing","population":17579,"area":14.79,"centroid_coordinates":[12.97504560920809,47.84519890728039]}},{"type":"Feature","geometry":{"type":"Point","coordinates":[12.90052922431851,47.92545652074098]},"properties":{"id":"122","land-id":"09172","name":"Laufen","population":7237,"area":35.18,"centroid_coordinates":[12.90052922431851,47.92545652074098]}},{"type":"Feature","geometry":{"type":"Point","coordinates":[13.044162538337359,47.68309902125021]},"properties":{"id":"124","land-id":"09172","name":"Marktschellenberg","population":1726,"area":17.61,"centroid_coordinates":[13.044162538337359,47.68309902125021]}},{"type":"Feature","geometry":{"type":"Point","coordinates":[12.89782031916446,47.77070932088832]},"properties":{"id":"128","land-id":"09172","name":"Piding","population":5249,"area":17.63,"centroid_coordinates":[12.89782031916446,47.77070932088832]}},{"type":"Feature","geometry":{"type":"Point","coordinates":[12.871510215772233,47.58400446281156]},"properties":{"id":"129","land-id":"09172","name":"Ramsau b.Berchtesgaden","population":1684,"area":129.13,"centroid_coordinates":[12.871510215772233,47.58400446281156]}},{"type":"Feature","geometry":{"type":"Point","coordinates":[12.92800219359952,47.87963705184462]},"properties":{"id":"130","land-id":"09172","name":"Saaldorf-Surheim","population":5545,"area":39.18,"centroid_coordinates":[12.92800219359952,47.87963705184462]}},{"type":"Feature","geometry":{"type":"Point","coordinates":[12.796941399955779,47.68831736749687]},"properties":{"id":"131","land-id":"09172","name":"Schneizlreuth","population":1381,"area":107.35,"centroid_coordinates":[12.796941399955779,47.68831736749687]}},{"type":"Feature","geometry":{"type":"Point","coordinates":[12.987296074389336,47.54347628283919]},"properties":{"id":"132","land-id":"09172","name":"Sch\u00f6nau a.K\u00f6nigssee","population":5398,"area":131.57,"centroid_coordinates":[12.987296074389336,47.54347628283919]}},{"type":"Feature","geometry":{"type":"Point","coordinates":[12.807402907847433,47.84978828916088]},"properties":{"id":"134","land-id":"09172","name":"Teisendorf","population":9283,"area":86.67,"centroid_coordinates":[12.807402907847433,47.84978828916088]}}]}