{"type":"FeatureCollection","features":[{"type":"Feature","geometry":{"type":"Point","coordinates":[11.450698836593128,47.754665319716096]},"properties":{"id":"111","land-id":"09173","name":"Bad Heilbrunn","population":3857,"area":40.3,"centroid_coordinates":[11.450698836593128,47.754665319716096]}},{"type":"Feature","geometry":{"type":"Point","coordinates":[11.571920580818308,47.78298763619729]},"properties":{"id":"112","land-id":"09173","name":"Bad T\u00f6lz","population":19751,"area":30.79,"centroid_coordinates":[11.571920580818308,47.78298763619729]}},{"type":"Feature","geometry":{"type":"Point","coordinates":[11.422255275718904,47.68960107003697]},"properties":{"id":"113","land-id":"09173","name":"Benediktbeuern","population":3679,"area":37.85,"centroid_coordinates":[11.422255275718904,47.68960107003697]}},{"type":"Feature","geometry":{"type":"Point","coordinates":[11.432706844719684,47.719232397304644]},"properties":{"id":"115","land-id":"09173","name":"Bichl","population":2335,"area":13.92,"centroid_coordinates":[11.432706844719684,47.719232397304644]}},{"type":"Feature","geometry":{"type":"Point","coordinates":[11.57542020369527,47.86909191973282]},"properties":{"id":"118","land-id":"09173","name":"Dietramszell","population":5590,"area":96.79,"centroid_coordinates":[11.57542020369527,47.86909191973282]}},{"type":"Feature","geometry":{"type":"Point","coordinates":[11.513798597570966,47.92773375253024]},"properties":{"id":"120","land-id":"09173","name":"Egling","population":5343,"area":74.28,"centroid_coordinates":[11.513798597570966,47.92773375253024]}},{"type":"Feature","geometry":{"type":"Point","coordinates":[11.40143790730372,47.83456924397005]},"properties":{"id":"123","land-id":"09173","name":"Eurasburg","population":4334,"area":40.9,"centroid_coordinates":[11.40143790730372,47.83456924397005]}},{"type":"Feature","geometry":{"type":"Point","coordinates":[11.6097606396759,47.7168575248287]},"properties":{"id":"124","land-id":"09173","name":"Gai\u00dfach","population":3171,"area":38.35,"centroid_coordinates":[11.6097606396759,47.7168575248287]}},{"type":"Feature","geometry":{"type":"Point","coordinates":[11.4537373182874,47.87102409797549]},"properties":{"id":"126","land-id":"09173","name":"Geretsried","population":26084,"area":24.59,"centroid_coordinates":[11.4537373182874,47.87102409797549]}},{"type":"Feature","geometry":{"type":"Point","coordinates":[11.608540896827307,47.75593604809661]},"properties":{"id":"127","land-id":"09173","name":"Greiling","population":1458,"area":7.67,"centroid_coordinates":[11.608540896827307,47.75593604809661]}},{"type":"Feature","geometry":{"type":"Point","coordinates":[11.423554493322866,47.94711226427987]},"properties":{"id":"130","land-id":"09173","name":"Icking","population":3702,"area":16.99,"centroid_coordinates":[11.423554493322866,47.94711226427987]}},{"type":"Feature","geometry":{"type":"Point","coordinates":[11.429207117994984,47.595934797989244]},"properties":{"id":"131","land-id":"09173","name":"Jachenau","population":824,"area":128.67,"centroid_coordinates":[11.429207117994984,47.595934797989244]}},{"type":"Feature","geometry":{"type":"Point","coordinates":[11.353049712199429,47.62805304406266]},"properties":{"id":"133","land-id":"09173","name":"Kochel a.See","population":4117,"area":80.11,"centroid_coordinates":[11.353049712199429,47.62805304406266]}},{"type":"Feature","geometry":{"type":"Point","coordinates":[11.466877418798289,47.81261199722089]},"properties":{"id":"134","land-id":"09173","name":"K\u00f6nigsdorf","population":3155,"area":45.7,"centroid_coordinates":[11.466877418798289,47.81261199722089]}},{"type":"Feature","geometry":{"type":"Point","coordinates":[11.534393693127605,47.59633735805474]},"properties":{"id":"135","land-id":"09173","name":"Lenggries","population":10073,"area":243.0,"centroid_coordinates":[11.534393693127605,47.59633735805474]}},{"type":"Feature","geometry":{"type":"Point","coordinates":[11.362731853662652,47.874310611065454]},"properties":{"id":"137","land-id":"09173","name":"M\u00fcnsing","population":4381,"area":52.19,"centroid_coordinates":[11.362731853662652,47.874310611065454]}},{"type":"Feature","geometry":{"type":"Point","coordinates":[11.632263997040887,47.76372168494055]},"properties":{"id":"140","land-id":"09173","name":"Reichersbeuern","population":2369,"area":15.36,"centroid_coordinates":[11.632263997040887,47.76372168494055]}},{"type":"Feature","geometry":{"type":"Point","coordinates":[11.629492485157886,47.80858941492906]},"properties":{"id":"141","land-id":"09173","name":"Sachsenkam","population":1342,"area":15.93,"centroid_coordinates":[11.629492485157886,47.80858941492906]}},{"type":"Feature","geometry":{"type":"Point","coordinates":[11.307165911648802,47.64564559127919]},"properties":{"id":"142","land-id":"09173","name":"Schlehdorf","population":1337,"area":25.41,"centroid_coordinates":[11.307165911648802,47.64564559127919]}},{"type":"Feature","geometry":{"type":"Point","coordinates":[11.515527182078435,47.74069772117219]},"properties":{"id":"145","land-id":"09173","name":"Wackersberg","population":3686,"area":64.92,"centroid_coordinates":[11.515527182078435,47.74069772117219]}},{"type":"Feature","geometry":{"type":"Point","coordinates":[11.427153506592777,47.90921099970277]},"properties":{"id":"147","land-id":"09173","name":"Wolfratshausen","population":19494,"area":9.09,"centroid_coordinates":[11.427153506592777,47.90921099970277]}}]}