{"type":"FeatureCollection","features":[{"type":"Feature","geometry":{"type":"Point","coordinates":[10.167487256037644,50.00020654515756]},"properties":{"id":"115","land-id":"09678","name":"Bergrheinfeld","population":5275,"area":19.86,"centroid_coordinates":[10.167487256037644,50.00020654515756]}},{"type":"Feature","geometry":{"type":"Point","coordinates":[10.397763847819089,49.910437810093065]},"properties":{"id":"122","land-id":"09678","name":"Dingolshausen","population":1359,"area":10.21,"centroid_coordinates":[10.397763847819089,49.910437810093065]}},{"type":"Feature","geometry":{"type":"Point","coordinates":[10.20590362826882,50.111900597218884]},"properties":{"id":"123","land-id":"09678","name":"Dittelbrunn","population":7478,"area":23.89,"centroid_coordinates":[10.20590362826882,50.111900597218884]}},{"type":"Feature","geometry":{"type":"Point","coordinates":[10.406447761014908,49.96419230179316]},"properties":{"id":"124","land-id":"09678","name":"Donnersdorf","population":1959,"area":26.93,"centroid_coordinates":[10.406447761014908,49.96419230179316]}},{"type":"Feature","geometry":{"type":"Point","coordinates":[10.098476368377293,50.068456875753675]},"properties":{"id":"128","land-id":"09678","name":"Euerbach","population":2911,"area":17.41,"centroid_coordinates":[10.098476368377293,50.068456875753675]}},{"type":"Feature","geometry":{"type":"Point","coordinates":[10.310747755776314,49.894393486761146]},"properties":{"id":"130","land-id":"09678","name":"Frankenwinheim","population":978,"area":14.74,"centroid_coordinates":[10.310747755776314,49.894393486761146]}},{"type":"Feature","geometry":{"type":"Point","coordinates":[10.144966471507574,50.04248586141624]},"properties":{"id":"132","land-id":"09678","name":"Geldersheim","population":2624,"area":15.29,"centroid_coordinates":[10.144966471507574,50.04248586141624]}},{"type":"Feature","geometry":{"type":"Point","coordinates":[10.355914425678574,49.90222966168049]},"properties":{"id":"134","land-id":"09678","name":"Gerolzhofen","population":6756,"area":18.34,"centroid_coordinates":[10.355914425678574,49.90222966168049]}},{"type":"Feature","geometry":{"type":"Point","coordinates":[10.288474309730734,50.017005066637125]},"properties":{"id":"135","land-id":"09678","name":"Gochsheim","population":6060,"area":20.81,"centroid_coordinates":[10.288474309730734,50.017005066637125]}},{"type":"Feature","geometry":{"type":"Point","coordinates":[10.208156365313203,49.99401277806981]},"properties":{"id":"136","land-id":"09678","name":"Grafenrheinfeld","population":3451,"area":11.3,"centroid_coordinates":[10.208156365313203,49.99401277806981]}},{"type":"Feature","geometry":{"type":"Point","coordinates":[10.340006453142076,49.98962731531698]},"properties":{"id":"138","land-id":"09678","name":"Grettstadt","population":4276,"area":34.88,"centroid_coordinates":[10.340006453142076,49.98962731531698]}},{"type":"Feature","geometry":{"type":"Point","coordinates":[10.252891803456357,49.93005617381382]},"properties":{"id":"150","land-id":"09678","name":"Kolitzheim","population":5664,"area":59.11,"centroid_coordinates":[10.252891803456357,49.93005617381382]}},{"type":"Feature","geometry":{"type":"Point","coordinates":[10.34107941740081,49.87010174084973]},"properties":{"id":"153","land-id":"09678","name":"L\u00fclsfeld","population":776,"area":11.18,"centroid_coordinates":[10.34107941740081,49.87010174084973]}},{"type":"Feature","geometry":{"type":"Point","coordinates":[10.437773650334766,49.91933596402981]},"properties":{"id":"157","land-id":"09678","name":"Michelau i.Steigerwald","population":1185,"area":14.19,"centroid_coordinates":[10.437773650334766,49.91933596402981]}},{"type":"Feature","geometry":{"type":"Point","coordinates":[10.170020865264759,50.069147654270466]},"properties":{"id":"160","land-id":"09678","name":"Niederwerrn","population":8431,"area":9.76,"centroid_coordinates":[10.170020865264759,50.069147654270466]}},{"type":"Feature","geometry":{"type":"Point","coordinates":[10.417753378309241,49.85374304501292]},"properties":{"id":"164","land-id":"09678","name":"Oberschwarzach","population":1425,"area":25.56,"centroid_coordinates":[10.417753378309241,49.85374304501292]}},{"type":"Feature","geometry":{"type":"Point","coordinates":[10.14533043266653,50.10290088823734]},"properties":{"id":"168","land-id":"09678","name":"Poppenhausen","population":4435,"area":39.03,"centroid_coordinates":[10.14533043266653,50.10290088823734]}},{"type":"Feature","geometry":{"type":"Point","coordinates":[10.213800006362876,49.96375473106793]},"properties":{"id":"170","land-id":"09678","name":"R\u00f6thlein","population":4435,"area":19.07,"centroid_coordinates":[10.213800006362876,49.96375473106793]}},{"type":"Feature","geometry":{"type":"Point","coordinates":[10.34884492330164,50.07731746864332]},"properties":{"id":"174","land-id":"09678","name":"Schonungen","population":7601,"area":80.89,"centroid_coordinates":[10.34884492330164,50.07731746864332]}},{"type":"Feature","geometry":{"type":"Point","coordinates":[10.133364458831432,49.920667343346125]},"properties":{"id":"175","land-id":"09678","name":"Schwanfeld","population":1747,"area":11.92,"centroid_coordinates":[10.133364458831432,49.920667343346125]}},{"type":"Feature","geometry":{"type":"Point","coordinates":[10.258397319911888,49.99053974207957]},"properties":{"id":"176","land-id":"09678","name":"Schwebheim","population":4148,"area":8.12,"centroid_coordinates":[10.258397319911888,49.99053974207957]}},{"type":"Feature","geometry":{"type":"Point","coordinates":[10.262634278497156,50.03934946711854]},"properties":{"id":"178","land-id":"09678","name":"Sennfeld","population":4196,"area":6.91,"centroid_coordinates":[10.262634278497156,50.03934946711854]}},{"type":"Feature","geometry":{"type":"Point","coordinates":[10.384849345935727,50.18450065160034]},"properties":{"id":"181","land-id":"09678","name":"Stadtlauringen","population":4175,"area":63.56,"centroid_coordinates":[10.384849345935727,50.18450065160034]}},{"type":"Feature","geometry":{"type":"Point","coordinates":[10.344029217282955,49.94317435765938]},"properties":{"id":"183","land-id":"09678","name":"Sulzheim","population":1999,"area":26.75,"centroid_coordinates":[10.344029217282955,49.94317435765938]}},{"type":"Feature","geometry":{"type":"Point","coordinates":[10.283900673067391,50.12173185748631]},"properties":{"id":"186","land-id":"09678","name":"\u00dcchtelhausen","population":3764,"area":62.12,"centroid_coordinates":[10.283900673067391,50.12173185748631]}},{"type":"Feature","geometry":{"type":"Point","coordinates":[10.141204997429353,49.95590571599317]},"properties":{"id":"190","land-id":"09678","name":"Waigolshausen","population":2698,"area":23.74,"centroid_coordinates":[10.141204997429353,49.95590571599317]}},{"type":"Feature","geometry":{"type":"Point","coordinates":[10.024168249782525,50.068042043325164]},"properties":{"id":"192","land-id":"09678","name":"Wasserlosen","population":3422,"area":51.28,"centroid_coordinates":[10.024168249782525,50.068042043325164]}},{"type":"Feature","geometry":{"type":"Point","coordinates":[10.083600897618098,49.9905036551571]},"properties":{"id":"193","land-id":"09678","name":"Werneck","population":10065,"area":73.64,"centroid_coordinates":[10.083600897618098,49.9905036551571]}},{"type":"Feature","geometry":{"type":"Point","coordinates":[10.173290266080057,49.92114728838253]},"properties":{"id":"196","land-id":"09678","name":"Wipfeld","population":996,"area":5.24,"centroid_coordinates":[10.173290266080057,49.92114728838253]}}]}