{"type":"FeatureCollection","features":[{"type":"Feature","geometry":{"type":"Point","coordinates":[9.961137115833585,49.98706409734345]},"properties":{"id":"114","land-id":"09677","name":"Arnstein","population":8250,"area":111.97,"centroid_coordinates":[9.961137115833585,49.98706409734345]}},{"type":"Feature","geometry":{"type":"Point","coordinates":[9.56187440313657,50.17323400694738]},"properties":{"id":"116","land-id":"09677","name":"Aura i.Sinngrund","population":934,"area":12.05,"centroid_coordinates":[9.56187440313657,50.17323400694738]}},{"type":"Feature","geometry":{"type":"Point","coordinates":[9.715870022564145,49.86204682788811]},"properties":{"id":"119","land-id":"09677","name":"Birkenfeld","population":2176,"area":29.14,"centroid_coordinates":[9.715870022564145,49.86204682788811]}},{"type":"Feature","geometry":{"type":"Point","coordinates":[9.468927030000637,49.87926859515468]},"properties":{"id":"120","land-id":"09677","name":"Bischbrunn","population":1804,"area":36.9,"centroid_coordinates":[9.468927030000637,49.87926859515468]}},{"type":"Feature","geometry":{"type":"Point","coordinates":[9.64595538141222,50.14800891431329]},"properties":{"id":"122","land-id":"09677","name":"Burgsinn","population":2308,"area":51.27,"centroid_coordinates":[9.64595538141222,50.14800891431329]}},{"type":"Feature","geometry":{"type":"Point","coordinates":[9.643184458421489,49.82261633366315]},"properties":{"id":"125","land-id":"09677","name":"Erlenbach b.Marktheidenfeld","population":2400,"area":15.3,"centroid_coordinates":[9.643184458421489,49.82261633366315]}},{"type":"Feature","geometry":{"type":"Point","coordinates":[9.525575130762514,49.86039551910948]},"properties":{"id":"126","land-id":"09677","name":"Esselbach","population":2077,"area":11.93,"centroid_coordinates":[9.525575130762514,49.86039551910948]}},{"type":"Feature","geometry":{"type":"Point","coordinates":[9.847486996250156,50.00835618202222]},"properties":{"id":"127","land-id":"09677","name":"Eu\u00dfenheim","population":3013,"area":56.78,"centroid_coordinates":[9.847486996250156,50.00835618202222]}},{"type":"Feature","geometry":{"type":"Point","coordinates":[9.556844859105095,50.13669625103059]},"properties":{"id":"128","land-id":"09677","name":"Fellen","population":844,"area":34.35,"centroid_coordinates":[9.556844859105095,50.13669625103059]}},{"type":"Feature","geometry":{"type":"Point","coordinates":[9.451118488038535,50.06293335354942]},"properties":{"id":"129","land-id":"09677","name":"Frammersbach","population":4436,"area":19.15,"centroid_coordinates":[9.451118488038535,50.06293335354942]}},{"type":"Feature","geometry":{"type":"Point","coordinates":[9.692938838802315,50.056509470700895]},"properties":{"id":"131","land-id":"09677","name":"Gem\u00fcnden a.Main","population":10070,"area":75.08,"centroid_coordinates":[9.692938838802315,50.056509470700895]}},{"type":"Feature","geometry":{"type":"Point","coordinates":[9.774681311338982,50.01978679754466]},"properties":{"id":"132","land-id":"09677","name":"G\u00f6ssenheim","population":1088,"area":11.51,"centroid_coordinates":[9.774681311338982,50.01978679754466]}},{"type":"Feature","geometry":{"type":"Point","coordinates":[9.729893414739532,50.11992685564155]},"properties":{"id":"133","land-id":"09677","name":"Gr\u00e4fendorf","population":1287,"area":45.25,"centroid_coordinates":[9.729893414739532,50.11992685564155]}},{"type":"Feature","geometry":{"type":"Point","coordinates":[9.572136486912532,49.87811182953639]},"properties":{"id":"135","land-id":"09677","name":"Hafenlohr","population":1758,"area":11.3,"centroid_coordinates":[9.572136486912532,49.87811182953639]}},{"type":"Feature","geometry":{"type":"Point","coordinates":[9.48262202864971,49.80189720657801]},"properties":{"id":"137","land-id":"09677","name":"Hasloch","population":1400,"area":10.37,"centroid_coordinates":[9.48262202864971,49.80189720657801]}},{"type":"Feature","geometry":{"type":"Point","coordinates":[9.782104640339186,49.92388056542104]},"properties":{"id":"142","land-id":"09677","name":"Himmelstadt","population":1594,"area":13.37,"centroid_coordinates":[9.782104640339186,49.92388056542104]}},{"type":"Feature","geometry":{"type":"Point","coordinates":[9.644891533468527,49.86422354879721]},"properties":{"id":"146","land-id":"09677","name":"Karbach","population":1468,"area":24.08,"centroid_coordinates":[9.644891533468527,49.86422354879721]}},{"type":"Feature","geometry":{"type":"Point","coordinates":[9.743912975356162,49.96993423595615]},"properties":{"id":"148","land-id":"09677","name":"Karlstadt","population":14881,"area":98.04,"centroid_coordinates":[9.743912975356162,49.96993423595615]}},{"type":"Feature","geometry":{"type":"Point","coordinates":[9.787131964941889,50.060504200557475]},"properties":{"id":"149","land-id":"09677","name":"Karsbach","population":1701,"area":30.1,"centroid_coordinates":[9.787131964941889,50.060504200557475]}},{"type":"Feature","geometry":{"type":"Point","coordinates":[9.53257221637006,49.786546992873426]},"properties":{"id":"151","land-id":"09677","name":"Kreuzwertheim","population":3862,"area":19.97,"centroid_coordinates":[9.53257221637006,49.786546992873426]}},{"type":"Feature","geometry":{"type":"Point","coordinates":[9.59750861798136,49.800881022167125]},"properties":{"id":"154","land-id":"09677","name":"Triefenstein","population":4329,"area":25.45,"centroid_coordinates":[9.59750861798136,49.800881022167125]}},{"type":"Feature","geometry":{"type":"Point","coordinates":[9.5690806674726,50.0038137980873]},"properties":{"id":"155","land-id":"09677","name":"Lohr a.Main","population":15018,"area":90.39,"centroid_coordinates":[9.5690806674726,50.0038137980873]}},{"type":"Feature","geometry":{"type":"Point","coordinates":[9.56832816100115,49.841212508253854]},"properties":{"id":"157","land-id":"09677","name":"Marktheidenfeld","population":11554,"area":35.67,"centroid_coordinates":[9.56832816100115,49.841212508253854]}},{"type":"Feature","geometry":{"type":"Point","coordinates":[9.61920965425149,50.1888077299191]},"properties":{"id":"159","land-id":"09677","name":"Mittelsinn","population":809,"area":14.25,"centroid_coordinates":[9.61920965425149,50.1888077299191]}},{"type":"Feature","geometry":{"type":"Point","coordinates":[9.620347053998985,50.03538435836223]},"properties":{"id":"164","land-id":"09677","name":"Neuendorf","population":818,"area":9.68,"centroid_coordinates":[9.620347053998985,50.03538435836223]}},{"type":"Feature","geometry":{"type":"Point","coordinates":[9.425610752806845,50.00173653396046]},"properties":{"id":"165","land-id":"09677","name":"Neuh\u00fctten","population":1115,"area":5.9,"centroid_coordinates":[9.425610752806845,50.00173653396046]}},{"type":"Feature","geometry":{"type":"Point","coordinates":[9.55247434900993,49.93747570641383]},"properties":{"id":"166","land-id":"09677","name":"Neustadt a.Main","population":1174,"area":19.78,"centroid_coordinates":[9.55247434900993,49.93747570641383]}},{"type":"Feature","geometry":{"type":"Point","coordinates":[9.618532176374186,50.21383087219526]},"properties":{"id":"169","land-id":"09677","name":"Obersinn","population":936,"area":11.59,"centroid_coordinates":[9.618532176374186,50.21383087219526]}},{"type":"Feature","geometry":{"type":"Point","coordinates":[9.520217824825208,50.04800130191954]},"properties":{"id":"170","land-id":"09677","name":"Partenstein","population":2703,"area":10.43,"centroid_coordinates":[9.520217824825208,50.04800130191954]}},{"type":"Feature","geometry":{"type":"Point","coordinates":[9.520331753007769,49.98553781328343]},"properties":{"id":"172","land-id":"09677","name":"Rechtenbach","population":1055,"area":7.2,"centroid_coordinates":[9.520331753007769,49.98553781328343]}},{"type":"Feature","geometry":{"type":"Point","coordinates":[9.887311162376134,49.90916732139116]},"properties":{"id":"175","land-id":"09677","name":"Retzstadt","population":1668,"area":18.11,"centroid_coordinates":[9.887311162376134,49.90916732139116]}},{"type":"Feature","geometry":{"type":"Point","coordinates":[9.635718707226609,50.10127893632805]},"properties":{"id":"177","land-id":"09677","name":"Rieneck","population":1868,"area":26.14,"centroid_coordinates":[9.635718707226609,50.10127893632805]}},{"type":"Feature","geometry":{"type":"Point","coordinates":[9.622002890759655,49.911876788373995]},"properties":{"id":"178","land-id":"09677","name":"Roden","population":1012,"area":20.09,"centroid_coordinates":[9.622002890759655,49.911876788373995]}},{"type":"Feature","geometry":{"type":"Point","coordinates":[9.559479213065494,49.907114250270425]},"properties":{"id":"181","land-id":"09677","name":"Rothenfels","population":956,"area":12.02,"centroid_coordinates":[9.559479213065494,49.907114250270425]}},{"type":"Feature","geometry":{"type":"Point","coordinates":[9.475475020467922,49.8322469459658]},"properties":{"id":"182","land-id":"09677","name":"Schollbrunn","population":886,"area":12.31,"centroid_coordinates":[9.475475020467922,49.8322469459658]}},{"type":"Feature","geometry":{"type":"Point","coordinates":[9.650147339896435,49.95111300188841]},"properties":{"id":"186","land-id":"09677","name":"Steinfeld","population":2080,"area":33.72,"centroid_coordinates":[9.650147339896435,49.95111300188841]}},{"type":"Feature","geometry":{"type":"Point","coordinates":[9.862935327011995,49.93846999125709]},"properties":{"id":"189","land-id":"09677","name":"Th\u00fcngen","population":1317,"area":13.55,"centroid_coordinates":[9.862935327011995,49.93846999125709]}},{"type":"Feature","geometry":{"type":"Point","coordinates":[9.678533582719744,49.9049254144527]},"properties":{"id":"193","land-id":"09677","name":"Urspringen","population":1378,"area":17.92,"centroid_coordinates":[9.678533582719744,49.9049254144527]}},{"type":"Feature","geometry":{"type":"Point","coordinates":[9.429913818255624,50.02987948881892]},"properties":{"id":"200","land-id":"09677","name":"Wiesthal","population":1212,"area":9.13,"centroid_coordinates":[9.429913818255624,50.02987948881892]}},{"type":"Feature","geometry":{"type":"Point","coordinates":[9.779553800982454,49.89900739107058]},"properties":{"id":"203","land-id":"09677","name":"Zellingen","population":6376,"area":41.41,"centroid_coordinates":[9.779553800982454,49.89900739107058]}}]}