{"type":"FeatureCollection","features":[{"type":"Feature","geometry":{"type":"Point","coordinates":[9.079810421003884,50.084895854031416]},"properties":{"id":"111","land-id":"09671","name":"Alzenau","population":17813,"population_man":8755,"population_woman":9058,"area":59.33}},{"type":"Feature","geometry":{"type":"Point","coordinates":[9.261309089927208,49.96500024842675]},"properties":{"id":"112","land-id":"09671","name":"Bessenbach","population":5433,"population_man":2655,"population_woman":2778,"area":29.86}},{"type":"Feature","geometry":{"type":"Point","coordinates":[9.230926629778695,50.063927742397745]},"properties":{"id":"113","land-id":"09671","name":"Blankenbach","population":1451,"population_man":719,"population_woman":732,"area":3.96}},{"type":"Feature","geometry":{"type":"Point","coordinates":[9.028732653261422,50.04483234950159]},"properties":{"id":"114","land-id":"09671","name":"Karlstein a.Main","population":7597,"population_man":3648,"population_woman":3949,"area":12.64}},{"type":"Feature","geometry":{"type":"Point","coordinates":[9.19473582277522,50.119643858813994]},"properties":{"id":"119","land-id":"09671","name":"Geiselbach","population":2101,"population_man":1036,"population_woman":1065,"area":12.43}},{"type":"Feature","geometry":{"type":"Point","coordinates":[9.144214947088548,50.00958713812372]},"properties":{"id":"120","land-id":"09671","name":"Glattbach","population":3202,"population_man":1559,"population_woman":1643,"area":3.57}},{"type":"Feature","geometry":{"type":"Point","coordinates":[9.175591300630979,50.00653156087533]},"properties":{"id":"121","land-id":"09671","name":"Goldbach","population":9838,"population_man":4932,"population_woman":4906,"area":10.96}},{"type":"Feature","geometry":{"type":"Point","coordinates":[9.064834680103564,49.91578256451529]},"properties":{"id":"122","land-id":"09671","name":"Gro\u00dfostheim","population":15903,"population_man":7992,"population_woman":7911,"area":44.31}},{"type":"Feature","geometry":{"type":"Point","coordinates":[9.210027525345732,49.96181564197925]},"properties":{"id":"124","land-id":"09671","name":"Haibach","population":8048,"population_man":3894,"population_woman":4154,"area":7.36}},{"type":"Feature","geometry":{"type":"Point","coordinates":[9.359406563763754,50.034306953146064]},"properties":{"id":"126","land-id":"09671","name":"Heigenbr\u00fccken","population":2147,"population_man":1074,"population_woman":1073,"area":6.68}},{"type":"Feature","geometry":{"type":"Point","coordinates":[9.29624172801463,49.88463724080057]},"properties":{"id":"127","land-id":"09671","name":"Heimbuchenthal","population":2133,"population_man":1061,"population_woman":1072,"area":17.12}},{"type":"Feature","geometry":{"type":"Point","coordinates":[9.341500992845086,50.07166269524605]},"properties":{"id":"128","land-id":"09671","name":"Heinrichsthal","population":817,"population_man":413,"population_woman":404,"area":4.46}},{"type":"Feature","geometry":{"type":"Point","coordinates":[9.214860952122747,50.01500766629775]},"properties":{"id":"130","land-id":"09671","name":"H\u00f6sbach","population":13076,"population_man":6365,"population_woman":6711,"area":30.59}},{"type":"Feature","geometry":{"type":"Point","coordinates":[9.130000788470676,50.02895947572307]},"properties":{"id":"133","land-id":"09671","name":"Johannesberg","population":4054,"population_man":2028,"population_woman":2026,"area":13.55}},{"type":"Feature","geometry":{"type":"Point","coordinates":[9.013148229693954,50.085556995206026]},"properties":{"id":"134","land-id":"09671","name":"Kahl a.Main","population":8459,"population_man":4200,"population_woman":4259,"area":10.61}},{"type":"Feature","geometry":{"type":"Point","coordinates":[9.285793340450025,50.11597666050261]},"properties":{"id":"135","land-id":"09671","name":"Kleinkahl","population":1805,"population_man":908,"population_woman":897,"area":14.17}},{"type":"Feature","geometry":{"type":"Point","coordinates":[9.065265217288855,50.01569042276473]},"properties":{"id":"136","land-id":"09671","name":"Kleinostheim","population":8431,"population_man":4200,"population_woman":4231,"area":13.82}},{"type":"Feature","geometry":{"type":"Point","coordinates":[9.201236799784528,50.082321971599086]},"properties":{"id":"138","land-id":"09671","name":"Krombach","population":2062,"population_man":1042,"population_woman":1020,"area":10.64}},{"type":"Feature","geometry":{"type":"Point","coordinates":[9.30280981355776,50.01287449039437]},"properties":{"id":"139","land-id":"09671","name":"Laufach","population":5081,"population_man":2490,"population_woman":2591,"area":15.51}},{"type":"Feature","geometry":{"type":"Point","coordinates":[9.088337030369463,49.99224224968957]},"properties":{"id":"140","land-id":"09671","name":"Mainaschaff","population":8788,"population_man":4326,"population_woman":4462,"area":7.28}},{"type":"Feature","geometry":{"type":"Point","coordinates":[9.300635886779936,49.91889107279237]},"properties":{"id":"141","land-id":"09671","name":"Mespelbrunn","population":2214,"population_man":1115,"population_woman":1099,"area":15.47}},{"type":"Feature","geometry":{"type":"Point","coordinates":[9.15664771023305,50.064322702112385]},"properties":{"id":"143","land-id":"09671","name":"M\u00f6mbris","population":11195,"population_man":5582,"population_woman":5613,"area":35.84}},{"type":"Feature","geometry":{"type":"Point","coordinates":[9.408546890397067,49.96129291192028]},"properties":{"id":"148","land-id":"09671","name":"Rothenbuch","population":1596,"population_man":809,"population_woman":787,"area":7.0}},{"type":"Feature","geometry":{"type":"Point","coordinates":[9.256235079108189,50.02974058302164]},"properties":{"id":"150","land-id":"09671","name":"Sailauf","population":3577,"population_man":1776,"population_woman":1801,"area":13.8}},{"type":"Feature","geometry":{"type":"Point","coordinates":[9.237156824205407,50.09453217239087]},"properties":{"id":"152","land-id":"09671","name":"Sch\u00f6llkrippen","population":4146,"population_man":2004,"population_woman":2142,"area":12.62}},{"type":"Feature","geometry":{"type":"Point","coordinates":[9.264349044801019,50.067816638836426]},"properties":{"id":"153","land-id":"09671","name":"Sommerkahl","population":1258,"population_man":610,"population_woman":648,"area":5.44}},{"type":"Feature","geometry":{"type":"Point","coordinates":[9.050625027593384,49.97489279292558]},"properties":{"id":"155","land-id":"09671","name":"Stockstadt a.Main","population":7851,"population_man":3995,"population_woman":3856,"area":18.86}},{"type":"Feature","geometry":{"type":"Point","coordinates":[9.29933396845934,49.97114446268472]},"properties":{"id":"156","land-id":"09671","name":"Waldaschaff","population":4129,"population_man":2085,"population_woman":2044,"area":6.54}},{"type":"Feature","geometry":{"type":"Point","coordinates":[9.369773276278375,49.92532944633607]},"properties":{"id":"157","land-id":"09671","name":"Weibersbrunn","population":1817,"population_man":921,"population_woman":896,"area":2.97}},{"type":"Feature","geometry":{"type":"Point","coordinates":[9.246435104289388,50.12594505743323]},"properties":{"id":"159","land-id":"09671","name":"Westerngrund","population":1964,"population_man":979,"population_woman":985,"area":14.76}},{"type":"Feature","geometry":{"type":"Point","coordinates":[9.34340719245761,49.864938515131655]},"properties":{"id":"160","land-id":"09671","name":"Dammbach","population":1920,"population_man":982,"population_woman":938,"area":32.84}},{"type":"Feature","geometry":{"type":"Point","coordinates":[9.365486318814789,50.10990141526072]},"properties":{"id":"162","land-id":"09671","name":"Wiesen","population":1010,"population_man":508,"population_woman":502,"area":5.65}},{"type":"Feature","geometry":{"type":"Point","coordinates":[10.011503373130028,50.1708184392081]},"properties":{"id":"111","land-id":"09672","name":"Aura a.d.Saale","population":857,"population_man":421,"population_woman":436,"area":10.06}},{"type":"Feature","geometry":{"type":"Point","coordinates":[10.069283599389529,50.27336894187702]},"properties":{"id":"112","land-id":"09672","name":"Bad Bocklet","population":4717,"population_man":2393,"population_woman":2324,"area":37.85}},{"type":"Feature","geometry":{"type":"Point","coordinates":[9.776817971252605,50.30707665514419]},"properties":{"id":"113","land-id":"09672","name":"Bad Br\u00fcckenau","population":6477,"population_man":3114,"population_woman":3363,"area":23.64}},{"type":"Feature","geometry":{"type":"Point","coordinates":[10.058974193306534,50.202634919411985]},"properties":{"id":"114","land-id":"09672","name":"Bad Kissingen","population":23100,"population_man":10786,"population_woman":12314,"area":69.85}},{"type":"Feature","geometry":{"type":"Point","coordinates":[9.977047367284927,50.284419275138504]},"properties":{"id":"117","land-id":"09672","name":"Burkardroth","population":7393,"population_man":3662,"population_woman":3731,"area":68.99}},{"type":"Feature","geometry":{"type":"Point","coordinates":[9.974508639169503,50.12943372597206]},"properties":{"id":"121","land-id":"09672","name":"Elfershausen","population":2834,"population_man":1455,"population_woman":1379,"area":34.87}},{"type":"Feature","geometry":{"type":"Point","coordinates":[10.041531209325452,50.155875524070936]},"properties":{"id":"122","land-id":"09672","name":"Euerdorf","population":1504,"population_man":764,"population_woman":740,"area":16.35}},{"type":"Feature","geometry":{"type":"Point","coordinates":[9.936339736756766,50.092173801460845]},"properties":{"id":"124","land-id":"09672","name":"Fuchsstadt","population":1898,"population_man":958,"population_woman":940,"area":18.3}},{"type":"Feature","geometry":{"type":"Point","coordinates":[9.900450222665201,50.28845211982767]},"properties":{"id":"126","land-id":"09672","name":"Geroda","population":801,"population_man":413,"population_woman":388,"area":16.82}},{"type":"Feature","geometry":{"type":"Point","coordinates":[9.874257012596285,50.10381341018408]},"properties":{"id":"127","land-id":"09672","name":"Hammelburg","population":10733,"population_man":5313,"population_woman":5420,"area":128.8}},{"type":"Feature","geometry":{"type":"Point","coordinates":[10.25788002952041,50.194004761552534]},"properties":{"id":"131","land-id":"09672","name":"Ma\u00dfbach","population":4365,"population_man":2188,"population_woman":2177,"area":59.22}},{"type":"Feature","geometry":{"type":"Point","coordinates":[9.770089415849503,50.38751503924781]},"properties":{"id":"134","land-id":"09672","name":"Motten","population":1713,"population_man":862,"population_woman":851,"area":23.78}},{"type":"Feature","geometry":{"type":"Point","coordinates":[10.24475606754648,50.25243363885817]},"properties":{"id":"135","land-id":"09672","name":"M\u00fcnnerstadt","population":7546,"population_man":3794,"population_woman":3752,"area":93.06}},{"type":"Feature","geometry":{"type":"Point","coordinates":[10.135559886124874,50.21887149814377]},"properties":{"id":"136","land-id":"09672","name":"N\u00fcdlingen","population":3908,"population_man":1897,"population_woman":2011,"area":26.33}},{"type":"Feature","geometry":{"type":"Point","coordinates":[9.804340858740918,50.27633308849276]},"properties":{"id":"138","land-id":"09672","name":"Oberleichtersbach","population":2052,"population_man":1056,"population_woman":996,"area":27.51}},{"type":"Feature","geometry":{"type":"Point","coordinates":[9.933642703560196,50.195885195631526]},"properties":{"id":"139","land-id":"09672","name":"Oberthulba","population":4954,"population_man":2500,"population_woman":2454,"area":52.34}},{"type":"Feature","geometry":{"type":"Point","coordinates":[10.1351866139044,50.14929066091393]},"properties":{"id":"140","land-id":"09672","name":"Oerlenbach","population":5040,"population_man":2521,"population_woman":2519,"area":33.44}},{"type":"Feature","geometry":{"type":"Point","coordinates":[10.0778309996052,50.129182408098714]},"properties":{"id":"142","land-id":"09672","name":"Ramsthal","population":1110,"population_man":541,"population_woman":569,"area":10.39}},{"type":"Feature","geometry":{"type":"Point","coordinates":[10.20382219020471,50.16937928083754]},"properties":{"id":"143","land-id":"09672","name":"Rannungen","population":1100,"population_man":544,"population_woman":556,"area":17.44}},{"type":"Feature","geometry":{"type":"Point","coordinates":[9.884958281426293,50.32192789304745]},"properties":{"id":"145","land-id":"09672","name":"Riedenberg","population":933,"population_man":456,"population_woman":477,"area":13.22}},{"type":"Feature","geometry":{"type":"Point","coordinates":[9.853388112362602,50.25877093588676]},"properties":{"id":"149","land-id":"09672","name":"Schondra","population":1615,"population_man":829,"population_woman":786,"area":28.5}},{"type":"Feature","geometry":{"type":"Point","coordinates":[10.041651513428201,50.12037950041065]},"properties":{"id":"155","land-id":"09672","name":"Sulzthal","population":858,"population_man":437,"population_woman":421,"area":15.01}},{"type":"Feature","geometry":{"type":"Point","coordinates":[10.32528747030215,50.20043098798612]},"properties":{"id":"157","land-id":"09672","name":"Thundorf i.UFr.","population":987,"population_man":495,"population_woman":492,"area":15.56}},{"type":"Feature","geometry":{"type":"Point","coordinates":[9.790985794612547,50.16876999598007]},"properties":{"id":"161","land-id":"09672","name":"Wartmannsroth","population":2128,"population_man":1094,"population_woman":1034,"area":53.4}},{"type":"Feature","geometry":{"type":"Point","coordinates":[9.86660507349194,50.373057848865194]},"properties":{"id":"163","land-id":"09672","name":"Wildflecken","population":2839,"population_man":1430,"population_woman":1409,"area":77.7}},{"type":"Feature","geometry":{"type":"Point","coordinates":[9.72187023294522,50.254580907429855]},"properties":{"id":"166","land-id":"09672","name":"Zeitlofs","population":2025,"population_man":996,"population_woman":1029,"area":40.86}},{"type":"Feature","geometry":{"type":"Point","coordinates":[10.434632953465586,50.33503292077328]},"properties":{"id":"113","land-id":"09673","name":"Aubstadt","population":734,"population_man":372,"population_woman":362,"area":11.87}},{"type":"Feature","geometry":{"type":"Point","coordinates":[10.213688261773918,50.3326566172329]},"properties":{"id":"114","land-id":"09673","name":"Bad Neustadt a.d.Saale","population":15438,"population_man":7598,"population_woman":7840,"area":36.84}},{"type":"Feature","geometry":{"type":"Point","coordinates":[10.178102997713015,50.3946999098302]},"properties":{"id":"116","land-id":"09673","name":"Bastheim","population":1987,"population_man":1064,"population_woman":923,"area":41.6}},{"type":"Feature","geometry":{"type":"Point","coordinates":[10.001574407166132,50.398382383451576]},"properties":{"id":"117","land-id":"09673","name":"Bischofsheim i.d.Rh\u00f6n","population":4758,"population_man":2338,"population_woman":2420,"area":67.48}},{"type":"Feature","geometry":{"type":"Point","coordinates":[10.136486715350427,50.52982759847292]},"properties":{"id":"123","land-id":"09673","name":"Fladungen","population":2143,"population_man":1079,"population_woman":1064,"area":46.31}},{"type":"Feature","geometry":{"type":"Point","coordinates":[10.363243154867554,50.2628208588716]},"properties":{"id":"126","land-id":"09673","name":"Gro\u00dfbardorf","population":947,"population_man":480,"population_woman":467,"area":16.5}},{"type":"Feature","geometry":{"type":"Point","coordinates":[10.400170764957835,50.30449619374769]},"properties":{"id":"127","land-id":"09673","name":"Gro\u00dfeibstadt","population":1031,"population_man":509,"population_woman":522,"area":16.66}},{"type":"Feature","geometry":{"type":"Point","coordinates":[10.087181624823378,50.49727660989141]},"properties":{"id":"129","land-id":"09673","name":"Hausen","population":674,"population_man":338,"population_woman":336,"area":24.22}},{"type":"Feature","geometry":{"type":"Point","coordinates":[10.373838266244288,50.390745210041224]},"properties":{"id":"130","land-id":"09673","name":"Hendungen","population":833,"population_man":434,"population_woman":399,"area":22.9}},{"type":"Feature","geometry":{"type":"Point","coordinates":[10.504699748494609,50.33939759361555]},"properties":{"id":"131","land-id":"09673","name":"Herbstadt","population":622,"population_man":315,"population_woman":307,"area":20.7}},{"type":"Feature","geometry":{"type":"Point","coordinates":[10.256697837959651,50.351553720896376]},"properties":{"id":"133","land-id":"09673","name":"Heustreu","population":1268,"population_man":646,"population_woman":622,"area":10.54}},{"type":"Feature","geometry":{"type":"Point","coordinates":[10.44928710278854,50.36650521411374]},"properties":{"id":"134","land-id":"09673","name":"H\u00f6chheim","population":1050,"population_man":547,"population_woman":503,"area":25.24}},{"type":"Feature","geometry":{"type":"Point","coordinates":[10.151886244555698,50.32503637330668]},"properties":{"id":"135","land-id":"09673","name":"Hohenroth","population":3552,"population_man":1785,"population_woman":1767,"area":17.22}},{"type":"Feature","geometry":{"type":"Point","coordinates":[10.328103016615291,50.358172205619255]},"properties":{"id":"136","land-id":"09673","name":"Hollstadt","population":1493,"population_man":761,"population_woman":732,"area":24.28}},{"type":"Feature","geometry":{"type":"Point","coordinates":[10.484986470460006,50.28405820907432]},"properties":{"id":"141","land-id":"09673","name":"Bad K\u00f6nigshofen i.Grabfeld","population":5995,"population_man":2968,"population_woman":3027,"area":69.44}},{"type":"Feature","geometry":{"type":"Point","coordinates":[10.317730639416554,50.433238577366126]},"properties":{"id":"142","land-id":"09673","name":"Mellrichstadt","population":5536,"population_man":2712,"population_woman":2824,"area":55.72}},{"type":"Feature","geometry":{"type":"Point","coordinates":[10.150714155176424,50.2942515760011]},"properties":{"id":"146","land-id":"09673","name":"Niederlauer","population":1640,"population_man":806,"population_woman":834,"area":9.07}},{"type":"Feature","geometry":{"type":"Point","coordinates":[10.193151514765159,50.48895119560843]},"properties":{"id":"147","land-id":"09673","name":"Nordheim v.d.Rh\u00f6n","population":1064,"population_man":533,"population_woman":531,"area":16.54}},{"type":"Feature","geometry":{"type":"Point","coordinates":[10.077632739262459,50.438352877236596]},"properties":{"id":"149","land-id":"09673","name":"Oberelsbach","population":2657,"population_man":1359,"population_woman":1298,"area":67.64}},{"type":"Feature","geometry":{"type":"Point","coordinates":[10.2796448253682,50.40022217969767]},"properties":{"id":"151","land-id":"09673","name":"Oberstreu","population":1491,"population_man":728,"population_woman":763,"area":22.52}},{"type":"Feature","geometry":{"type":"Point","coordinates":[10.195682712532978,50.455532915932835]},"properties":{"id":"153","land-id":"09673","name":"Ostheim v.d.Rh\u00f6n","population":3345,"population_man":1661,"population_woman":1684,"area":40.88}},{"type":"Feature","geometry":{"type":"Point","coordinates":[10.277736655786175,50.31766750187613]},"properties":{"id":"156","land-id":"09673","name":"R\u00f6delmaier","population":957,"population_man":462,"population_woman":495,"area":6.35}},{"type":"Feature","geometry":{"type":"Point","coordinates":[10.367479365386593,50.319273165826424]},"properties":{"id":"160","land-id":"09673","name":"Saal a.d.Saale","population":1562,"population_man":797,"population_woman":765,"area":21.54}},{"type":"Feature","geometry":{"type":"Point","coordinates":[10.208718015002288,50.30097873811557]},"properties":{"id":"161","land-id":"09673","name":"Salz","population":2293,"population_man":1093,"population_woman":1200,"area":8.62}},{"type":"Feature","geometry":{"type":"Point","coordinates":[9.990160961766746,50.34336241057349]},"properties":{"id":"162","land-id":"09673","name":"Sandberg","population":2320,"population_man":1155,"population_woman":1165,"area":27.88}},{"type":"Feature","geometry":{"type":"Point","coordinates":[10.106777174649281,50.37322625710586]},"properties":{"id":"163","land-id":"09673","name":"Sch\u00f6nau a.d.Brend","population":1193,"population_man":582,"population_woman":611,"area":15.63}},{"type":"Feature","geometry":{"type":"Point","coordinates":[10.146904851690591,50.474085646922624]},"properties":{"id":"167","land-id":"09673","name":"Sondheim v.d.Rh\u00f6n","population":924,"population_man":460,"population_woman":464,"area":18.59}},{"type":"Feature","geometry":{"type":"Point","coordinates":[10.274678753230107,50.46308664012321]},"properties":{"id":"170","land-id":"09673","name":"Stockheim","population":994,"population_man":481,"population_woman":513,"area":19.81}},{"type":"Feature","geometry":{"type":"Point","coordinates":[10.243717634980776,50.28195296141886]},"properties":{"id":"171","land-id":"09673","name":"Strahlungen","population":977,"population_man":500,"population_woman":477,"area":13.46}},{"type":"Feature","geometry":{"type":"Point","coordinates":[10.56562744961512,50.24405269080627]},"properties":{"id":"172","land-id":"09673","name":"Sulzdorf a.d.Lederhecke","population":1151,"population_man":598,"population_woman":553,"area":36.3}},{"type":"Feature","geometry":{"type":"Point","coordinates":[10.407010537460847,50.254238031879275]},"properties":{"id":"173","land-id":"09673","name":"Sulzfeld","population":1737,"population_man":893,"population_woman":844,"area":22.48}},{"type":"Feature","geometry":{"type":"Point","coordinates":[10.570628140482624,50.3038795115486]},"properties":{"id":"174","land-id":"09673","name":"Trappstadt","population":892,"population_man":465,"population_woman":427,"area":25.82}},{"type":"Feature","geometry":{"type":"Point","coordinates":[10.265274121165108,50.37598249225658]},"properties":{"id":"175","land-id":"09673","name":"Unsleben","population":952,"population_man":489,"population_woman":463,"area":9.03}},{"type":"Feature","geometry":{"type":"Point","coordinates":[10.255043252526669,50.501387745214664]},"properties":{"id":"182","land-id":"09673","name":"Willmars","population":567,"population_man":268,"population_woman":299,"area":12.26}},{"type":"Feature","geometry":{"type":"Point","coordinates":[10.21403167360605,50.36414526818537]},"properties":{"id":"183","land-id":"09673","name":"Wollbach","population":1428,"population_man":698,"population_woman":730,"area":7.59}},{"type":"Feature","geometry":{"type":"Point","coordinates":[10.325023800305921,50.32666679633153]},"properties":{"id":"184","land-id":"09673","name":"W\u00fclfershausen a.d.Saale","population":1547,"population_man":785,"population_woman":762,"area":18.08}},{"type":"Feature","geometry":{"type":"Point","coordinates":[10.159434930756241,50.27619187937459]},"properties":{"id":"186","land-id":"09673","name":"Burglauer","population":1728,"population_man":862,"population_woman":866,"area":13.88}},{"type":"Feature","geometry":{"type":"Point","coordinates":[10.457266119378895,50.15810782348702]},"properties":{"id":"111","land-id":"09674","name":"Aidhausen","population":1651,"population_man":815,"population_woman":836,"area":37.19}},{"type":"Feature","geometry":{"type":"Point","coordinates":[10.715480807837972,50.017813119907295]},"properties":{"id":"118","land-id":"09674","name":"Breitbrunn","population":1020,"population_man":518,"population_woman":502,"area":12.41}},{"type":"Feature","geometry":{"type":"Point","coordinates":[10.531523023159307,50.19700358074388]},"properties":{"id":"120","land-id":"09674","name":"Bundorf","population":913,"population_man":478,"population_woman":435,"area":40.29}},{"type":"Feature","geometry":{"type":"Point","coordinates":[10.630502520013485,50.13395229066574]},"properties":{"id":"121","land-id":"09674","name":"Burgpreppach","population":1352,"population_man":662,"population_woman":690,"area":38.72}},{"type":"Feature","geometry":{"type":"Point","coordinates":[10.690188539950471,49.997677605450875]},"properties":{"id":"129","land-id":"09674","name":"Ebelsbach","population":3816,"population_man":1898,"population_woman":1918,"area":25.74}},{"type":"Feature","geometry":{"type":"Point","coordinates":[10.727923469666205,50.09609943816264]},"properties":{"id":"130","land-id":"09674","name":"Ebern","population":7193,"population_man":3698,"population_woman":3495,"area":94.99}},{"type":"Feature","geometry":{"type":"Point","coordinates":[10.668643011013113,49.958883640397005]},"properties":{"id":"133","land-id":"09674","name":"Eltmann","population":5290,"population_man":2632,"population_woman":2658,"area":40.75}},{"type":"Feature","geometry":{"type":"Point","coordinates":[10.367034377459095,50.028422260343596]},"properties":{"id":"139","land-id":"09674","name":"G\u00e4dheim","population":1304,"population_man":671,"population_woman":633,"area":9.63}},{"type":"Feature","geometry":{"type":"Point","coordinates":[10.506993389538065,50.046236366868406]},"properties":{"id":"147","land-id":"09674","name":"Ha\u00dffurt","population":13878,"population_man":6871,"population_woman":7007,"area":52.62}},{"type":"Feature","geometry":{"type":"Point","coordinates":[10.528170032613318,50.15022231166588]},"properties":{"id":"149","land-id":"09674","name":"Hofheim i.UFr.","population":5167,"population_man":2588,"population_woman":2579,"area":213.46}},{"type":"Feature","geometry":{"type":"Point","coordinates":[10.439574711068564,50.10403983194374]},"properties":{"id":"153","land-id":"09674","name":"Riedbach","population":1721,"population_man":883,"population_woman":838,"area":31.76}},{"type":"Feature","geometry":{"type":"Point","coordinates":[10.631817172586587,49.925294797677466]},"properties":{"id":"159","land-id":"09674","name":"Oberaurach","population":4049,"population_man":2028,"population_woman":2021,"area":45.1}},{"type":"Feature","geometry":{"type":"Point","coordinates":[10.701288244595991,50.04102650727045]},"properties":{"id":"160","land-id":"09674","name":"Kirchlauter","population":1314,"population_man":665,"population_woman":649,"area":16.88}},{"type":"Feature","geometry":{"type":"Point","coordinates":[10.516556352830806,49.97287464220614]},"properties":{"id":"163","land-id":"09674","name":"Knetzgau","population":6454,"population_man":3261,"population_woman":3193,"area":61.5}},{"type":"Feature","geometry":{"type":"Point","coordinates":[10.584684614045626,50.07539813462478]},"properties":{"id":"164","land-id":"09674","name":"K\u00f6nigsberg i.Bay.","population":3556,"population_man":1771,"population_woman":1785,"area":61.79}},{"type":"Feature","geometry":{"type":"Point","coordinates":[10.686516307992445,50.19011897042778]},"properties":{"id":"171","land-id":"09674","name":"Maroldsweisach","population":3129,"population_man":1564,"population_woman":1565,"area":71.84}},{"type":"Feature","geometry":{"type":"Point","coordinates":[10.424626749354621,50.02865229877225]},"properties":{"id":"180","land-id":"09674","name":"Theres","population":2693,"population_man":1333,"population_woman":1360,"area":30.71}},{"type":"Feature","geometry":{"type":"Point","coordinates":[10.735008369493976,50.147571192485934]},"properties":{"id":"184","land-id":"09674","name":"Pfarrweisach","population":1455,"population_man":731,"population_woman":724,"area":28.44}},{"type":"Feature","geometry":{"type":"Point","coordinates":[10.56868443505588,49.89558728161961]},"properties":{"id":"187","land-id":"09674","name":"Rauhenebrach","population":2758,"population_man":1417,"population_woman":1341,"area":60.96}},{"type":"Feature","geometry":{"type":"Point","coordinates":[10.79370115859737,50.054437504260356]},"properties":{"id":"190","land-id":"09674","name":"Rentweinsdorf","population":1532,"population_man":759,"population_woman":773,"area":24.65}},{"type":"Feature","geometry":{"type":"Point","coordinates":[10.590362465740208,49.97833006700519]},"properties":{"id":"195","land-id":"09674","name":"Sand a.Main","population":3051,"population_man":1549,"population_woman":1502,"area":12.3}},{"type":"Feature","geometry":{"type":"Point","coordinates":[10.729390141199515,49.974740719119104]},"properties":{"id":"201","land-id":"09674","name":"Stettfeld","population":1093,"population_man":534,"population_woman":559,"area":11.19}},{"type":"Feature","geometry":{"type":"Point","coordinates":[10.839695556997375,50.120673018302575]},"properties":{"id":"210","land-id":"09674","name":"Untermerzbach","population":1613,"population_man":810,"population_woman":803,"area":27.76}},{"type":"Feature","geometry":{"type":"Point","coordinates":[10.45611308044985,49.99606031725848]},"properties":{"id":"219","land-id":"09674","name":"Wonfurt","population":1903,"population_man":951,"population_woman":952,"area":17.35}},{"type":"Feature","geometry":{"type":"Point","coordinates":[10.60803766880505,50.023639370799756]},"properties":{"id":"221","land-id":"09674","name":"Zeil a.Main","population":5427,"population_man":2719,"population_woman":2708,"area":35.71}},{"type":"Feature","geometry":{"type":"Point","coordinates":[10.626515646519286,50.21433310138248]},"properties":{"id":"223","land-id":"09674","name":"Ermershausen","population":527,"population_man":270,"population_woman":257,"area":9.21}},{"type":"Feature","geometry":{"type":"Point","coordinates":[10.38841635500726,49.7699981710184]},"properties":{"id":"111","land-id":"09675","name":"Abtswind","population":827,"population_man":411,"population_woman":416,"area":12.76}},{"type":"Feature","geometry":{"type":"Point","coordinates":[10.165836252461709,49.77036522411241]},"properties":{"id":"112","land-id":"09675","name":"Albertshofen","population":2161,"population_man":1089,"population_woman":1072,"area":3.8}},{"type":"Feature","geometry":{"type":"Point","coordinates":[10.077852026351344,49.747103676606486]},"properties":{"id":"113","land-id":"09675","name":"Biebelried","population":1222,"population_man":608,"population_woman":614,"area":22.72}},{"type":"Feature","geometry":{"type":"Point","coordinates":[10.128165925416729,49.76064168221658]},"properties":{"id":"114","land-id":"09675","name":"Buchbrunn","population":1093,"population_man":532,"population_woman":561,"area":4.58}},{"type":"Feature","geometry":{"type":"Point","coordinates":[10.37573359776242,49.74185478831233]},"properties":{"id":"116","land-id":"09675","name":"Castell","population":844,"population_man":416,"population_woman":428,"area":22.87}},{"type":"Feature","geometry":{"type":"Point","coordinates":[10.13094202108758,49.81138471362597]},"properties":{"id":"117","land-id":"09675","name":"Dettelbach","population":6910,"population_man":3448,"population_woman":3462,"area":60.88}},{"type":"Feature","geometry":{"type":"Point","coordinates":[10.478481273629445,49.77550333224858]},"properties":{"id":"127","land-id":"09675","name":"Geiselwind","population":2715,"population_man":1411,"population_woman":1304,"area":48.77}},{"type":"Feature","geometry":{"type":"Point","coordinates":[10.244345995019719,49.75410154177905]},"properties":{"id":"131","land-id":"09675","name":"Gro\u00dflangheim","population":1560,"population_man":784,"population_woman":776,"area":14.66}},{"type":"Feature","geometry":{"type":"Point","coordinates":[10.31537115588923,49.675179368289456]},"properties":{"id":"139","land-id":"09675","name":"Iphofen","population":4822,"population_man":2423,"population_woman":2399,"area":77.96}},{"type":"Feature","geometry":{"type":"Point","coordinates":[10.167168436107064,49.74432789280999]},"properties":{"id":"141","land-id":"09675","name":"Kitzingen","population":22844,"population_man":11355,"population_woman":11489,"area":46.98}},{"type":"Feature","geometry":{"type":"Point","coordinates":[10.278884055432279,49.77382509177736]},"properties":{"id":"142","land-id":"09675","name":"Kleinlangheim","population":1628,"population_man":860,"population_woman":768,"area":19.1}},{"type":"Feature","geometry":{"type":"Point","coordinates":[10.212294732353607,49.7050518313379]},"properties":{"id":"144","land-id":"09675","name":"Mainbernheim","population":2242,"population_man":1116,"population_woman":1126,"area":12.15}},{"type":"Feature","geometry":{"type":"Point","coordinates":[10.12800316422795,49.775984699436265]},"properties":{"id":"146","land-id":"09675","name":"Mainstockheim","population":1917,"population_man":951,"population_woman":966,"area":8.48}},{"type":"Feature","geometry":{"type":"Point","coordinates":[10.122383577867797,49.65366550554421]},"properties":{"id":"147","land-id":"09675","name":"Marktbreit","population":3758,"population_man":1887,"population_woman":1871,"area":20.16}},{"type":"Feature","geometry":{"type":"Point","coordinates":[10.304987861813288,49.68693831657746]},"properties":{"id":"148","land-id":"09675","name":"Markt Einersheim","population":1218,"population_man":619,"population_woman":599,"area":7.78}},{"type":"Feature","geometry":{"type":"Point","coordinates":[10.160540207737732,49.696992148498566]},"properties":{"id":"149","land-id":"09675","name":"Marktsteft","population":1815,"population_man":930,"population_woman":885,"area":10.55}},{"type":"Feature","geometry":{"type":"Point","coordinates":[10.160842927439749,49.621047439099875]},"properties":{"id":"150","land-id":"09675","name":"Martinsheim","population":959,"population_man":500,"population_woman":459,"area":23.16}},{"type":"Feature","geometry":{"type":"Point","coordinates":[10.18668588705182,49.85185024116244]},"properties":{"id":"155","land-id":"09675","name":"Nordheim a.Main","population":990,"population_man":505,"population_woman":485,"area":5.29}},{"type":"Feature","geometry":{"type":"Point","coordinates":[10.171789181954665,49.658405164680154]},"properties":{"id":"156","land-id":"09675","name":"Obernbreit","population":1671,"population_man":829,"population_woman":842,"area":9.85}},{"type":"Feature","geometry":{"type":"Point","coordinates":[10.366144527458044,49.82829359075477]},"properties":{"id":"158","land-id":"09675","name":"Prichsenstadt","population":3034,"population_man":1557,"population_woman":1477,"area":48.8}},{"type":"Feature","geometry":{"type":"Point","coordinates":[10.251452639724828,49.7286001923382]},"properties":{"id":"161","land-id":"09675","name":"R\u00f6delsee","population":1912,"population_man":950,"population_woman":962,"area":11.54}},{"type":"Feature","geometry":{"type":"Point","coordinates":[10.338880821127177,49.7653742964205]},"properties":{"id":"162","land-id":"09675","name":"R\u00fcdenhausen","population":863,"population_man":438,"population_woman":425,"area":6.93}},{"type":"Feature","geometry":{"type":"Point","coordinates":[10.233811436759778,49.80323339247873]},"properties":{"id":"165","land-id":"09675","name":"Schwarzach a.Main","population":3677,"population_man":1899,"population_woman":1778,"area":21.11}},{"type":"Feature","geometry":{"type":"Point","coordinates":[10.136110032751976,49.67765006506556]},"properties":{"id":"166","land-id":"09675","name":"Segnitz","population":806,"population_man":391,"population_woman":415,"area":2.73}},{"type":"Feature","geometry":{"type":"Point","coordinates":[10.211992534631204,49.64635593898332]},"properties":{"id":"167","land-id":"09675","name":"Seinsheim","population":1061,"population_man":524,"population_woman":537,"area":17.43}},{"type":"Feature","geometry":{"type":"Point","coordinates":[10.207130951734552,49.832816068996536]},"properties":{"id":"169","land-id":"09675","name":"Sommerach","population":1462,"population_man":725,"population_woman":737,"area":5.69}},{"type":"Feature","geometry":{"type":"Point","coordinates":[10.120478592985174,49.70869648743193]},"properties":{"id":"170","land-id":"09675","name":"Sulzfeld a.Main","population":1241,"population_man":613,"population_woman":628,"area":7.66}},{"type":"Feature","geometry":{"type":"Point","coordinates":[10.241399461079153,49.86335749631624]},"properties":{"id":"174","land-id":"09675","name":"Volkach","population":8584,"population_man":4269,"population_woman":4315,"area":60.14}},{"type":"Feature","geometry":{"type":"Point","coordinates":[10.304516854847671,49.7430374239965]},"properties":{"id":"177","land-id":"09675","name":"Wiesenbronn","population":1080,"population_man":563,"population_woman":517,"area":10.63}},{"type":"Feature","geometry":{"type":"Point","coordinates":[10.334147148607006,49.79877179033162]},"properties":{"id":"178","land-id":"09675","name":"Wiesentheid","population":4902,"population_man":2370,"population_woman":2532,"area":33.32}},{"type":"Feature","geometry":{"type":"Point","coordinates":[10.241872475401006,49.664412457396224]},"properties":{"id":"179","land-id":"09675","name":"Willanzheim","population":1589,"population_man":824,"population_woman":765,"area":25.08}},{"type":"Feature","geometry":{"type":"Point","coordinates":[9.411140876514184,49.8409262693834]},"properties":{"id":"111","land-id":"09676","name":"Altenbuch","population":1233,"population_man":620,"population_woman":613,"area":37.65}},{"type":"Feature","geometry":{"type":"Point","coordinates":[9.193851741838197,49.64301086711225]},"properties":{"id":"112","land-id":"09676","name":"Amorbach","population":3904,"population_man":1919,"population_woman":1985,"area":50.93}},{"type":"Feature","geometry":{"type":"Point","coordinates":[9.298906347858582,49.72241256472854]},"properties":{"id":"116","land-id":"09676","name":"B\u00fcrgstadt","population":4172,"population_man":2056,"population_woman":2116,"area":17.41}},{"type":"Feature","geometry":{"type":"Point","coordinates":[9.315456384872535,49.77214305767782]},"properties":{"id":"117","land-id":"09676","name":"Collenberg","population":2480,"population_man":1238,"population_woman":1242,"area":25.59}},{"type":"Feature","geometry":{"type":"Point","coordinates":[9.372626070003811,49.791301065743006]},"properties":{"id":"118","land-id":"09676","name":"Dorfprozelten","population":1723,"population_man":868,"population_woman":855,"area":11.33}},{"type":"Feature","geometry":{"type":"Point","coordinates":[9.358578844384494,49.676511481887395]},"properties":{"id":"119","land-id":"09676","name":"Eichenb\u00fchl","population":2484,"population_man":1244,"population_woman":1240,"area":31.13}},{"type":"Feature","geometry":{"type":"Point","coordinates":[9.205092468922208,49.835070560216415]},"properties":{"id":"121","land-id":"09676","name":"Elsenfeld","population":9164,"population_man":4599,"population_woman":4565,"area":24.31}},{"type":"Feature","geometry":{"type":"Point","coordinates":[9.176625800592408,49.806931655063295]},"properties":{"id":"122","land-id":"09676","name":"Erlenbach a.Main","population":9786,"population_man":4787,"population_woman":4999,"area":16.24}},{"type":"Feature","geometry":{"type":"Point","coordinates":[9.28865581876719,49.83057233941494]},"properties":{"id":"123","land-id":"09676","name":"Eschau","population":3913,"population_man":1986,"population_woman":1927,"area":38.06}},{"type":"Feature","geometry":{"type":"Point","coordinates":[9.450578097613818,49.793765644138205]},"properties":{"id":"124","land-id":"09676","name":"Faulbach","population":2560,"population_man":1289,"population_woman":1271,"area":10.96}},{"type":"Feature","geometry":{"type":"Point","coordinates":[9.233604304983064,49.7353269854285]},"properties":{"id":"125","land-id":"09676","name":"Gro\u00dfheubach","population":5056,"population_man":2511,"population_woman":2545,"area":18.95}},{"type":"Feature","geometry":{"type":"Point","coordinates":[9.137575779038205,49.87354543301723]},"properties":{"id":"126","land-id":"09676","name":"Gro\u00dfwallstadt","population":4221,"population_man":2073,"population_woman":2148,"area":13.99}},{"type":"Feature","geometry":{"type":"Point","coordinates":[9.22018980627961,49.87402925841646]},"properties":{"id":"128","land-id":"09676","name":"Hausen","population":1844,"population_man":921,"population_woman":923,"area":8.05}},{"type":"Feature","geometry":{"type":"Point","coordinates":[9.14297750748112,49.60725901824162]},"properties":{"id":"131","land-id":"09676","name":"Kirchzell","population":2217,"population_man":1122,"population_woman":1095,"area":63.71}},{"type":"Feature","geometry":{"type":"Point","coordinates":[9.190182092354021,49.72198770542632]},"properties":{"id":"132","land-id":"09676","name":"Kleinheubach","population":3647,"population_man":1839,"population_woman":1808,"area":9.48}},{"type":"Feature","geometry":{"type":"Point","coordinates":[9.189728931444625,49.868587069519286]},"properties":{"id":"133","land-id":"09676","name":"Kleinwallstadt","population":5577,"population_man":2774,"population_woman":2803,"area":15.76}},{"type":"Feature","geometry":{"type":"Point","coordinates":[9.181581569889824,49.7633488754032]},"properties":{"id":"134","land-id":"09676","name":"Klingenberg a.Main","population":6098,"population_man":3065,"population_woman":3033,"area":21.13}},{"type":"Feature","geometry":{"type":"Point","coordinates":[9.165017474382616,49.7380227584758]},"properties":{"id":"135","land-id":"09676","name":"Laudenbach","population":1469,"population_man":722,"population_woman":747,"area":4.92}},{"type":"Feature","geometry":{"type":"Point","coordinates":[9.233900172079325,49.896374787870364]},"properties":{"id":"136","land-id":"09676","name":"Leidersbach","population":4633,"population_man":2318,"population_woman":2315,"area":19.78}},{"type":"Feature","geometry":{"type":"Point","coordinates":[9.244886383059814,49.689373959442825]},"properties":{"id":"139","land-id":"09676","name":"Miltenberg","population":9409,"population_man":4597,"population_woman":4812,"area":60.2}},{"type":"Feature","geometry":{"type":"Point","coordinates":[9.074760036464202,49.85822777035969]},"properties":{"id":"140","land-id":"09676","name":"M\u00f6mlingen","population":4812,"population_man":2418,"population_woman":2394,"area":18.48}},{"type":"Feature","geometry":{"type":"Point","coordinates":[9.263501294055164,49.792234147775766]},"properties":{"id":"141","land-id":"09676","name":"M\u00f6nchberg","population":2484,"population_man":1225,"population_woman":1259,"area":24.21}},{"type":"Feature","geometry":{"type":"Point","coordinates":[9.392780901361915,49.7002710609665]},"properties":{"id":"143","land-id":"09676","name":"Neunkirchen","population":1425,"population_man":716,"population_woman":709,"area":16.64}},{"type":"Feature","geometry":{"type":"Point","coordinates":[9.121434421211697,49.90717689221047]},"properties":{"id":"144","land-id":"09676","name":"Niedernberg","population":4737,"population_man":2378,"population_woman":2359,"area":15.6}},{"type":"Feature","geometry":{"type":"Point","coordinates":[9.113735004195677,49.82800570039953]},"properties":{"id":"145","land-id":"09676","name":"Obernburg a.Main","population":8590,"population_man":4223,"population_woman":4367,"area":24.86}},{"type":"Feature","geometry":{"type":"Point","coordinates":[9.255249361220914,49.76605977201431]},"properties":{"id":"151","land-id":"09676","name":"R\u00f6llbach","population":1755,"population_man":884,"population_woman":871,"area":12.4}},{"type":"Feature","geometry":{"type":"Point","coordinates":[9.168799574732507,49.71166724304675]},"properties":{"id":"153","land-id":"09676","name":"R\u00fcdenau","population":726,"population_man":366,"population_woman":360,"area":4.01}},{"type":"Feature","geometry":{"type":"Point","coordinates":[9.256053730618738,49.62382222820598]},"properties":{"id":"156","land-id":"09676","name":"Schneeberg","population":1740,"population_man":864,"population_woman":876,"area":16.54}},{"type":"Feature","geometry":{"type":"Point","coordinates":[9.39620304998903,49.80249595544257]},"properties":{"id":"158","land-id":"09676","name":"Stadtprozelten","population":1570,"population_man":828,"population_woman":742,"area":10.85}},{"type":"Feature","geometry":{"type":"Point","coordinates":[9.190554275658933,49.91515121768142]},"properties":{"id":"160","land-id":"09676","name":"Sulzbach a.Main","population":7377,"population_man":3614,"population_woman":3763,"area":19.93}},{"type":"Feature","geometry":{"type":"Point","coordinates":[9.169747160909528,49.67404824746039]},"properties":{"id":"165","land-id":"09676","name":"Weilbach","population":2048,"population_man":1028,"population_woman":1020,"area":27.17}},{"type":"Feature","geometry":{"type":"Point","coordinates":[9.139763983755602,49.781943998329965]},"properties":{"id":"169","land-id":"09676","name":"W\u00f6rth a.Main","population":4789,"population_man":2349,"population_woman":2440,"area":15.88}},{"type":"Feature","geometry":{"type":"Point","coordinates":[9.961137115833585,49.98706409734345]},"properties":{"id":"114","land-id":"09677","name":"Arnstein","population":8250,"population_man":4084,"population_woman":4166,"area":111.97}},{"type":"Feature","geometry":{"type":"Point","coordinates":[9.56187440313657,50.17323400694738]},"properties":{"id":"116","land-id":"09677","name":"Aura i.Sinngrund","population":934,"population_man":453,"population_woman":481,"area":12.05}},{"type":"Feature","geometry":{"type":"Point","coordinates":[9.715870022564145,49.86204682788811]},"properties":{"id":"119","land-id":"09677","name":"Birkenfeld","population":2176,"population_man":1078,"population_woman":1098,"area":29.14}},{"type":"Feature","geometry":{"type":"Point","coordinates":[9.468927030000637,49.87926859515468]},"properties":{"id":"120","land-id":"09677","name":"Bischbrunn","population":1804,"population_man":901,"population_woman":903,"area":36.9}},{"type":"Feature","geometry":{"type":"Point","coordinates":[9.64595538141222,50.14800891431329]},"properties":{"id":"122","land-id":"09677","name":"Burgsinn","population":2308,"population_man":1152,"population_woman":1156,"area":51.27}},{"type":"Feature","geometry":{"type":"Point","coordinates":[9.643184458421489,49.82261633366315]},"properties":{"id":"125","land-id":"09677","name":"Erlenbach b.Marktheidenfeld","population":2400,"population_man":1208,"population_woman":1192,"area":15.3}},{"type":"Feature","geometry":{"type":"Point","coordinates":[9.525575130762514,49.86039551910948]},"properties":{"id":"126","land-id":"09677","name":"Esselbach","population":2077,"population_man":994,"population_woman":1083,"area":11.93}},{"type":"Feature","geometry":{"type":"Point","coordinates":[9.847486996250156,50.00835618202222]},"properties":{"id":"127","land-id":"09677","name":"Eu\u00dfenheim","population":3013,"population_man":1525,"population_woman":1488,"area":56.78}},{"type":"Feature","geometry":{"type":"Point","coordinates":[9.556844859105095,50.13669625103059]},"properties":{"id":"128","land-id":"09677","name":"Fellen","population":844,"population_man":417,"population_woman":427,"area":34.35}},{"type":"Feature","geometry":{"type":"Point","coordinates":[9.451118488038535,50.06293335354942]},"properties":{"id":"129","land-id":"09677","name":"Frammersbach","population":4436,"population_man":2216,"population_woman":2220,"area":19.15}},{"type":"Feature","geometry":{"type":"Point","coordinates":[9.692938838802315,50.056509470700895]},"properties":{"id":"131","land-id":"09677","name":"Gem\u00fcnden a.Main","population":10070,"population_man":5043,"population_woman":5027,"area":75.08}},{"type":"Feature","geometry":{"type":"Point","coordinates":[9.774681311338982,50.01978679754466]},"properties":{"id":"132","land-id":"09677","name":"G\u00f6ssenheim","population":1088,"population_man":555,"population_woman":533,"area":11.51}},{"type":"Feature","geometry":{"type":"Point","coordinates":[9.729893414739532,50.11992685564155]},"properties":{"id":"133","land-id":"09677","name":"Gr\u00e4fendorf","population":1287,"population_man":637,"population_woman":650,"area":45.25}},{"type":"Feature","geometry":{"type":"Point","coordinates":[9.572136486912532,49.87811182953639]},"properties":{"id":"135","land-id":"09677","name":"Hafenlohr","population":1758,"population_man":881,"population_woman":877,"area":11.3}},{"type":"Feature","geometry":{"type":"Point","coordinates":[9.48262202864971,49.80189720657801]},"properties":{"id":"137","land-id":"09677","name":"Hasloch","population":1400,"population_man":733,"population_woman":667,"area":10.37}},{"type":"Feature","geometry":{"type":"Point","coordinates":[9.782104640339186,49.92388056542104]},"properties":{"id":"142","land-id":"09677","name":"Himmelstadt","population":1594,"population_man":770,"population_woman":824,"area":13.37}},{"type":"Feature","geometry":{"type":"Point","coordinates":[9.644891533468527,49.86422354879721]},"properties":{"id":"146","land-id":"09677","name":"Karbach","population":1468,"population_man":737,"population_woman":731,"area":24.08}},{"type":"Feature","geometry":{"type":"Point","coordinates":[9.743912975356162,49.96993423595615]},"properties":{"id":"148","land-id":"09677","name":"Karlstadt","population":14881,"population_man":7377,"population_woman":7504,"area":98.04}},{"type":"Feature","geometry":{"type":"Point","coordinates":[9.787131964941889,50.060504200557475]},"properties":{"id":"149","land-id":"09677","name":"Karsbach","population":1701,"population_man":825,"population_woman":876,"area":30.1}},{"type":"Feature","geometry":{"type":"Point","coordinates":[9.53257221637006,49.786546992873426]},"properties":{"id":"151","land-id":"09677","name":"Kreuzwertheim","population":3862,"population_man":1905,"population_woman":1957,"area":19.97}},{"type":"Feature","geometry":{"type":"Point","coordinates":[9.59750861798136,49.800881022167125]},"properties":{"id":"154","land-id":"09677","name":"Triefenstein","population":4329,"population_man":2168,"population_woman":2161,"area":25.45}},{"type":"Feature","geometry":{"type":"Point","coordinates":[9.5690806674726,50.0038137980873]},"properties":{"id":"155","land-id":"09677","name":"Lohr a.Main","population":15018,"population_man":7522,"population_woman":7496,"area":90.39}},{"type":"Feature","geometry":{"type":"Point","coordinates":[9.56832816100115,49.841212508253854]},"properties":{"id":"157","land-id":"09677","name":"Marktheidenfeld","population":11554,"population_man":5712,"population_woman":5842,"area":35.67}},{"type":"Feature","geometry":{"type":"Point","coordinates":[9.61920965425149,50.1888077299191]},"properties":{"id":"159","land-id":"09677","name":"Mittelsinn","population":809,"population_man":407,"population_woman":402,"area":14.25}},{"type":"Feature","geometry":{"type":"Point","coordinates":[9.620347053998985,50.03538435836223]},"properties":{"id":"164","land-id":"09677","name":"Neuendorf","population":818,"population_man":423,"population_woman":395,"area":9.68}},{"type":"Feature","geometry":{"type":"Point","coordinates":[9.425610752806845,50.00173653396046]},"properties":{"id":"165","land-id":"09677","name":"Neuh\u00fctten","population":1115,"population_man":564,"population_woman":551,"area":5.9}},{"type":"Feature","geometry":{"type":"Point","coordinates":[9.55247434900993,49.93747570641383]},"properties":{"id":"166","land-id":"09677","name":"Neustadt a.Main","population":1174,"population_man":596,"population_woman":578,"area":19.78}},{"type":"Feature","geometry":{"type":"Point","coordinates":[9.618532176374186,50.21383087219526]},"properties":{"id":"169","land-id":"09677","name":"Obersinn","population":936,"population_man":453,"population_woman":483,"area":11.59}},{"type":"Feature","geometry":{"type":"Point","coordinates":[9.520217824825208,50.04800130191954]},"properties":{"id":"170","land-id":"09677","name":"Partenstein","population":2703,"population_man":1350,"population_woman":1353,"area":10.43}},{"type":"Feature","geometry":{"type":"Point","coordinates":[9.520331753007769,49.98553781328343]},"properties":{"id":"172","land-id":"09677","name":"Rechtenbach","population":1055,"population_man":526,"population_woman":529,"area":7.2}},{"type":"Feature","geometry":{"type":"Point","coordinates":[9.887311162376134,49.90916732139116]},"properties":{"id":"175","land-id":"09677","name":"Retzstadt","population":1668,"population_man":848,"population_woman":820,"area":18.11}},{"type":"Feature","geometry":{"type":"Point","coordinates":[9.635718707226609,50.10127893632805]},"properties":{"id":"177","land-id":"09677","name":"Rieneck","population":1868,"population_man":914,"population_woman":954,"area":26.14}},{"type":"Feature","geometry":{"type":"Point","coordinates":[9.622002890759655,49.911876788373995]},"properties":{"id":"178","land-id":"09677","name":"Roden","population":1012,"population_man":516,"population_woman":496,"area":20.09}},{"type":"Feature","geometry":{"type":"Point","coordinates":[9.559479213065494,49.907114250270425]},"properties":{"id":"181","land-id":"09677","name":"Rothenfels","population":956,"population_man":500,"population_woman":456,"area":12.02}},{"type":"Feature","geometry":{"type":"Point","coordinates":[9.475475020467922,49.8322469459658]},"properties":{"id":"182","land-id":"09677","name":"Schollbrunn","population":886,"population_man":456,"population_woman":430,"area":12.31}},{"type":"Feature","geometry":{"type":"Point","coordinates":[9.650147339896435,49.95111300188841]},"properties":{"id":"186","land-id":"09677","name":"Steinfeld","population":2080,"population_man":1066,"population_woman":1014,"area":33.72}},{"type":"Feature","geometry":{"type":"Point","coordinates":[9.862935327011995,49.93846999125709]},"properties":{"id":"189","land-id":"09677","name":"Th\u00fcngen","population":1317,"population_man":653,"population_woman":664,"area":13.55}},{"type":"Feature","geometry":{"type":"Point","coordinates":[9.678533582719744,49.9049254144527]},"properties":{"id":"193","land-id":"09677","name":"Urspringen","population":1378,"population_man":720,"population_woman":658,"area":17.92}},{"type":"Feature","geometry":{"type":"Point","coordinates":[9.429913818255624,50.02987948881892]},"properties":{"id":"200","land-id":"09677","name":"Wiesthal","population":1212,"population_man":603,"population_woman":609,"area":9.13}},{"type":"Feature","geometry":{"type":"Point","coordinates":[9.779553800982454,49.89900739107058]},"properties":{"id":"203","land-id":"09677","name":"Zellingen","population":6376,"population_man":3144,"population_woman":3232,"area":41.41}},{"type":"Feature","geometry":{"type":"Point","coordinates":[10.167487256037644,50.00020654515756]},"properties":{"id":"115","land-id":"09678","name":"Bergrheinfeld","population":5275,"population_man":2633,"population_woman":2642,"area":19.86}},{"type":"Feature","geometry":{"type":"Point","coordinates":[10.397763847819089,49.910437810093065]},"properties":{"id":"122","land-id":"09678","name":"Dingolshausen","population":1359,"population_man":694,"population_woman":665,"area":10.21}},{"type":"Feature","geometry":{"type":"Point","coordinates":[10.20590362826882,50.111900597218884]},"properties":{"id":"123","land-id":"09678","name":"Dittelbrunn","population":7478,"population_man":3714,"population_woman":3764,"area":23.89}},{"type":"Feature","geometry":{"type":"Point","coordinates":[10.406447761014908,49.96419230179316]},"properties":{"id":"124","land-id":"09678","name":"Donnersdorf","population":1959,"population_man":1037,"population_woman":922,"area":26.93}},{"type":"Feature","geometry":{"type":"Point","coordinates":[10.098476368377293,50.068456875753675]},"properties":{"id":"128","land-id":"09678","name":"Euerbach","population":2911,"population_man":1440,"population_woman":1471,"area":17.41}},{"type":"Feature","geometry":{"type":"Point","coordinates":[10.310747755776314,49.894393486761146]},"properties":{"id":"130","land-id":"09678","name":"Frankenwinheim","population":978,"population_man":494,"population_woman":484,"area":14.74}},{"type":"Feature","geometry":{"type":"Point","coordinates":[10.144966471507574,50.04248586141624]},"properties":{"id":"132","land-id":"09678","name":"Geldersheim","population":2624,"population_man":1358,"population_woman":1266,"area":15.29}},{"type":"Feature","geometry":{"type":"Point","coordinates":[10.355914425678574,49.90222966168049]},"properties":{"id":"134","land-id":"09678","name":"Gerolzhofen","population":6756,"population_man":3342,"population_woman":3414,"area":18.34}},{"type":"Feature","geometry":{"type":"Point","coordinates":[10.288474309730734,50.017005066637125]},"properties":{"id":"135","land-id":"09678","name":"Gochsheim","population":6060,"population_man":2939,"population_woman":3121,"area":20.81}},{"type":"Feature","geometry":{"type":"Point","coordinates":[10.208156365313203,49.99401277806981]},"properties":{"id":"136","land-id":"09678","name":"Grafenrheinfeld","population":3451,"population_man":1765,"population_woman":1686,"area":11.3}},{"type":"Feature","geometry":{"type":"Point","coordinates":[10.340006453142076,49.98962731531698]},"properties":{"id":"138","land-id":"09678","name":"Grettstadt","population":4276,"population_man":2192,"population_woman":2084,"area":34.88}},{"type":"Feature","geometry":{"type":"Point","coordinates":[10.252891803456357,49.93005617381382]},"properties":{"id":"150","land-id":"09678","name":"Kolitzheim","population":5664,"population_man":2829,"population_woman":2835,"area":59.11}},{"type":"Feature","geometry":{"type":"Point","coordinates":[10.34107941740081,49.87010174084973]},"properties":{"id":"153","land-id":"09678","name":"L\u00fclsfeld","population":776,"population_man":404,"population_woman":372,"area":11.18}},{"type":"Feature","geometry":{"type":"Point","coordinates":[10.437773650334766,49.91933596402981]},"properties":{"id":"157","land-id":"09678","name":"Michelau i.Steigerwald","population":1185,"population_man":595,"population_woman":590,"area":14.19}},{"type":"Feature","geometry":{"type":"Point","coordinates":[10.170020865264759,50.069147654270466]},"properties":{"id":"160","land-id":"09678","name":"Niederwerrn","population":8431,"population_man":4307,"population_woman":4124,"area":9.76}},{"type":"Feature","geometry":{"type":"Point","coordinates":[10.417753378309241,49.85374304501292]},"properties":{"id":"164","land-id":"09678","name":"Oberschwarzach","population":1425,"population_man":716,"population_woman":709,"area":25.56}},{"type":"Feature","geometry":{"type":"Point","coordinates":[10.14533043266653,50.10290088823734]},"properties":{"id":"168","land-id":"09678","name":"Poppenhausen","population":4435,"population_man":2213,"population_woman":2222,"area":39.03}},{"type":"Feature","geometry":{"type":"Point","coordinates":[10.213800006362876,49.96375473106793]},"properties":{"id":"170","land-id":"09678","name":"R\u00f6thlein","population":4435,"population_man":2229,"population_woman":2206,"area":19.07}},{"type":"Feature","geometry":{"type":"Point","coordinates":[10.34884492330164,50.07731746864332]},"properties":{"id":"174","land-id":"09678","name":"Schonungen","population":7601,"population_man":3785,"population_woman":3816,"area":80.89}},{"type":"Feature","geometry":{"type":"Point","coordinates":[10.133364458831432,49.920667343346125]},"properties":{"id":"175","land-id":"09678","name":"Schwanfeld","population":1747,"population_man":878,"population_woman":869,"area":11.92}},{"type":"Feature","geometry":{"type":"Point","coordinates":[10.258397319911888,49.99053974207957]},"properties":{"id":"176","land-id":"09678","name":"Schwebheim","population":4148,"population_man":2057,"population_woman":2091,"area":8.12}},{"type":"Feature","geometry":{"type":"Point","coordinates":[10.262634278497156,50.03934946711854]},"properties":{"id":"178","land-id":"09678","name":"Sennfeld","population":4196,"population_man":2097,"population_woman":2099,"area":6.91}},{"type":"Feature","geometry":{"type":"Point","coordinates":[10.384849345935727,50.18450065160034]},"properties":{"id":"181","land-id":"09678","name":"Stadtlauringen","population":4175,"population_man":2093,"population_woman":2082,"area":63.56}},{"type":"Feature","geometry":{"type":"Point","coordinates":[10.344029217282955,49.94317435765938]},"properties":{"id":"183","land-id":"09678","name":"Sulzheim","population":1999,"population_man":1029,"population_woman":970,"area":26.75}},{"type":"Feature","geometry":{"type":"Point","coordinates":[10.283900673067391,50.12173185748631]},"properties":{"id":"186","land-id":"09678","name":"\u00dcchtelhausen","population":3764,"population_man":1860,"population_woman":1904,"area":62.12}},{"type":"Feature","geometry":{"type":"Point","coordinates":[10.141204997429353,49.95590571599317]},"properties":{"id":"190","land-id":"09678","name":"Waigolshausen","population":2698,"population_man":1357,"population_woman":1341,"area":23.74}},{"type":"Feature","geometry":{"type":"Point","coordinates":[10.024168249782525,50.068042043325164]},"properties":{"id":"192","land-id":"09678","name":"Wasserlosen","population":3422,"population_man":1705,"population_woman":1717,"area":51.28}},{"type":"Feature","geometry":{"type":"Point","coordinates":[10.083600897618098,49.9905036551571]},"properties":{"id":"193","land-id":"09678","name":"Werneck","population":10065,"population_man":5066,"population_woman":4999,"area":73.64}},{"type":"Feature","geometry":{"type":"Point","coordinates":[10.173290266080057,49.92114728838253]},"properties":{"id":"196","land-id":"09678","name":"Wipfeld","population":996,"population_man":486,"population_woman":510,"area":5.24}},{"type":"Feature","geometry":{"type":"Point","coordinates":[10.043330913742622,49.54728995491663]},"properties":{"id":"114","land-id":"09679","name":"Aub","population":1376,"population_man":723,"population_woman":653,"area":17.57}},{"type":"Feature","geometry":{"type":"Point","coordinates":[10.08626578624862,49.90581808720036]},"properties":{"id":"117","land-id":"09679","name":"Bergtheim","population":3714,"population_man":1814,"population_woman":1900,"area":26.52}},{"type":"Feature","geometry":{"type":"Point","coordinates":[10.016321903592713,49.5080106343179]},"properties":{"id":"118","land-id":"09679","name":"Bieberehren","population":843,"population_man":415,"population_woman":428,"area":14.76}},{"type":"Feature","geometry":{"type":"Point","coordinates":[9.882199929351493,49.590175337864956]},"properties":{"id":"122","land-id":"09679","name":"B\u00fctthard","population":1292,"population_man":653,"population_woman":639,"area":36.21}},{"type":"Feature","geometry":{"type":"Point","coordinates":[10.012077263022997,49.724343242895046]},"properties":{"id":"124","land-id":"09679","name":"Eibelstadt","population":3008,"population_man":1445,"population_woman":1563,"area":7.06}},{"type":"Feature","geometry":{"type":"Point","coordinates":[9.82606735157056,49.76021048618992]},"properties":{"id":"126","land-id":"09679","name":"Eisingen","population":3442,"population_man":1687,"population_woman":1755,"area":5.31}},{"type":"Feature","geometry":{"type":"Point","coordinates":[9.840352936120205,49.8584902606043]},"properties":{"id":"128","land-id":"09679","name":"Erlabrunn","population":1817,"population_man":879,"population_woman":938,"area":4.01}},{"type":"Feature","geometry":{"type":"Point","coordinates":[10.014986217218528,49.834182886336045]},"properties":{"id":"130","land-id":"09679","name":"Estenfeld","population":5328,"population_man":2582,"population_woman":2746,"area":18.07}},{"type":"Feature","geometry":{"type":"Point","coordinates":[10.102043928348815,49.679034095548715]},"properties":{"id":"131","land-id":"09679","name":"Frickenhausen a.Main","population":1106,"population_man":568,"population_woman":538,"area":10.51}},{"type":"Feature","geometry":{"type":"Point","coordinates":[10.00100356435418,49.62709345791067]},"properties":{"id":"134","land-id":"09679","name":"Gauk\u00f6nigshofen","population":2487,"population_man":1261,"population_woman":1226,"area":31.95}},{"type":"Feature","geometry":{"type":"Point","coordinates":[10.035001171413603,49.57396486945095]},"properties":{"id":"135","land-id":"09679","name":"Gelchsheim","population":848,"population_man":439,"population_woman":409,"area":15.68}},{"type":"Feature","geometry":{"type":"Point","coordinates":[10.000298646589645,49.77965154018397]},"properties":{"id":"136","land-id":"09679","name":"Gerbrunn","population":6492,"population_man":3177,"population_woman":3315,"area":4.63}},{"type":"Feature","geometry":{"type":"Point","coordinates":[9.888307768541262,49.68163338195461]},"properties":{"id":"137","land-id":"09679","name":"Geroldshausen","population":1372,"population_man":677,"population_woman":695,"area":10.44}},{"type":"Feature","geometry":{"type":"Point","coordinates":[9.936122552693648,49.648623790608866]},"properties":{"id":"138","land-id":"09679","name":"Giebelstadt","population":5520,"population_man":2734,"population_woman":2786,"area":47.95}},{"type":"Feature","geometry":{"type":"Point","coordinates":[9.762726318010547,49.82177378923101]},"properties":{"id":"141","land-id":"09679","name":"Greu\u00dfenheim","population":1618,"population_man":818,"population_woman":800,"area":17.65}},{"type":"Feature","geometry":{"type":"Point","coordinates":[9.902836204078138,49.87410455698711]},"properties":{"id":"142","land-id":"09679","name":"G\u00fcntersleben","population":4430,"population_man":2223,"population_woman":2207,"area":16.05}},{"type":"Feature","geometry":{"type":"Point","coordinates":[10.02577173279995,49.925901096814165]},"properties":{"id":"143","land-id":"09679","name":"Hausen b.W\u00fcrzburg","population":2544,"population_man":1277,"population_woman":1267,"area":21.89}},{"type":"Feature","geometry":{"type":"Point","coordinates":[9.705149326127678,49.75766881997736]},"properties":{"id":"144","land-id":"09679","name":"Helmstadt","population":2574,"population_man":1296,"population_woman":1278,"area":22.79}},{"type":"Feature","geometry":{"type":"Point","coordinates":[9.814372911449713,49.80351774125428]},"properties":{"id":"146","land-id":"09679","name":"Hettstadt","population":3580,"population_man":1775,"population_woman":1805,"area":13.98}},{"type":"Feature","geometry":{"type":"Point","coordinates":[9.87301796484614,49.77684683154196]},"properties":{"id":"147","land-id":"09679","name":"H\u00f6chberg","population":9495,"population_man":4598,"population_woman":4897,"area":7.56}},{"type":"Feature","geometry":{"type":"Point","coordinates":[9.673431599042058,49.77893187375083]},"properties":{"id":"149","land-id":"09679","name":"Holzkirchen","population":942,"population_man":472,"population_woman":470,"area":8.4}},{"type":"Feature","geometry":{"type":"Point","coordinates":[9.860085829322788,49.65409335218325]},"properties":{"id":"153","land-id":"09679","name":"Kirchheim","population":2171,"population_man":1116,"population_woman":1055,"area":18.97}},{"type":"Feature","geometry":{"type":"Point","coordinates":[9.838612189488938,49.742231098296884]},"properties":{"id":"154","land-id":"09679","name":"Kist","population":2607,"population_man":1245,"population_woman":1362,"area":3.91}},{"type":"Feature","geometry":{"type":"Point","coordinates":[9.844611102312435,49.70468081138937]},"properties":{"id":"155","land-id":"09679","name":"Kleinrinderfeld","population":1974,"population_man":1013,"population_woman":961,"area":7.74}},{"type":"Feature","geometry":{"type":"Point","coordinates":[10.051274959595803,49.84095257217659]},"properties":{"id":"156","land-id":"09679","name":"K\u00fcrnach","population":4621,"population_man":2252,"population_woman":2369,"area":12.32}},{"type":"Feature","geometry":{"type":"Point","coordinates":[9.85097155673538,49.83628960999489]},"properties":{"id":"161","land-id":"09679","name":"Margetsh\u00f6chheim","population":3125,"population_man":1492,"population_woman":1633,"area":6.65}},{"type":"Feature","geometry":{"type":"Point","coordinates":[9.664538753102747,49.722240227688665]},"properties":{"id":"164","land-id":"09679","name":"Neubrunn","population":2245,"population_man":1132,"population_woman":1113,"area":26.51}},{"type":"Feature","geometry":{"type":"Point","coordinates":[9.747943948841186,49.72455884983288]},"properties":{"id":"165","land-id":"09679","name":"Altertheim","population":1970,"population_man":990,"population_woman":980,"area":24.03}},{"type":"Feature","geometry":{"type":"Point","coordinates":[10.162622245838197,49.88716338813009]},"properties":{"id":"167","land-id":"09679","name":"Eisenheim","population":1317,"population_man":640,"population_woman":677,"area":11.55}},{"type":"Feature","geometry":{"type":"Point","coordinates":[10.088219623330987,49.874111657666084]},"properties":{"id":"169","land-id":"09679","name":"Oberpleichfeld","population":1126,"population_man":601,"population_woman":525,"area":8.69}},{"type":"Feature","geometry":{"type":"Point","coordinates":[10.054482477073636,49.66137877965145]},"properties":{"id":"170","land-id":"09679","name":"Ochsenfurt","population":11180,"population_man":5596,"population_woman":5584,"area":63.49}},{"type":"Feature","geometry":{"type":"Point","coordinates":[10.12113493710443,49.86114938602582]},"properties":{"id":"174","land-id":"09679","name":"Prosselsheim","population":1147,"population_man":599,"population_woman":548,"area":19.93}},{"type":"Feature","geometry":{"type":"Point","coordinates":[10.00576740253102,49.75115653019773]},"properties":{"id":"175","land-id":"09679","name":"Randersacker","population":3327,"population_man":1619,"population_woman":1708,"area":16.23}},{"type":"Feature","geometry":{"type":"Point","coordinates":[9.92498452639325,49.70966532222354]},"properties":{"id":"176","land-id":"09679","name":"Reichenberg","population":4124,"population_man":2011,"population_woman":2113,"area":34.81}},{"type":"Feature","geometry":{"type":"Point","coordinates":[9.693054577299396,49.812223743938944]},"properties":{"id":"177","land-id":"09679","name":"Remlingen","population":1486,"population_man":746,"population_woman":740,"area":20.44}},{"type":"Feature","geometry":{"type":"Point","coordinates":[9.952857160301622,49.55938412044123]},"properties":{"id":"179","land-id":"09679","name":"Riedenheim","population":742,"population_man":404,"population_woman":338,"area":23.97}},{"type":"Feature","geometry":{"type":"Point","coordinates":[9.96050463853848,49.87729798776579]},"properties":{"id":"180","land-id":"09679","name":"Rimpar","population":7463,"population_man":3742,"population_woman":3721,"area":36.29}},{"type":"Feature","geometry":{"type":"Point","coordinates":[9.967650081092266,49.5191266402174]},"properties":{"id":"182","land-id":"09679","name":"R\u00f6ttingen","population":1577,"population_man":805,"population_woman":772,"area":27.21}},{"type":"Feature","geometry":{"type":"Point","coordinates":[10.038578183735314,49.79521398192403]},"properties":{"id":"185","land-id":"09679","name":"Rottendorf","population":5426,"population_man":2638,"population_woman":2788,"area":14.82}},{"type":"Feature","geometry":{"type":"Point","coordinates":[10.039566744761796,49.697731276379756]},"properties":{"id":"187","land-id":"09679","name":"Sommerhausen","population":1894,"population_man":926,"population_woman":968,"area":7.23}},{"type":"Feature","geometry":{"type":"Point","coordinates":[9.992092512607774,49.58864889169023]},"properties":{"id":"188","land-id":"09679","name":"Sonderhofen","population":879,"population_man":466,"population_woman":413,"area":18.84}},{"type":"Feature","geometry":{"type":"Point","coordinates":[9.938563269012327,49.49670633939758]},"properties":{"id":"192","land-id":"09679","name":"Tauberrettersheim","population":809,"population_man":404,"population_woman":405,"area":8.56}},{"type":"Feature","geometry":{"type":"Point","coordinates":[10.033127073820248,49.75958152896673]},"properties":{"id":"193","land-id":"09679","name":"Theilheim","population":2322,"population_man":1137,"population_woman":1185,"area":9.69}},{"type":"Feature","geometry":{"type":"Point","coordinates":[9.856889375733989,49.87646396004691]},"properties":{"id":"194","land-id":"09679","name":"Th\u00fcngersheim","population":2661,"population_man":1311,"population_woman":1350,"area":11.04}},{"type":"Feature","geometry":{"type":"Point","coordinates":[9.730741162623154,49.78816220238475]},"properties":{"id":"196","land-id":"09679","name":"Uettingen","population":1903,"population_man":979,"population_woman":924,"area":13.5}},{"type":"Feature","geometry":{"type":"Point","coordinates":[9.794866165488413,49.85282211798602]},"properties":{"id":"200","land-id":"09679","name":"Leinach","population":3220,"population_man":1600,"population_woman":1620,"area":28.03}},{"type":"Feature","geometry":{"type":"Point","coordinates":[10.031612476040463,49.87684424123745]},"properties":{"id":"201","land-id":"09679","name":"Unterpleichfeld","population":3190,"population_man":1620,"population_woman":1570,"area":23.86}},{"type":"Feature","geometry":{"type":"Point","coordinates":[9.887854034686086,49.84048256246399]},"properties":{"id":"202","land-id":"09679","name":"Veitsh\u00f6chheim","population":9416,"population_man":4536,"population_woman":4880,"area":10.78}},{"type":"Feature","geometry":{"type":"Point","coordinates":[9.791913065575306,49.75994437007538]},"properties":{"id":"204","land-id":"09679","name":"Waldbrunn","population":2896,"population_man":1430,"population_woman":1466,"area":6.67}},{"type":"Feature","geometry":{"type":"Point","coordinates":[9.800605532924108,49.78554517658722]},"properties":{"id":"205","land-id":"09679","name":"Waldb\u00fcttelbrunn","population":4926,"population_man":2455,"population_woman":2471,"area":19.14}},{"type":"Feature","geometry":{"type":"Point","coordinates":[10.000024210556273,49.707548712890315]},"properties":{"id":"206","land-id":"09679","name":"Winterhausen","population":1416,"population_man":701,"population_woman":715,"area":8.73}},{"type":"Feature","geometry":{"type":"Point","coordinates":[9.85929443627099,49.80713514481176]},"properties":{"id":"209","land-id":"09679","name":"Zell a.Main","population":4327,"population_man":2095,"population_woman":2232,"area":9.93}}]}