{
  "type": "FeatureCollection",
  "crs": {
    "type": "name",
    "properties": {
      "name": "urn:ogc:def:crs:OGC:1.3:CRS84"
    }
  },
  "features": [
    {
      "type": "Feature",
      "properties": {
        "segment_id": 1,
        "start_stop": "Start",
        "end_stop": "4",
        "bus": "41",
        "timestamps": [
          2700.0,
          2760.0,
          2820.0
        ]
      },
      "geometry": {
        "type": "LineString",
        "coordinates": [
          [
            10.8761727,
            48.3467664
          ],
          [
            10.8763008,
            48.3469071
          ],
          [
            10.8762146,
            48.3467568
          ]
        ]
      }
    },
    {
      "type": "Feature",
      "properties": {
        "segment_id": 2,
        "start_stop": "4",
        "end_stop": "4",
        "bus": "41",
        "timestamps": [
          2850.0,
          2890.0,
          2930.0,
          2970.0
        ]
      },
      "geometry": {
        "type": "LineString",
        "coordinates": [
          [
            10.8762146,
            48.3467568
          ],
          [
            10.8760763,
            48.3465225
          ],
          [
            10.8760132,
            48.3465371
          ],
          [
            10.8761727,
            48.3467664
          ]
        ]
      }
    },
    {
      "type": "Feature",
      "properties": {
        "segment_id": 3,
        "start_stop": "4",
        "end_stop": "4",
        "bus": "41",
        "timestamps": [
          3000.0,
          3120.0
        ]
      },
      "geometry": {
        "type": "LineString",
        "coordinates": [
          [
            10.8762146,
            48.3467568
          ],
          [
            10.8761727,
            48.3467664
          ]
        ]
      }
    },
    {
      "type": "Feature",
      "properties": {
        "segment_id": 4,
        "start_stop": "4",
        "end_stop": "12",
        "bus": "41",
        "timestamps": [
          3150.0,
          3270.0
        ]
      },
      "geometry": {
        "type": "LineString",
        "coordinates": [
          [
            10.8945895,
            48.3657248
          ],
          [
            10.8973794,
            48.360685
          ]
        ]
      }
    },
    {
      "type": "Feature",
      "properties": {
        "segment_id": 5,
        "start_stop": "12",
        "end_stop": "10",
        "bus": "41",
        "timestamps": [
          3300.0,
          3360.0,
          3420.0
        ]
      },
      "geometry": {
        "type": "LineString",
        "coordinates": [
          [
            10.8973794,
            48.360685
          ],
          [
            10.8979621,
            48.3597975
          ],
          [
            10.8969963,
            48.3571993
          ]
        ]
      }
    },
    {
      "type": "Feature",
      "properties": {
        "segment_id": 6,
        "start_stop": "10",
        "end_stop": "9",
        "bus": "41",
        "timestamps": [
          3450.0,
          3490.0,
          3530.0,
          3570.0
        ]
      },
      "geometry": {
        "type": "LineString",
        "coordinates": [
          [
            10.8969963,
            48.3571993
          ],
          [
            10.8963797,
            48.35565
          ],
          [
            10.8985991,
            48.355517
          ],
          [
            10.8982286,
            48.3533833
          ]
        ]
      }
    },
    {
      "type": "Feature",
      "properties": {
        "segment_id": 7,
        "start_stop": "9",
        "end_stop": "18",
        "bus": "41",
        "timestamps": [
          3600.0,
          3720.0
        ]
      },
      "geometry": {
        "type": "LineString",
        "coordinates": [
          [
            10.8982286,
            48.3533833
          ],
          [
            10.8979916,
            48.3520864
          ]
        ]
      }
    },
    {
      "type": "Feature",
      "properties": {
        "segment_id": 8,
        "start_stop": "18",
        "end_stop": "2",
        "bus": "41",
        "timestamps": [
          3750.0,
          3790.0,
          3830.0,
          3870.0
        ]
      },
      "geometry": {
        "type": "LineString",
        "coordinates": [
          [
            10.8979916,
            48.3520864
          ],
          [
            10.8978074,
            48.3512064
          ],
          [
            10.8973128,
            48.350228
          ],
          [
            10.8971064,
            48.3492737
          ]
        ]
      }
    },
    {
      "type": "Feature",
      "properties": {
        "segment_id": 9,
        "start_stop": "2",
        "end_stop": "3",
        "bus": "41",
        "timestamps": [
          3900.0,
          3930.0,
          3960.0,
          3990.0,
          4020.0
        ]
      },
      "geometry": {
        "type": "LineString",
        "coordinates": [
          [
            10.8971064,
            48.3492737
          ],
          [
            10.8969653,
            48.34894
          ],
          [
            10.896102,
            48.3476831
          ],
          [
            10.8958459,
            48.34687
          ],
          [
            10.895771,
            48.3463523
          ]
        ]
      }
    },
    {
      "type": "Feature",
      "properties": {
        "segment_id": 10,
        "start_stop": "3",
        "end_stop": "1",
        "bus": "41",
        "timestamps": [
          4050.0,
          4110.0,
          4170.0
        ]
      },
      "geometry": {
        "type": "LineString",
        "coordinates": [
          [
            10.895771,
            48.3463523
          ],
          [
            10.8958055,
            48.3456112
          ],
          [
            10.8960812,
            48.3447057
          ]
        ]
      }
    },
    {
      "type": "Feature",
      "properties": {
        "segment_id": 11,
        "start_stop": "1",
        "end_stop": "15",
        "bus": "41",
        "timestamps": [
          4200.0,
          4213.3333,
          4226.6667,
          4240.0,
          4253.3333,
          4266.6667,
          4280.0,
          4293.3333,
          4306.6667,
          4320.0
        ]
      },
      "geometry": {
        "type": "LineString",
        "coordinates": [
          [
            10.8960812,
            48.3447057
          ],
          [
            10.8960551,
            48.3443165
          ],
          [
            10.8959084,
            48.343994
          ],
          [
            10.8957391,
            48.3437283
          ],
          [
            10.8954532,
            48.3435021
          ],
          [
            10.894834,
            48.3433258
          ],
          [
            10.894104,
            48.3435277
          ],
          [
            10.8939031,
            48.3428049
          ],
          [
            10.8936194,
            48.3426386
          ],
          [
            10.8939289,
            48.3423643
          ]
        ]
      }
    },
    {
      "type": "Feature",
      "properties": {
        "segment_id": 12,
        "start_stop": "15",
        "end_stop": "16",
        "bus": "41",
        "timestamps": [
          4350.0,
          4380.0,
          4410.0,
          4440.0,
          4470.0
        ]
      },
      "geometry": {
        "type": "LineString",
        "coordinates": [
          [
            10.8939289,
            48.3423643
          ],
          [
            10.8944866,
            48.3418677
          ],
          [
            10.8955886,
            48.3418183
          ],
          [
            10.895668,
            48.3416687
          ],
          [
            10.8955547,
            48.3414961
          ]
        ]
      }
    },
    {
      "type": "Feature",
      "properties": {
        "segment_id": 13,
        "start_stop": "16",
        "end_stop": "0",
        "bus": "41",
        "timestamps": [
          4500.0,
          4512.0,
          4524.0,
          4536.0,
          4548.0,
          4560.0,
          4572.0,
          4584.0,
          4596.0,
          4608.0,
          4620.0
        ]
      },
      "geometry": {
        "type": "LineString",
        "coordinates": [
          [
            10.8955547,
            48.3414961
          ],
          [
            10.8951566,
            48.3412586
          ],
          [
            10.8951369,
            48.3410302
          ],
          [
            10.8949894,
            48.3408721
          ],
          [
            10.8950792,
            48.3403239
          ],
          [
            10.8954647,
            48.3400296
          ],
          [
            10.8957859,
            48.3399376
          ],
          [
            10.8964318,
            48.3399046
          ],
          [
            10.8968575,
            48.3397477
          ],
          [
            10.8994467,
            48.339744
          ],
          [
            10.899094,
            48.3381123
          ]
        ]
      }
    },
    {
      "type": "Feature",
      "properties": {
        "segment_id": 14,
        "start_stop": "0",
        "end_stop": "17",
        "bus": "41",
        "timestamps": [
          4650.0,
          4710.0,
          4770.0
        ]
      },
      "geometry": {
        "type": "LineString",
        "coordinates": [
          [
            10.899094,
            48.3381123
          ],
          [
            10.899014,
            48.3375342
          ],
          [
            10.8950803,
            48.3377565
          ]
        ]
      }
    },
    {
      "type": "Feature",
      "properties": {
        "segment_id": 15,
        "start_stop": "17",
        "end_stop": "5",
        "bus": "41",
        "timestamps": [
          4800.0,
          4920.0
        ]
      },
      "geometry": {
        "type": "LineString",
        "coordinates": [
          [
            10.8950803,
            48.3377565
          ],
          [
            10.8860713,
            48.3378041
          ]
        ]
      }
    },
    {
      "type": "Feature",
      "properties": {
        "segment_id": 16,
        "start_stop": "5",
        "end_stop": "8",
        "bus": "41",
        "timestamps": [
          4950.0,
          5070.0
        ]
      },
      "geometry": {
        "type": "LineString",
        "coordinates": [
          [
            10.8860713,
            48.3378041
          ],
          [
            10.8811007,
            48.3377402
          ]
        ]
      }
    },
    {
      "type": "Feature",
      "properties": {
        "segment_id": 17,
        "start_stop": "8",
        "end_stop": "7",
        "bus": "41",
        "timestamps": [
          5100.0,
          5124.0,
          5148.0,
          5172.0,
          5196.0,
          5220.0
        ]
      },
      "geometry": {
        "type": "LineString",
        "coordinates": [
          [
            10.8811007,
            48.3377402
          ],
          [
            10.8794314,
            48.3377094
          ],
          [
            10.8790168,
            48.3357234
          ],
          [
            10.8787875,
            48.3356204
          ],
          [
            10.8779962,
            48.3355722
          ],
          [
            10.8776197,
            48.3350928
          ]
        ]
      }
    },
    {
      "type": "Feature",
      "properties": {
        "segment_id": 18,
        "start_stop": "7",
        "end_stop": "20",
        "bus": "41",
        "timestamps": [
          5250.0,
          5270.0,
          5290.0,
          5310.0,
          5330.0,
          5350.0,
          5370.0
        ]
      },
      "geometry": {
        "type": "LineString",
        "coordinates": [
          [
            10.8776197,
            48.3350928
          ],
          [
            10.87708,
            48.3342569
          ],
          [
            10.877138,
            48.334171
          ],
          [
            10.8769865,
            48.334121
          ],
          [
            10.8762157,
            48.332987
          ],
          [
            10.875513,
            48.3329262
          ],
          [
            10.8750858,
            48.3325702
          ]
        ]
      }
    },
    {
      "type": "Feature",
      "properties": {
        "segment_id": 19,
        "start_stop": "20",
        "end_stop": "14",
        "bus": "41",
        "timestamps": [
          5400.0,
          5415.0,
          5430.0,
          5445.0,
          5460.0,
          5475.0,
          5490.0,
          5505.0,
          5520.0
        ]
      },
      "geometry": {
        "type": "LineString",
        "coordinates": [
          [
            10.8750858,
            48.3325702
          ],
          [
            10.8743541,
            48.33183
          ],
          [
            10.8743852,
            48.3317331
          ],
          [
            10.8742451,
            48.3317095
          ],
          [
            10.8732276,
            48.3307402
          ],
          [
            10.8725136,
            48.3312063
          ],
          [
            10.8714772,
            48.3321956
          ],
          [
            10.8706867,
            48.332573
          ],
          [
            10.871666,
            48.333591
          ]
        ]
      }
    },
    {
      "type": "Feature",
      "properties": {
        "segment_id": 20,
        "start_stop": "14",
        "end_stop": "19",
        "bus": "41",
        "timestamps": [
          5550.0,
          5570.0,
          5590.0,
          5610.0,
          5630.0,
          5650.0,
          5670.0
        ]
      },
      "geometry": {
        "type": "LineString",
        "coordinates": [
          [
            10.871666,
            48.333591
          ],
          [
            10.872254,
            48.3343528
          ],
          [
            10.8729429,
            48.335564
          ],
          [
            10.8733364,
            48.3366348
          ],
          [
            10.8735418,
            48.3377643
          ],
          [
            10.8758946,
            48.3376866
          ],
          [
            10.8760134,
            48.3380592
          ]
        ]
      }
    },
    {
      "type": "Feature",
      "properties": {
        "segment_id": 21,
        "start_stop": "19",
        "end_stop": "13",
        "bus": "41",
        "timestamps": [
          5700.0,
          5820.0
        ]
      },
      "geometry": {
        "type": "LineString",
        "coordinates": [
          [
            10.8760134,
            48.3380592
          ],
          [
            10.8779655,
            48.3421643
          ]
        ]
      }
    },
    {
      "type": "Feature",
      "properties": {
        "segment_id": 22,
        "start_stop": "13",
        "end_stop": "4",
        "bus": "41",
        "timestamps": [
          5850.0,
          5870.0,
          5890.0,
          5910.0,
          5930.0,
          5950.0,
          5970.0
        ]
      },
      "geometry": {
        "type": "LineString",
        "coordinates": [
          [
            10.8779655,
            48.3421643
          ],
          [
            10.8784503,
            48.3432633
          ],
          [
            10.8745243,
            48.3432927
          ],
          [
            10.8747169,
            48.3439975
          ],
          [
            10.8750124,
            48.3444915
          ],
          [
            10.8752677,
            48.3452175
          ],
          [
            10.8761301,
            48.3465477
          ]
        ]
      }
    },
    {
      "type": "Feature",
      "properties": {
        "segment_id": 23,
        "start_stop": "4",
        "end_stop": "11",
        "bus": "41",
        "timestamps": [
          6000.0,
          6012.0,
          6024.0,
          6036.0,
          6048.0,
          6060.0,
          6072.0,
          6084.0,
          6096.0,
          6108.0,
          6120.0
        ]
      },
      "geometry": {
        "type": "LineString",
        "coordinates": [
          [
            10.8761301,
            48.3465477
          ],
          [
            10.8773572,
            48.3490111
          ],
          [
            10.8785912,
            48.3506473
          ],
          [
            10.8787323,
            48.3507023
          ],
          [
            10.8796756,
            48.3504806
          ],
          [
            10.8825249,
            48.3503447
          ],
          [
            10.8827095,
            48.3502939
          ],
          [
            10.8828942,
            48.3500915
          ],
          [
            10.8829395,
            48.3496397
          ],
          [
            10.8828633,
            48.3479933
          ],
          [
            10.879019,
            48.3481376
          ]
        ]
      }
    },
    {
      "type": "Feature",
      "properties": {
        "segment_id": 24,
        "start_stop": "11",
        "end_stop": "6",
        "bus": "41",
        "timestamps": [
          6150.0,
          6270.0
        ]
      },
      "geometry": {
        "type": "LineString",
        "coordinates": [
          [
            10.8949559,
            48.365184
          ],
          [
            10.8946198,
            48.3657934
          ]
        ]
      }
    },
    {
      "type": "Feature",
      "properties": {
        "segment_id": 25,
        "start_stop": "6",
        "end_stop": "5",
        "bus": "41",
        "timestamps": [
          6300.0,
          6340.0,
          6380.0,
          6420.0
        ]
      },
      "geometry": {
        "type": "LineString",
        "coordinates": [
          [
            10.8860828,
            48.3377551
          ],
          [
            10.8857128,
            48.3377525
          ],
          [
            10.8860818,
            48.3376985
          ],
          [
            10.8860828,
            48.3377551
          ]
        ]
      }
    },
    {
      "type": "Feature",
      "properties": {
        "segment_id": 26,
        "start_stop": "5",
        "end_stop": "End",
        "bus": "41",
        "timestamps": [
          6450.0,
          6510.0,
          6570.0
        ]
      },
      "geometry": {
        "type": "LineString",
        "coordinates": [
          [
            10.897351,
            48.3607963
          ],
          [
            10.8978793,
            48.3599837
          ],
          [
            10.897351,
            48.3607963
          ]
        ]
      }
    },
    {
      "type": "Feature",
      "properties": {
        "segment_id": 1,
        "start_stop": "Start",
        "end_stop": "6",
        "bus": "42",
        "timestamps": [
          2700.0,
          2730.0,
          2760.0,
          2790.0,
          2820.0
        ]
      },
      "geometry": {
        "type": "LineString",
        "coordinates": [
          [
            10.8763266,
            48.346882
          ],
          [
            10.8773572,
            48.3490111
          ],
          [
            10.8777902,
            48.3495503
          ],
          [
            10.8780421,
            48.3497324
          ],
          [
            10.8773335,
            48.3500011
          ]
        ]
      }
    },
    {
      "type": "Feature",
      "properties": {
        "segment_id": 2,
        "start_stop": "6",
        "end_stop": "2",
        "bus": "42",
        "timestamps": [
          2850.0,
          2910.0,
          2970.0
        ]
      },
      "geometry": {
        "type": "LineString",
        "coordinates": [
          [
            10.8773335,
            48.3500011
          ],
          [
            10.8764028,
            48.3503071
          ],
          [
            10.8740332,
            48.35042
          ]
        ]
      }
    },
    {
      "type": "Feature",
      "properties": {
        "segment_id": 3,
        "start_stop": "2",
        "end_stop": "3",
        "bus": "42",
        "timestamps": [
          3000.0,
          3005.7143,
          3011.4286,
          3017.1429,
          3022.8571,
          3028.5714,
          3034.2857,
          3040.0,
          3045.7143,
          3051.4286,
          3057.1429,
          3062.8571,
          3068.5714,
          3074.2857,
          3080.0,
          3085.7143,
          3091.4286,
          3097.1429,
          3102.8571,
          3108.5714,
          3114.2857,
          3120.0
        ]
      },
      "geometry": {
        "type": "LineString",
        "coordinates": [
          [
            10.8740332,
            48.35042
          ],
          [
            10.8734331,
            48.350451
          ],
          [
            10.8731566,
            48.3498306
          ],
          [
            10.8720229,
            48.3480779
          ],
          [
            10.8720216,
            48.3479551
          ],
          [
            10.8711335,
            48.3481617
          ],
          [
            10.8686203,
            48.3485398
          ],
          [
            10.8635921,
            48.3500035
          ],
          [
            10.8613541,
            48.3507728
          ],
          [
            10.8554488,
            48.3531799
          ],
          [
            10.8535232,
            48.3542575
          ],
          [
            10.8524793,
            48.3550325
          ],
          [
            10.851495,
            48.3561786
          ],
          [
            10.851189,
            48.3567264
          ],
          [
            10.8509972,
            48.357289
          ],
          [
            10.8509311,
            48.3577884
          ],
          [
            10.8509679,
            48.3583487
          ],
          [
            10.852206,
            48.360432
          ],
          [
            10.8524995,
            48.3604355
          ],
          [
            10.852794,
            48.3603227
          ],
          [
            10.8527763,
            48.3598594
          ],
          [
            10.8537635,
            48.3597933
          ]
        ]
      }
    },
    {
      "type": "Feature",
      "properties": {
        "segment_id": 4,
        "start_stop": "3",
        "end_stop": "7",
        "bus": "42",
        "timestamps": [
          3150.0,
          3190.0,
          3230.0,
          3270.0
        ]
      },
      "geometry": {
        "type": "LineString",
        "coordinates": [
          [
            10.8537635,
            48.3597933
          ],
          [
            10.8552001,
            48.3597003
          ],
          [
            10.8552014,
            48.3593436
          ],
          [
            10.8547964,
            48.3569975
          ]
        ]
      }
    },
    {
      "type": "Feature",
      "properties": {
        "segment_id": 5,
        "start_stop": "7",
        "end_stop": "1",
        "bus": "42",
        "timestamps": [
          3300.0,
          3310.9091,
          3321.8182,
          3332.7273,
          3343.6364,
          3354.5455,
          3365.4545,
          3376.3636,
          3387.2727,
          3398.1818,
          3409.0909,
          3420.0
        ]
      },
      "geometry": {
        "type": "LineString",
        "coordinates": [
          [
            10.8547964,
            48.3569975
          ],
          [
            10.8545304,
            48.3548569
          ],
          [
            10.8546085,
            48.3547032
          ],
          [
            10.8551155,
            48.3543939
          ],
          [
            10.8550556,
            48.35427
          ],
          [
            10.8551397,
            48.3541725
          ],
          [
            10.8554014,
            48.3541625
          ],
          [
            10.8555081,
            48.3543015
          ],
          [
            10.8558402,
            48.3542715
          ],
          [
            10.8564452,
            48.3539236
          ],
          [
            10.8568406,
            48.3538755
          ],
          [
            10.8592213,
            48.3546539
          ]
        ]
      }
    },
    {
      "type": "Feature",
      "properties": {
        "segment_id": 6,
        "start_stop": "1",
        "end_stop": "5",
        "bus": "42",
        "timestamps": [
          3450.0,
          3510.0,
          3570.0
        ]
      },
      "geometry": {
        "type": "LineString",
        "coordinates": [
          [
            10.8592213,
            48.3546539
          ],
          [
            10.8610839,
            48.3552802
          ],
          [
            10.8620922,
            48.3560873
          ]
        ]
      }
    },
    {
      "type": "Feature",
      "properties": {
        "segment_id": 7,
        "start_stop": "5",
        "end_stop": "4",
        "bus": "42",
        "timestamps": [
          3600.0,
          3720.0
        ]
      },
      "geometry": {
        "type": "LineString",
        "coordinates": [
          [
            10.8620922,
            48.3560873
          ],
          [
            10.864724,
            48.3580976
          ]
        ]
      }
    },
    {
      "type": "Feature",
      "properties": {
        "segment_id": 8,
        "start_stop": "4",
        "end_stop": "End",
        "bus": "42",
        "timestamps": [
          3750.0,
          3763.3333,
          3776.6667,
          3790.0,
          3803.3333,
          3816.6667,
          3830.0,
          3843.3333,
          3856.6667,
          3870.0
        ]
      },
      "geometry": {
        "type": "LineString",
        "coordinates": [
          [
            10.864724,
            48.3580976
          ],
          [
            10.8664848,
            48.3593128
          ],
          [
            10.8680308,
            48.3601354
          ],
          [
            10.8682092,
            48.3605794
          ],
          [
            10.8683157,
            48.3615716
          ],
          [
            10.8671318,
            48.3613968
          ],
          [
            10.8670506,
            48.3614708
          ],
          [
            10.8670185,
            48.3617758
          ],
          [
            10.8672604,
            48.3624166
          ],
          [
            10.8680289,
            48.3623692
          ]
        ]
      }
    },
    {
      "type": "Feature",
      "properties": {
        "segment_id": 1,
        "start_stop": "Start",
        "end_stop": "2",
        "bus": "43",
        "timestamps": [
          2700.0,
          2724.0,
          2748.0,
          2772.0,
          2796.0,
          2820.0
        ]
      },
      "geometry": {
        "type": "LineString",
        "coordinates": [
          [
            10.8901929,
            48.3514296
          ],
          [
            10.8902582,
            48.3518499
          ],
          [
            10.8925021,
            48.3516652
          ],
          [
            10.8927171,
            48.3532494
          ],
          [
            10.8981102,
            48.3527015
          ],
          [
            10.8982286,
            48.3533833
          ]
        ]
      }
    },
    {
      "type": "Feature",
      "properties": {
        "segment_id": 2,
        "start_stop": "2",
        "end_stop": "3",
        "bus": "43",
        "timestamps": [
          2850.0,
          2890.0,
          2930.0,
          2970.0
        ]
      },
      "geometry": {
        "type": "LineString",
        "coordinates": [
          [
            10.8982286,
            48.3533833
          ],
          [
            10.8985991,
            48.355517
          ],
          [
            10.8963797,
            48.35565
          ],
          [
            10.8969963,
            48.3571993
          ]
        ]
      }
    },
    {
      "type": "Feature",
      "properties": {
        "segment_id": 3,
        "start_stop": "3",
        "end_stop": "4",
        "bus": "43",
        "timestamps": [
          3000.0,
          3060.0,
          3120.0
        ]
      },
      "geometry": {
        "type": "LineString",
        "coordinates": [
          [
            10.8969963,
            48.3571993
          ],
          [
            10.8979621,
            48.3597975
          ],
          [
            10.8973794,
            48.360685
          ]
        ]
      }
    },
    {
      "type": "Feature",
      "properties": {
        "segment_id": 4,
        "start_stop": "4",
        "end_stop": "6",
        "bus": "43",
        "timestamps": [
          3150.0,
          3190.0,
          3230.0,
          3270.0
        ]
      },
      "geometry": {
        "type": "LineString",
        "coordinates": [
          [
            10.8973794,
            48.360685
          ],
          [
            10.8949858,
            48.3649979
          ],
          [
            10.8947155,
            48.3651306
          ],
          [
            10.8941272,
            48.365152
          ]
        ]
      }
    },
    {
      "type": "Feature",
      "properties": {
        "segment_id": 5,
        "start_stop": "6",
        "end_stop": "1",
        "bus": "43",
        "timestamps": [
          3300.0,
          3340.0,
          3380.0,
          3420.0
        ]
      },
      "geometry": {
        "type": "LineString",
        "coordinates": [
          [
            10.8941272,
            48.365152
          ],
          [
            10.8935083,
            48.3650358
          ],
          [
            10.8929626,
            48.3650299
          ],
          [
            10.8881204,
            48.36548
          ]
        ]
      }
    },
    {
      "type": "Feature",
      "properties": {
        "segment_id": 6,
        "start_stop": "1",
        "end_stop": "End",
        "bus": "43",
        "timestamps": [
          3450.0,
          3474.0,
          3498.0,
          3522.0,
          3546.0,
          3570.0
        ]
      },
      "geometry": {
        "type": "LineString",
        "coordinates": [
          [
            10.8881204,
            48.36548
          ],
          [
            10.8879492,
            48.3655131
          ],
          [
            10.8877702,
            48.3656787
          ],
          [
            10.8858772,
            48.3677034
          ],
          [
            10.886556,
            48.368316
          ],
          [
            10.8880256,
            48.3691016
          ]
        ]
      }
    }
  ]
}