{
  "type": "FeatureCollection",
  "crs": {
    "type": "name",
    "properties": {
      "name": "urn:ogc:def:crs:OGC:1.3:CRS84"
    }
  },
  "features": [
    {
      "type": "Feature",
      "properties": {
        "segment_id": 1,
        "start_stop": "Start",
        "end_stop": "6",
        "bus": "42",
        "timestamps": [
          2400.0,
          2430.0,
          2460.0,
          2490.0,
          2520.0
        ]
      },
      "geometry": {
        "type": "LineString",
        "coordinates": [
          [
            10.8763266,
            48.346882
          ],
          [
            10.8773572,
            48.3490111
          ],
          [
            10.8777902,
            48.3495503
          ],
          [
            10.8780421,
            48.3497324
          ],
          [
            10.8773335,
            48.3500011
          ]
        ]
      }
    },
    {
      "type": "Feature",
      "properties": {
        "segment_id": 2,
        "start_stop": "6",
        "end_stop": "2",
        "bus": "42",
        "timestamps": [
          2520.0,
          2580.0,
          2640.0
        ]
      },
      "geometry": {
        "type": "LineString",
        "coordinates": [
          [
            10.8773335,
            48.3500011
          ],
          [
            10.8764028,
            48.3503071
          ],
          [
            10.8740332,
            48.35042
          ]
        ]
      }
    },
    {
      "type": "Feature",
      "properties": {
        "segment_id": 3,
        "start_stop": "2",
        "end_stop": "3",
        "bus": "42",
        "timestamps": [
          2640.0,
          2645.7143,
          2651.4286,
          2657.1429,
          2662.8571,
          2668.5714,
          2674.2857,
          2680.0,
          2685.7143,
          2691.4286,
          2697.1429,
          2702.8571,
          2708.5714,
          2714.2857,
          2720.0,
          2725.7143,
          2731.4286,
          2737.1429,
          2742.8571,
          2748.5714,
          2754.2857,
          2760.0
        ]
      },
      "geometry": {
        "type": "LineString",
        "coordinates": [
          [
            10.8740332,
            48.35042
          ],
          [
            10.8734331,
            48.350451
          ],
          [
            10.8731566,
            48.3498306
          ],
          [
            10.8720229,
            48.3480779
          ],
          [
            10.8720216,
            48.3479551
          ],
          [
            10.8711335,
            48.3481617
          ],
          [
            10.8686203,
            48.3485398
          ],
          [
            10.8635921,
            48.3500035
          ],
          [
            10.8613541,
            48.3507728
          ],
          [
            10.8554488,
            48.3531799
          ],
          [
            10.8535232,
            48.3542575
          ],
          [
            10.8524793,
            48.3550325
          ],
          [
            10.851495,
            48.3561786
          ],
          [
            10.851189,
            48.3567264
          ],
          [
            10.8509972,
            48.357289
          ],
          [
            10.8509311,
            48.3577884
          ],
          [
            10.8509679,
            48.3583487
          ],
          [
            10.852206,
            48.360432
          ],
          [
            10.8524995,
            48.3604355
          ],
          [
            10.852794,
            48.3603227
          ],
          [
            10.8527763,
            48.3598594
          ],
          [
            10.8537635,
            48.3597933
          ]
        ]
      }
    },
    {
      "type": "Feature",
      "properties": {
        "segment_id": 4,
        "start_stop": "3",
        "end_stop": "7",
        "bus": "42",
        "timestamps": [
          2760.0,
          2800.0,
          2840.0,
          2880.0
        ]
      },
      "geometry": {
        "type": "LineString",
        "coordinates": [
          [
            10.8537635,
            48.3597933
          ],
          [
            10.8552001,
            48.3597003
          ],
          [
            10.8552014,
            48.3593436
          ],
          [
            10.8547964,
            48.3569975
          ]
        ]
      }
    },
    {
      "type": "Feature",
      "properties": {
        "segment_id": 5,
        "start_stop": "7",
        "end_stop": "1",
        "bus": "42",
        "timestamps": [
          2880.0,
          2890.9091,
          2901.8182,
          2912.7273,
          2923.6364,
          2934.5455,
          2945.4545,
          2956.3636,
          2967.2727,
          2978.1818,
          2989.0909,
          3000.0
        ]
      },
      "geometry": {
        "type": "LineString",
        "coordinates": [
          [
            10.8547964,
            48.3569975
          ],
          [
            10.8545304,
            48.3548569
          ],
          [
            10.8546085,
            48.3547032
          ],
          [
            10.8551155,
            48.3543939
          ],
          [
            10.8550556,
            48.35427
          ],
          [
            10.8551397,
            48.3541725
          ],
          [
            10.8554014,
            48.3541625
          ],
          [
            10.8555081,
            48.3543015
          ],
          [
            10.8558402,
            48.3542715
          ],
          [
            10.8564452,
            48.3539236
          ],
          [
            10.8568406,
            48.3538755
          ],
          [
            10.8592213,
            48.3546539
          ]
        ]
      }
    },
    {
      "type": "Feature",
      "properties": {
        "segment_id": 6,
        "start_stop": "1",
        "end_stop": "5",
        "bus": "42",
        "timestamps": [
          3000.0,
          3060.0,
          3120.0
        ]
      },
      "geometry": {
        "type": "LineString",
        "coordinates": [
          [
            10.8592213,
            48.3546539
          ],
          [
            10.8610839,
            48.3552802
          ],
          [
            10.8620922,
            48.3560873
          ]
        ]
      }
    },
    {
      "type": "Feature",
      "properties": {
        "segment_id": 7,
        "start_stop": "5",
        "end_stop": "4",
        "bus": "42",
        "timestamps": [
          3120.0,
          3240.0
        ]
      },
      "geometry": {
        "type": "LineString",
        "coordinates": [
          [
            10.8620922,
            48.3560873
          ],
          [
            10.864724,
            48.3580976
          ]
        ]
      }
    },
    {
      "type": "Feature",
      "properties": {
        "segment_id": 8,
        "start_stop": "4",
        "end_stop": "End",
        "bus": "42",
        "timestamps": [
          3240.0,
          3253.3333,
          3266.6667,
          3280.0,
          3293.3333,
          3306.6667,
          3320.0,
          3333.3333,
          3346.6667,
          3360.0
        ]
      },
      "geometry": {
        "type": "LineString",
        "coordinates": [
          [
            10.864724,
            48.3580976
          ],
          [
            10.8664848,
            48.3593128
          ],
          [
            10.8680308,
            48.3601354
          ],
          [
            10.8682092,
            48.3605794
          ],
          [
            10.8683157,
            48.3615716
          ],
          [
            10.8671318,
            48.3613968
          ],
          [
            10.8670506,
            48.3614708
          ],
          [
            10.8670185,
            48.3617758
          ],
          [
            10.8672604,
            48.3624166
          ],
          [
            10.8680289,
            48.3623692
          ]
        ]
      }
    }
  ]
}