{
  "type": "FeatureCollection",
  "crs": {
    "type": "name",
    "properties": {
      "name": "urn:ogc:def:crs:OGC:1.3:CRS84"
    }
  },
  "features": [
    {
      "type": "Feature",
      "properties": {
        "segment_id": 1,
        "start_stop": "Start",
        "end_stop": "3",
        "timestamps": [
          1080.0,
          1155.0,
          1230.0
        ]
      },
      "geometry": {
        "type": "LineString",
        "coordinates": [
          [
            10.880536,
            48.3854347
          ],
          [
            10.8805494,
            48.3856625
          ],
          [
            10.8797384,
            48.3857436
          ]
        ]
      }
    },
    {
      "type": "Feature",
      "properties": {
        "segment_id": 2,
        "start_stop": "3",
        "end_stop": "5",
        "timestamps": [
          1230.0,
          1267.5,
          1305.0,
          1342.5,
          1380.0
        ]
      },
      "geometry": {
        "type": "LineString",
        "coordinates": [
          [
            10.8797384,
            48.3857436
          ],
          [
            10.878743,
            48.3860638
          ],
          [
            10.8781457,
            48.3869056
          ],
          [
            10.8765165,
            48.3861109
          ],
          [
            10.8759345,
            48.3860066
          ]
        ]
      }
    },
    {
      "type": "Feature",
      "properties": {
        "segment_id": 3,
        "start_stop": "5",
        "end_stop": "0",
        "timestamps": [
          1380.0,
          1396.6667,
          1413.3333,
          1430.0,
          1446.6667,
          1463.3333,
          1480.0,
          1496.6667,
          1513.3333,
          1530.0
        ]
      },
      "geometry": {
        "type": "LineString",
        "coordinates": [
          [
            10.8759345,
            48.3860066
          ],
          [
            10.8753496,
            48.3860349
          ],
          [
            10.8746781,
            48.3861827
          ],
          [
            10.8743329,
            48.386298
          ],
          [
            10.8741513,
            48.3864667
          ],
          [
            10.8740157,
            48.3867597
          ],
          [
            10.8742068,
            48.3873405
          ],
          [
            10.8741075,
            48.3878595
          ],
          [
            10.8741896,
            48.3880469
          ],
          [
            10.8732728,
            48.3887574
          ]
        ]
      }
    },
    {
      "type": "Feature",
      "properties": {
        "segment_id": 4,
        "start_stop": "0",
        "end_stop": "7",
        "timestamps": [
          1530.0,
          1605.0,
          1680.0
        ]
      },
      "geometry": {
        "type": "LineString",
        "coordinates": [
          [
            10.8732728,
            48.3887574
          ],
          [
            10.8704372,
            48.3896183
          ],
          [
            10.867667,
            48.389879
          ]
        ]
      }
    },
    {
      "type": "Feature",
      "properties": {
        "segment_id": 5,
        "start_stop": "7",
        "end_stop": "15",
        "timestamps": [
          1680.0,
          1755.0,
          1830.0
        ]
      },
      "geometry": {
        "type": "LineString",
        "coordinates": [
          [
            10.867667,
            48.389879
          ],
          [
            10.8669123,
            48.3899262
          ],
          [
            10.8643218,
            48.3903426
          ]
        ]
      }
    },
    {
      "type": "Feature",
      "properties": {
        "segment_id": 6,
        "start_stop": "15",
        "end_stop": "8",
        "timestamps": [
          1830.0,
          1905.0,
          1980.0
        ]
      },
      "geometry": {
        "type": "LineString",
        "coordinates": [
          [
            10.8643218,
            48.3903426
          ],
          [
            10.8610588,
            48.3909559
          ],
          [
            10.8569736,
            48.3914651
          ]
        ]
      }
    },
    {
      "type": "Feature",
      "properties": {
        "segment_id": 7,
        "start_stop": "8",
        "end_stop": "9",
        "timestamps": [
          1980.0,
          2010.0,
          2040.0,
          2070.0,
          2100.0,
          2130.0
        ]
      },
      "geometry": {
        "type": "LineString",
        "coordinates": [
          [
            10.8569736,
            48.3914651
          ],
          [
            10.8556793,
            48.3916281
          ],
          [
            10.856553,
            48.3936507
          ],
          [
            10.8565793,
            48.3939265
          ],
          [
            10.857261,
            48.3949822
          ],
          [
            10.857833,
            48.39561
          ]
        ]
      }
    },
    {
      "type": "Feature",
      "properties": {
        "segment_id": 8,
        "start_stop": "9",
        "end_stop": "10",
        "timestamps": [
          2130.0,
          2205.0,
          2280.0
        ]
      },
      "geometry": {
        "type": "LineString",
        "coordinates": [
          [
            10.857833,
            48.39561
          ],
          [
            10.8590533,
            48.3965505
          ],
          [
            10.858453,
            48.3970249
          ]
        ]
      }
    },
    {
      "type": "Feature",
      "properties": {
        "segment_id": 9,
        "start_stop": "10",
        "end_stop": "6",
        "timestamps": [
          2280.0,
          2310.0,
          2340.0,
          2370.0,
          2400.0,
          2430.0
        ]
      },
      "geometry": {
        "type": "LineString",
        "coordinates": [
          [
            10.858453,
            48.3970249
          ],
          [
            10.858309,
            48.3971657
          ],
          [
            10.8583849,
            48.3972821
          ],
          [
            10.8582255,
            48.3973028
          ],
          [
            10.8577941,
            48.3975915
          ],
          [
            10.8550093,
            48.3996518
          ]
        ]
      }
    },
    {
      "type": "Feature",
      "properties": {
        "segment_id": 10,
        "start_stop": "6",
        "end_stop": "11",
        "timestamps": [
          2430.0,
          2460.0,
          2490.0,
          2520.0,
          2550.0,
          2580.0
        ]
      },
      "geometry": {
        "type": "LineString",
        "coordinates": [
          [
            10.8550093,
            48.3996518
          ],
          [
            10.8543866,
            48.4002543
          ],
          [
            10.8530759,
            48.4022931
          ],
          [
            10.8526757,
            48.4027439
          ],
          [
            10.8517343,
            48.4035341
          ],
          [
            10.8512316,
            48.4032726
          ]
        ]
      }
    },
    {
      "type": "Feature",
      "properties": {
        "segment_id": 11,
        "start_stop": "11",
        "end_stop": "12",
        "timestamps": [
          2580.0,
          2655.0,
          2730.0
        ]
      },
      "geometry": {
        "type": "LineString",
        "coordinates": [
          [
            10.8512316,
            48.4032726
          ],
          [
            10.8494497,
            48.402288
          ],
          [
            10.8487649,
            48.4017603
          ]
        ]
      }
    },
    {
      "type": "Feature",
      "properties": {
        "segment_id": 12,
        "start_stop": "12",
        "end_stop": "13",
        "timestamps": [
          2730.0,
          2780.0,
          2830.0,
          2880.0
        ]
      },
      "geometry": {
        "type": "LineString",
        "coordinates": [
          [
            10.8487649,
            48.4017603
          ],
          [
            10.8482456,
            48.4011453
          ],
          [
            10.8479231,
            48.4004777
          ],
          [
            10.8475167,
            48.3979823
          ]
        ]
      }
    },
    {
      "type": "Feature",
      "properties": {
        "segment_id": 13,
        "start_stop": "13",
        "end_stop": "2",
        "timestamps": [
          2880.0,
          2955.0,
          3030.0
        ]
      },
      "geometry": {
        "type": "LineString",
        "coordinates": [
          [
            10.8475167,
            48.3979823
          ],
          [
            10.8474317,
            48.3974153
          ],
          [
            10.8474322,
            48.3947956
          ]
        ]
      }
    },
    {
      "type": "Feature",
      "properties": {
        "segment_id": 14,
        "start_stop": "2",
        "end_stop": "14",
        "timestamps": [
          3030.0,
          3105.0,
          3180.0
        ]
      },
      "geometry": {
        "type": "LineString",
        "coordinates": [
          [
            10.8474322,
            48.3947956
          ],
          [
            10.8474376,
            48.3945731
          ],
          [
            10.8479093,
            48.3945742
          ]
        ]
      }
    },
    {
      "type": "Feature",
      "properties": {
        "segment_id": 15,
        "start_stop": "14",
        "end_stop": "4",
        "timestamps": [
          3180.0,
          3217.5,
          3255.0,
          3292.5,
          3330.0
        ]
      },
      "geometry": {
        "type": "LineString",
        "coordinates": [
          [
            10.8479093,
            48.3945742
          ],
          [
            10.8497467,
            48.3945784
          ],
          [
            10.84964,
            48.393837
          ],
          [
            10.8492254,
            48.3930961
          ],
          [
            10.8487805,
            48.3932452
          ]
        ]
      }
    },
    {
      "type": "Feature",
      "properties": {
        "segment_id": 16,
        "start_stop": "4",
        "end_stop": "End",
        "timestamps": [
          3330.0,
          3405.0,
          3480.0
        ]
      },
      "geometry": {
        "type": "LineString",
        "coordinates": [
          [
            10.8487805,
            48.3932452
          ],
          [
            10.8473782,
            48.393793
          ],
          [
            10.8474376,
            48.3945731
          ]
        ]
      }
    }
  ]
}