{
  "type": "FeatureCollection",
  "crs": {
    "type": "name",
    "properties": {
      "name": "urn:ogc:def:crs:OGC:1.3:CRS84"
    }
  },
  "features": [
    {
      "type": "Feature",
      "properties": {
        "segment_id": 1,
        "start_stop": "Start",
        "end_stop": "30",
        "bus": "94",
        "timestamps": [
          1800.0,
          1806.0,
          1812.0,
          1818.0,
          1824.0,
          1830.0
        ]
      },
      "geometry": {
        "type": "LineString",
        "coordinates": [
          [
            10.8941732,
            48.2960603
          ],
          [
            10.8959064,
            48.2957225
          ],
          [
            10.8969575,
            48.2956024
          ],
          [
            10.8974583,
            48.2956252
          ],
          [
            10.8978624,
            48.2959432
          ],
          [
            10.8985565,
            48.2972306
          ]
        ]
      }
    },
    {
      "type": "Feature",
      "properties": {
        "segment_id": 2,
        "start_stop": "30",
        "end_stop": "31",
        "bus": "94",
        "timestamps": [
          1860.0,
          1866.0,
          1872.0,
          1878.0,
          1884.0,
          1890.0
        ]
      },
      "geometry": {
        "type": "LineString",
        "coordinates": [
          [
            10.8985565,
            48.2972306
          ],
          [
            10.8988868,
            48.2979468
          ],
          [
            10.8992159,
            48.2981532
          ],
          [
            10.9008481,
            48.2980855
          ],
          [
            10.9016703,
            48.2982025
          ],
          [
            10.9031762,
            48.2980796
          ]
        ]
      }
    },
    {
      "type": "Feature",
      "properties": {
        "segment_id": 3,
        "start_stop": "31",
        "end_stop": "32",
        "bus": "94",
        "timestamps": [
          1920.0,
          1930.0,
          1940.0,
          1950.0
        ]
      },
      "geometry": {
        "type": "LineString",
        "coordinates": [
          [
            10.9031762,
            48.2980796
          ],
          [
            10.9042957,
            48.2980061
          ],
          [
            10.9045265,
            48.2980718
          ],
          [
            10.9056635,
            48.3002047
          ]
        ]
      }
    },
    {
      "type": "Feature",
      "properties": {
        "segment_id": 4,
        "start_stop": "32",
        "end_stop": "33",
        "bus": "94",
        "timestamps": [
          1980.0,
          1987.5,
          1995.0,
          2002.5,
          2010.0
        ]
      },
      "geometry": {
        "type": "LineString",
        "coordinates": [
          [
            10.9056635,
            48.3002047
          ],
          [
            10.9062271,
            48.3010672
          ],
          [
            10.9067614,
            48.302237
          ],
          [
            10.908229,
            48.3040136
          ],
          [
            10.9084003,
            48.304379
          ]
        ]
      }
    },
    {
      "type": "Feature",
      "properties": {
        "segment_id": 5,
        "start_stop": "33",
        "end_stop": "34",
        "bus": "94",
        "timestamps": [
          2040.0,
          2047.5,
          2055.0,
          2062.5,
          2070.0
        ]
      },
      "geometry": {
        "type": "LineString",
        "coordinates": [
          [
            10.9084003,
            48.304379
          ],
          [
            10.9085011,
            48.3047875
          ],
          [
            10.9091192,
            48.3056546
          ],
          [
            10.9102032,
            48.3080158
          ],
          [
            10.9101607,
            48.3085464
          ]
        ]
      }
    },
    {
      "type": "Feature",
      "properties": {
        "segment_id": 6,
        "start_stop": "34",
        "end_stop": "35",
        "bus": "94",
        "timestamps": [
          2100.0,
          2105.0,
          2110.0,
          2115.0,
          2120.0,
          2125.0,
          2130.0
        ]
      },
      "geometry": {
        "type": "LineString",
        "coordinates": [
          [
            10.9101607,
            48.3085464
          ],
          [
            10.9099908,
            48.3091526
          ],
          [
            10.9104912,
            48.3101728
          ],
          [
            10.9106185,
            48.3107051
          ],
          [
            10.911152,
            48.3120137
          ],
          [
            10.9106982,
            48.3129182
          ],
          [
            10.9105945,
            48.3133722
          ]
        ]
      }
    },
    {
      "type": "Feature",
      "properties": {
        "segment_id": 7,
        "start_stop": "35",
        "end_stop": "1",
        "bus": "94",
        "timestamps": [
          2160.0,
          2166.0,
          2172.0,
          2178.0,
          2184.0,
          2190.0
        ]
      },
      "geometry": {
        "type": "LineString",
        "coordinates": [
          [
            10.9105945,
            48.3133722
          ],
          [
            10.9102826,
            48.3156371
          ],
          [
            10.9096163,
            48.3172617
          ],
          [
            10.907403,
            48.3172659
          ],
          [
            10.9071306,
            48.3193996
          ],
          [
            10.90855,
            48.3194936
          ]
        ]
      }
    },
    {
      "type": "Feature",
      "properties": {
        "segment_id": 8,
        "start_stop": "1",
        "end_stop": "11",
        "bus": "94",
        "timestamps": [
          2220.0,
          2235.0,
          2250.0
        ]
      },
      "geometry": {
        "type": "LineString",
        "coordinates": [
          [
            10.90855,
            48.3194936
          ],
          [
            10.9090421,
            48.3195106
          ],
          [
            10.9088194,
            48.3218794
          ]
        ]
      }
    },
    {
      "type": "Feature",
      "properties": {
        "segment_id": 9,
        "start_stop": "11",
        "end_stop": "12",
        "bus": "94",
        "timestamps": [
          2280.0,
          2310.0
        ]
      },
      "geometry": {
        "type": "LineString",
        "coordinates": [
          [
            10.9088194,
            48.3218794
          ],
          [
            10.9086533,
            48.3240607
          ]
        ]
      }
    },
    {
      "type": "Feature",
      "properties": {
        "segment_id": 10,
        "start_stop": "12",
        "end_stop": "13",
        "bus": "94",
        "timestamps": [
          2340.0,
          2370.0
        ]
      },
      "geometry": {
        "type": "LineString",
        "coordinates": [
          [
            10.9086533,
            48.3240607
          ],
          [
            10.9083741,
            48.3272948
          ]
        ]
      }
    },
    {
      "type": "Feature",
      "properties": {
        "segment_id": 11,
        "start_stop": "13",
        "end_stop": "39",
        "bus": "94",
        "timestamps": [
          2400.0,
          2430.0
        ]
      },
      "geometry": {
        "type": "LineString",
        "coordinates": [
          [
            10.9083741,
            48.3272948
          ],
          [
            10.9078924,
            48.3341349
          ]
        ]
      }
    },
    {
      "type": "Feature",
      "properties": {
        "segment_id": 12,
        "start_stop": "39",
        "end_stop": "10",
        "bus": "94",
        "timestamps": [
          2460.0,
          2465.0,
          2470.0,
          2475.0,
          2480.0,
          2485.0,
          2490.0
        ]
      },
      "geometry": {
        "type": "LineString",
        "coordinates": [
          [
            10.9078924,
            48.3341349
          ],
          [
            10.9077694,
            48.3355331
          ],
          [
            10.9079249,
            48.3365656
          ],
          [
            10.9078314,
            48.3376823
          ],
          [
            10.9075202,
            48.3385529
          ],
          [
            10.9071227,
            48.3392933
          ],
          [
            10.906651,
            48.3408885
          ]
        ]
      }
    },
    {
      "type": "Feature",
      "properties": {
        "segment_id": 13,
        "start_stop": "10",
        "end_stop": "17",
        "bus": "94",
        "timestamps": [
          2520.0,
          2535.0,
          2550.0
        ]
      },
      "geometry": {
        "type": "LineString",
        "coordinates": [
          [
            10.906651,
            48.3408885
          ],
          [
            10.9050333,
            48.3460333
          ],
          [
            10.9041628,
            48.3485053
          ]
        ]
      }
    },
    {
      "type": "Feature",
      "properties": {
        "segment_id": 14,
        "start_stop": "17",
        "end_stop": "42",
        "bus": "94",
        "timestamps": [
          2580.0,
          2585.0,
          2590.0,
          2595.0,
          2600.0,
          2605.0,
          2610.0
        ]
      },
      "geometry": {
        "type": "LineString",
        "coordinates": [
          [
            10.9041628,
            48.3485053
          ],
          [
            10.9040469,
            48.348929
          ],
          [
            10.9033541,
            48.350314
          ],
          [
            10.90335,
            48.3505107
          ],
          [
            10.9034633,
            48.3507678
          ],
          [
            10.9030361,
            48.3510488
          ],
          [
            10.9025362,
            48.3519392
          ]
        ]
      }
    },
    {
      "type": "Feature",
      "properties": {
        "segment_id": 15,
        "start_stop": "42",
        "end_stop": "2",
        "bus": "94",
        "timestamps": [
          2640.0,
          2650.0,
          2660.0,
          2670.0
        ]
      },
      "geometry": {
        "type": "LineString",
        "coordinates": [
          [
            10.9025362,
            48.3519392
          ],
          [
            10.902072,
            48.3531086
          ],
          [
            10.9020532,
            48.3539991
          ],
          [
            10.9021739,
            48.3551678
          ]
        ]
      }
    },
    {
      "type": "Feature",
      "properties": {
        "segment_id": 16,
        "start_stop": "2",
        "end_stop": "18",
        "bus": "94",
        "timestamps": [
          2700.0,
          2704.2857,
          2708.5714,
          2712.8571,
          2717.1429,
          2721.4286,
          2725.7143,
          2730.0
        ]
      },
      "geometry": {
        "type": "LineString",
        "coordinates": [
          [
            10.9021739,
            48.3551678
          ],
          [
            10.902288,
            48.3577587
          ],
          [
            10.9042682,
            48.3578541
          ],
          [
            10.9042657,
            48.3579651
          ],
          [
            10.9042109,
            48.358396
          ],
          [
            10.9035815,
            48.3584353
          ],
          [
            10.9023846,
            48.3586788
          ],
          [
            10.9020802,
            48.359307
          ]
        ]
      }
    },
    {
      "type": "Feature",
      "properties": {
        "segment_id": 17,
        "start_stop": "18",
        "end_stop": "25",
        "bus": "94",
        "timestamps": [
          2760.0,
          2766.0,
          2772.0,
          2778.0,
          2784.0,
          2790.0
        ]
      },
      "geometry": {
        "type": "LineString",
        "coordinates": [
          [
            10.9020802,
            48.359307
          ],
          [
            10.9019036,
            48.3595923
          ],
          [
            10.9000472,
            48.3595383
          ],
          [
            10.8983793,
            48.3596944
          ],
          [
            10.8979621,
            48.3597975
          ],
          [
            10.8973794,
            48.360685
          ]
        ]
      }
    },
    {
      "type": "Feature",
      "properties": {
        "segment_id": 18,
        "start_stop": "25",
        "end_stop": "16",
        "bus": "94",
        "timestamps": [
          2820.0,
          2850.0
        ]
      },
      "geometry": {
        "type": "LineString",
        "coordinates": [
          [
            10.8973794,
            48.360685
          ],
          [
            10.8945895,
            48.3657248
          ]
        ]
      }
    },
    {
      "type": "Feature",
      "properties": {
        "segment_id": 19,
        "start_stop": "16",
        "end_stop": "26",
        "bus": "94",
        "timestamps": [
          2880.0,
          2886.0,
          2892.0,
          2898.0,
          2904.0,
          2910.0
        ]
      },
      "geometry": {
        "type": "LineString",
        "coordinates": [
          [
            10.8945895,
            48.3657248
          ],
          [
            10.8945156,
            48.3660132
          ],
          [
            10.8946538,
            48.366358
          ],
          [
            10.8948051,
            48.3664533
          ],
          [
            10.8958507,
            48.3665596
          ],
          [
            10.8979871,
            48.3671896
          ]
        ]
      }
    },
    {
      "type": "Feature",
      "properties": {
        "segment_id": 20,
        "start_stop": "26",
        "end_stop": "5",
        "bus": "94",
        "timestamps": [
          2940.0,
          2943.75,
          2947.5,
          2951.25,
          2955.0,
          2958.75,
          2962.5,
          2966.25,
          2970.0
        ]
      },
      "geometry": {
        "type": "LineString",
        "coordinates": [
          [
            10.8979871,
            48.3671896
          ],
          [
            10.8982788,
            48.3672563
          ],
          [
            10.8986056,
            48.3670083
          ],
          [
            10.8991437,
            48.3659947
          ],
          [
            10.8994201,
            48.3653154
          ],
          [
            10.8994099,
            48.3650799
          ],
          [
            10.8996113,
            48.364825
          ],
          [
            10.9000951,
            48.3633683
          ],
          [
            10.9002309,
            48.3625343
          ]
        ]
      }
    },
    {
      "type": "Feature",
      "properties": {
        "segment_id": 21,
        "start_stop": "5",
        "end_stop": "41",
        "bus": "94",
        "timestamps": [
          3000.0,
          3007.5,
          3015.0,
          3022.5,
          3030.0
        ]
      },
      "geometry": {
        "type": "LineString",
        "coordinates": [
          [
            10.9002309,
            48.3625343
          ],
          [
            10.90038,
            48.362254
          ],
          [
            10.9012625,
            48.3619627
          ],
          [
            10.9025164,
            48.3619384
          ],
          [
            10.9036655,
            48.3621199
          ]
        ]
      }
    },
    {
      "type": "Feature",
      "properties": {
        "segment_id": 22,
        "start_stop": "41",
        "end_stop": "43",
        "bus": "94",
        "timestamps": [
          3060.0,
          3064.2857,
          3068.5714,
          3072.8571,
          3077.1429,
          3081.4286,
          3085.7143,
          3090.0
        ]
      },
      "geometry": {
        "type": "LineString",
        "coordinates": [
          [
            10.9036655,
            48.3621199
          ],
          [
            10.9047953,
            48.3621494
          ],
          [
            10.9046866,
            48.361341
          ],
          [
            10.9049208,
            48.3611724
          ],
          [
            10.9054772,
            48.3610084
          ],
          [
            10.9070646,
            48.3608931
          ],
          [
            10.9081232,
            48.3609098
          ],
          [
            10.9093729,
            48.361046
          ]
        ]
      }
    },
    {
      "type": "Feature",
      "properties": {
        "segment_id": 23,
        "start_stop": "43",
        "end_stop": "40",
        "bus": "94",
        "timestamps": [
          3120.0,
          3127.5,
          3135.0,
          3142.5,
          3150.0
        ]
      },
      "geometry": {
        "type": "LineString",
        "coordinates": [
          [
            10.9093729,
            48.361046
          ],
          [
            10.9107247,
            48.3612305
          ],
          [
            10.9131713,
            48.3611159
          ],
          [
            10.913385,
            48.3610299
          ],
          [
            10.9139437,
            48.3610002
          ]
        ]
      }
    },
    {
      "type": "Feature",
      "properties": {
        "segment_id": 24,
        "start_stop": "40",
        "end_stop": "15",
        "bus": "94",
        "timestamps": [
          3180.0,
          3186.0,
          3192.0,
          3198.0,
          3204.0,
          3210.0
        ]
      },
      "geometry": {
        "type": "LineString",
        "coordinates": [
          [
            10.9139437,
            48.3610002
          ],
          [
            10.9142906,
            48.361053
          ],
          [
            10.9156119,
            48.3609201
          ],
          [
            10.9157826,
            48.3610428
          ],
          [
            10.9159229,
            48.362045
          ],
          [
            10.9167793,
            48.3619986
          ]
        ]
      }
    },
    {
      "type": "Feature",
      "properties": {
        "segment_id": 25,
        "start_stop": "15",
        "end_stop": "38",
        "bus": "94",
        "timestamps": [
          3240.0,
          3255.0,
          3270.0
        ]
      },
      "geometry": {
        "type": "LineString",
        "coordinates": [
          [
            10.9167793,
            48.3619986
          ],
          [
            10.9206622,
            48.3618368
          ],
          [
            10.9220647,
            48.3620092
          ]
        ]
      }
    },
    {
      "type": "Feature",
      "properties": {
        "segment_id": 26,
        "start_stop": "38",
        "end_stop": "14",
        "bus": "94",
        "timestamps": [
          3300.0,
          3307.5,
          3315.0,
          3322.5,
          3330.0
        ]
      },
      "geometry": {
        "type": "LineString",
        "coordinates": [
          [
            10.9220647,
            48.3620092
          ],
          [
            10.9276464,
            48.363186
          ],
          [
            10.927793,
            48.3632009
          ],
          [
            10.9279083,
            48.363115
          ],
          [
            10.9280637,
            48.3627351
          ]
        ]
      }
    },
    {
      "type": "Feature",
      "properties": {
        "segment_id": 27,
        "start_stop": "14",
        "end_stop": "37",
        "bus": "94",
        "timestamps": [
          3360.0,
          3367.5,
          3375.0,
          3382.5,
          3390.0
        ]
      },
      "geometry": {
        "type": "LineString",
        "coordinates": [
          [
            10.9280637,
            48.3627351
          ],
          [
            10.9290713,
            48.3613003
          ],
          [
            10.9295637,
            48.3604421
          ],
          [
            10.9297695,
            48.3599347
          ],
          [
            10.9299376,
            48.3590044
          ]
        ]
      }
    },
    {
      "type": "Feature",
      "properties": {
        "segment_id": 28,
        "start_stop": "37",
        "end_stop": "36",
        "bus": "94",
        "timestamps": [
          3420.0,
          3424.2857,
          3428.5714,
          3432.8571,
          3437.1429,
          3441.4286,
          3445.7143,
          3450.0
        ]
      },
      "geometry": {
        "type": "LineString",
        "coordinates": [
          [
            10.9299376,
            48.3590044
          ],
          [
            10.9299765,
            48.3573079
          ],
          [
            10.9289224,
            48.357179
          ],
          [
            10.9269652,
            48.3572244
          ],
          [
            10.926609,
            48.3570568
          ],
          [
            10.9265649,
            48.3569995
          ],
          [
            10.9269121,
            48.3563992
          ],
          [
            10.9271029,
            48.355803
          ]
        ]
      }
    },
    {
      "type": "Feature",
      "properties": {
        "segment_id": 29,
        "start_stop": "36",
        "end_stop": "27",
        "bus": "94",
        "timestamps": [
          3480.0,
          3487.5,
          3495.0,
          3502.5,
          3510.0
        ]
      },
      "geometry": {
        "type": "LineString",
        "coordinates": [
          [
            10.9271029,
            48.355803
          ],
          [
            10.9273142,
            48.3551257
          ],
          [
            10.9320564,
            48.3551054
          ],
          [
            10.9323263,
            48.3551866
          ],
          [
            10.9328739,
            48.3551985
          ]
        ]
      }
    },
    {
      "type": "Feature",
      "properties": {
        "segment_id": 30,
        "start_stop": "27",
        "end_stop": "28",
        "bus": "94",
        "timestamps": [
          3540.0,
          3550.0,
          3560.0,
          3570.0
        ]
      },
      "geometry": {
        "type": "LineString",
        "coordinates": [
          [
            10.9328739,
            48.3551985
          ],
          [
            10.9331464,
            48.3551248
          ],
          [
            10.9351141,
            48.3550665
          ],
          [
            10.9382602,
            48.3551267
          ]
        ]
      }
    },
    {
      "type": "Feature",
      "properties": {
        "segment_id": 31,
        "start_stop": "28",
        "end_stop": "6",
        "bus": "94",
        "timestamps": [
          3600.0,
          3615.0,
          3630.0
        ]
      },
      "geometry": {
        "type": "LineString",
        "coordinates": [
          [
            10.9382602,
            48.3551267
          ],
          [
            10.9424382,
            48.3548909
          ],
          [
            10.9454751,
            48.3550587
          ]
        ]
      }
    },
    {
      "type": "Feature",
      "properties": {
        "segment_id": 32,
        "start_stop": "6",
        "end_stop": "29",
        "bus": "94",
        "timestamps": [
          3660.0,
          3670.0,
          3680.0,
          3690.0
        ]
      },
      "geometry": {
        "type": "LineString",
        "coordinates": [
          [
            10.9454751,
            48.3550587
          ],
          [
            10.9482846,
            48.3552108
          ],
          [
            10.9493096,
            48.3551838
          ],
          [
            10.9509834,
            48.3553437
          ]
        ]
      }
    },
    {
      "type": "Feature",
      "properties": {
        "segment_id": 33,
        "start_stop": "29",
        "end_stop": "7",
        "bus": "94",
        "timestamps": [
          3720.0,
          3727.5,
          3735.0,
          3742.5,
          3750.0
        ]
      },
      "geometry": {
        "type": "LineString",
        "coordinates": [
          [
            10.9509834,
            48.3553437
          ],
          [
            10.9519567,
            48.3554341
          ],
          [
            10.9519796,
            48.3553518
          ],
          [
            10.9548539,
            48.3556882
          ],
          [
            10.9571469,
            48.3557677
          ]
        ]
      }
    },
    {
      "type": "Feature",
      "properties": {
        "segment_id": 34,
        "start_stop": "7",
        "end_stop": "44",
        "bus": "94",
        "timestamps": [
          3780.0,
          3790.0,
          3800.0,
          3810.0
        ]
      },
      "geometry": {
        "type": "LineString",
        "coordinates": [
          [
            10.9571469,
            48.3557677
          ],
          [
            10.9574362,
            48.3556837
          ],
          [
            10.9603654,
            48.355685
          ],
          [
            10.9646034,
            48.355866
          ]
        ]
      }
    },
    {
      "type": "Feature",
      "properties": {
        "segment_id": 35,
        "start_stop": "44",
        "end_stop": "23",
        "bus": "94",
        "timestamps": [
          3840.0,
          3846.0,
          3852.0,
          3858.0,
          3864.0,
          3870.0
        ]
      },
      "geometry": {
        "type": "LineString",
        "coordinates": [
          [
            10.9646034,
            48.355866
          ],
          [
            10.966434,
            48.356073
          ],
          [
            10.9690968,
            48.3567025
          ],
          [
            10.9692373,
            48.3565421
          ],
          [
            10.9697529,
            48.3564477
          ],
          [
            10.9714653,
            48.3563234
          ]
        ]
      }
    },
    {
      "type": "Feature",
      "properties": {
        "segment_id": 36,
        "start_stop": "23",
        "end_stop": "9",
        "bus": "94",
        "timestamps": [
          3900.0,
          3902.5,
          3905.0,
          3907.5,
          3910.0,
          3912.5,
          3915.0,
          3917.5,
          3920.0,
          3922.5,
          3925.0,
          3927.5,
          3930.0
        ]
      },
      "geometry": {
        "type": "LineString",
        "coordinates": [
          [
            10.9714653,
            48.3563234
          ],
          [
            10.9729825,
            48.3563078
          ],
          [
            10.9732924,
            48.3561829
          ],
          [
            10.9736568,
            48.3563526
          ],
          [
            10.9742973,
            48.3564293
          ],
          [
            10.9757694,
            48.3568053
          ],
          [
            10.9762876,
            48.3568439
          ],
          [
            10.9765472,
            48.3566851
          ],
          [
            10.9766845,
            48.3557316
          ],
          [
            10.9769667,
            48.355087
          ],
          [
            10.9772494,
            48.3549821
          ],
          [
            10.9787108,
            48.3550832
          ],
          [
            10.9789231,
            48.354875
          ]
        ]
      }
    },
    {
      "type": "Feature",
      "properties": {
        "segment_id": 37,
        "start_stop": "9",
        "end_stop": "22",
        "bus": "94",
        "timestamps": [
          3960.0,
          3966.0,
          3972.0,
          3978.0,
          3984.0,
          3990.0
        ]
      },
      "geometry": {
        "type": "LineString",
        "coordinates": [
          [
            10.9789231,
            48.354875
          ],
          [
            10.9791156,
            48.3547945
          ],
          [
            10.9810681,
            48.3550538
          ],
          [
            10.9818951,
            48.3555026
          ],
          [
            10.9825847,
            48.3554686
          ],
          [
            10.9838018,
            48.3556183
          ]
        ]
      }
    },
    {
      "type": "Feature",
      "properties": {
        "segment_id": 38,
        "start_stop": "22",
        "end_stop": "8",
        "bus": "94",
        "timestamps": [
          4020.0,
          4035.0,
          4050.0
        ]
      },
      "geometry": {
        "type": "LineString",
        "coordinates": [
          [
            10.9838018,
            48.3556183
          ],
          [
            10.9842156,
            48.3556548
          ],
          [
            10.9842121,
            48.3564297
          ]
        ]
      }
    },
    {
      "type": "Feature",
      "properties": {
        "segment_id": 39,
        "start_stop": "8",
        "end_stop": "0",
        "bus": "94",
        "timestamps": [
          4080.0,
          4086.0,
          4092.0,
          4098.0,
          4104.0,
          4110.0
        ]
      },
      "geometry": {
        "type": "LineString",
        "coordinates": [
          [
            10.9842121,
            48.3564297
          ],
          [
            10.9841671,
            48.3571731
          ],
          [
            10.9843616,
            48.3575824
          ],
          [
            10.9847185,
            48.3579091
          ],
          [
            10.9859195,
            48.358528
          ],
          [
            10.9869091,
            48.3595972
          ]
        ]
      }
    },
    {
      "type": "Feature",
      "properties": {
        "segment_id": 40,
        "start_stop": "0",
        "end_stop": "21",
        "bus": "94",
        "timestamps": [
          4140.0,
          4150.0,
          4160.0,
          4170.0
        ]
      },
      "geometry": {
        "type": "LineString",
        "coordinates": [
          [
            10.9869091,
            48.3595972
          ],
          [
            10.9872306,
            48.3600787
          ],
          [
            10.9873157,
            48.3604751
          ],
          [
            10.9900254,
            48.3609088
          ]
        ]
      }
    },
    {
      "type": "Feature",
      "properties": {
        "segment_id": 41,
        "start_stop": "21",
        "end_stop": "20",
        "bus": "94",
        "timestamps": [
          4200.0,
          4207.5,
          4215.0,
          4222.5,
          4230.0
        ]
      },
      "geometry": {
        "type": "LineString",
        "coordinates": [
          [
            10.9900254,
            48.3609088
          ],
          [
            10.9931172,
            48.36141
          ],
          [
            10.9940319,
            48.3616536
          ],
          [
            10.9948951,
            48.3620279
          ],
          [
            10.9946995,
            48.3622941
          ]
        ]
      }
    },
    {
      "type": "Feature",
      "properties": {
        "segment_id": 42,
        "start_stop": "20",
        "end_stop": "19",
        "bus": "94",
        "timestamps": [
          4260.0,
          4270.0,
          4280.0,
          4290.0
        ]
      },
      "geometry": {
        "type": "LineString",
        "coordinates": [
          [
            10.9946995,
            48.3622941
          ],
          [
            10.9938923,
            48.3632084
          ],
          [
            10.9934988,
            48.3639134
          ],
          [
            10.9935812,
            48.3656389
          ]
        ]
      }
    },
    {
      "type": "Feature",
      "properties": {
        "segment_id": 43,
        "start_stop": "19",
        "end_stop": "24",
        "bus": "94",
        "timestamps": [
          4320.0,
          4335.0,
          4350.0
        ]
      },
      "geometry": {
        "type": "LineString",
        "coordinates": [
          [
            10.9935812,
            48.3656389
          ],
          [
            10.9932202,
            48.3662787
          ],
          [
            10.9914609,
            48.3656451
          ]
        ]
      }
    },
    {
      "type": "Feature",
      "properties": {
        "segment_id": 44,
        "start_stop": "24",
        "end_stop": "End",
        "bus": "94",
        "timestamps": [
          4380.0,
          4385.0,
          4390.0,
          4395.0,
          4400.0,
          4405.0,
          4410.0
        ]
      },
      "geometry": {
        "type": "LineString",
        "coordinates": [
          [
            10.9914609,
            48.3656451
          ],
          [
            10.9909361,
            48.3654171
          ],
          [
            10.9908388,
            48.3654884
          ],
          [
            10.9901991,
            48.3663426
          ],
          [
            10.9899329,
            48.3674024
          ],
          [
            10.9877419,
            48.3673399
          ],
          [
            10.9878787,
            48.3667308
          ]
        ]
      }
    }
  ]
}