{
  "type": "FeatureCollection",
  "crs": {
    "type": "name",
    "properties": {
      "name": "urn:ogc:def:crs:OGC:1.3:CRS84"
    }
  },
  "features": [
    {
      "type": "Feature",
      "properties": {
        "segment_id": 1,
        "start_stop": "Start",
        "end_stop": "32",
        "bus": "90",
        "timestamps": [
          1800.0,
          1920.0
        ]
      },
      "geometry": {
        "type": "LineString",
        "coordinates": [
          [
            10.8545088,
            48.3372236
          ],
          [
            10.8547326,
            48.3370304
          ]
        ]
      }
    },
    {
      "type": "Feature",
      "properties": {
        "segment_id": 2,
        "start_stop": "32",
        "end_stop": "32",
        "bus": "90",
        "timestamps": [
          1920.0,
          2040.0
        ]
      },
      "geometry": {
        "type": "LineString",
        "coordinates": [
          [
            10.8547326,
            48.3370304
          ],
          [
            10.8561565,
            48.3371619
          ]
        ]
      }
    },
    {
      "type": "Feature",
      "properties": {
        "segment_id": 3,
        "start_stop": "32",
        "end_stop": "32",
        "bus": "90",
        "timestamps": [
          2040.0,
          2160.0
        ]
      },
      "geometry": {
        "type": "LineString",
        "coordinates": [
          [
            10.8561565,
            48.3371619
          ],
          [
            10.8562544,
            48.3371899
          ]
        ]
      }
    },
    {
      "type": "Feature",
      "properties": {
        "segment_id": 4,
        "start_stop": "32",
        "end_stop": "32",
        "bus": "90",
        "timestamps": [
          2160.0,
          2280.0
        ]
      },
      "geometry": {
        "type": "LineString",
        "coordinates": [
          [
            10.8562544,
            48.3371899
          ],
          [
            10.856635,
            48.3373052
          ]
        ]
      }
    },
    {
      "type": "Feature",
      "properties": {
        "segment_id": 5,
        "start_stop": "32",
        "end_stop": "32",
        "bus": "90",
        "timestamps": [
          2280.0,
          2400.0
        ]
      },
      "geometry": {
        "type": "LineString",
        "coordinates": [
          [
            10.856635,
            48.3373052
          ],
          [
            10.8569525,
            48.3374351
          ]
        ]
      }
    },
    {
      "type": "Feature",
      "properties": {
        "segment_id": 6,
        "start_stop": "32",
        "end_stop": "32",
        "bus": "90",
        "timestamps": [
          2400.0,
          2520.0
        ]
      },
      "geometry": {
        "type": "LineString",
        "coordinates": [
          [
            10.8569525,
            48.3374351
          ],
          [
            10.8570717,
            48.3374978
          ]
        ]
      }
    },
    {
      "type": "Feature",
      "properties": {
        "segment_id": 7,
        "start_stop": "32",
        "end_stop": "3",
        "bus": "90",
        "timestamps": [
          2520.0,
          2544.0,
          2568.0,
          2592.0,
          2616.0,
          2640.0
        ]
      },
      "geometry": {
        "type": "LineString",
        "coordinates": [
          [
            10.8570717,
            48.3374978
          ],
          [
            10.8595238,
            48.338856
          ],
          [
            10.8601935,
            48.3390685
          ],
          [
            10.8601087,
            48.3391341
          ],
          [
            10.8601705,
            48.3392405
          ],
          [
            10.863252,
            48.3409467
          ]
        ]
      }
    },
    {
      "type": "Feature",
      "properties": {
        "segment_id": 8,
        "start_stop": "3",
        "end_stop": "14",
        "bus": "90",
        "timestamps": [
          2640.0,
          2680.0,
          2720.0,
          2760.0
        ]
      },
      "geometry": {
        "type": "LineString",
        "coordinates": [
          [
            10.863252,
            48.3409467
          ],
          [
            10.8655308,
            48.3411509
          ],
          [
            10.866266,
            48.34133
          ],
          [
            10.8672968,
            48.3417686
          ]
        ]
      }
    },
    {
      "type": "Feature",
      "properties": {
        "segment_id": 9,
        "start_stop": "14",
        "end_stop": "45",
        "bus": "90",
        "timestamps": [
          2760.0,
          2773.3333,
          2786.6667,
          2800.0,
          2813.3333,
          2826.6667,
          2840.0,
          2853.3333,
          2866.6667,
          2880.0
        ]
      },
      "geometry": {
        "type": "LineString",
        "coordinates": [
          [
            10.8672968,
            48.3417686
          ],
          [
            10.8682146,
            48.3420992
          ],
          [
            10.8692789,
            48.3421068
          ],
          [
            10.8701419,
            48.3423356
          ],
          [
            10.8706489,
            48.3425931
          ],
          [
            10.8712454,
            48.3430682
          ],
          [
            10.8716462,
            48.3432537
          ],
          [
            10.8743379,
            48.3433586
          ],
          [
            10.8746373,
            48.343455
          ],
          [
            10.8747519,
            48.3436612
          ]
        ]
      }
    },
    {
      "type": "Feature",
      "properties": {
        "segment_id": 10,
        "start_stop": "45",
        "end_stop": "21",
        "bus": "90",
        "timestamps": [
          2880.0,
          2940.0,
          3000.0
        ]
      },
      "geometry": {
        "type": "LineString",
        "coordinates": [
          [
            10.8747519,
            48.3436612
          ],
          [
            10.8752677,
            48.3452175
          ],
          [
            10.8761301,
            48.3465477
          ]
        ]
      }
    },
    {
      "type": "Feature",
      "properties": {
        "segment_id": 11,
        "start_stop": "21",
        "end_stop": "31",
        "bus": "90",
        "timestamps": [
          3000.0,
          3060.0,
          3120.0
        ]
      },
      "geometry": {
        "type": "LineString",
        "coordinates": [
          [
            10.8761301,
            48.3465477
          ],
          [
            10.8773572,
            48.3490111
          ],
          [
            10.8781097,
            48.3499181
          ]
        ]
      }
    },
    {
      "type": "Feature",
      "properties": {
        "segment_id": 12,
        "start_stop": "31",
        "end_stop": "27",
        "bus": "90",
        "timestamps": [
          3120.0,
          3240.0
        ]
      },
      "geometry": {
        "type": "LineString",
        "coordinates": [
          [
            10.8781097,
            48.3499181
          ],
          [
            10.8807918,
            48.35299
          ]
        ]
      }
    },
    {
      "type": "Feature",
      "properties": {
        "segment_id": 13,
        "start_stop": "27",
        "end_stop": "42",
        "bus": "90",
        "timestamps": [
          3240.0,
          3264.0,
          3288.0,
          3312.0,
          3336.0,
          3360.0
        ]
      },
      "geometry": {
        "type": "LineString",
        "coordinates": [
          [
            10.8807918,
            48.35299
          ],
          [
            10.8811574,
            48.3533025
          ],
          [
            10.881575,
            48.3535042
          ],
          [
            10.8847548,
            48.3547183
          ],
          [
            10.8851898,
            48.3549907
          ],
          [
            10.8856173,
            48.3554466
          ]
        ]
      }
    },
    {
      "type": "Feature",
      "properties": {
        "segment_id": 14,
        "start_stop": "42",
        "end_stop": "26",
        "bus": "90",
        "timestamps": [
          3360.0,
          3480.0
        ]
      },
      "geometry": {
        "type": "LineString",
        "coordinates": [
          [
            10.8856173,
            48.3554466
          ],
          [
            10.8876711,
            48.3579417
          ]
        ]
      }
    },
    {
      "type": "Feature",
      "properties": {
        "segment_id": 15,
        "start_stop": "26",
        "end_stop": "30",
        "bus": "90",
        "timestamps": [
          3480.0,
          3510.0,
          3540.0,
          3570.0,
          3600.0
        ]
      },
      "geometry": {
        "type": "LineString",
        "coordinates": [
          [
            10.8876711,
            48.3579417
          ],
          [
            10.8892416,
            48.3598515
          ],
          [
            10.8898056,
            48.3603155
          ],
          [
            10.891064,
            48.3610302
          ],
          [
            10.8917513,
            48.361933
          ]
        ]
      }
    },
    {
      "type": "Feature",
      "properties": {
        "segment_id": 16,
        "start_stop": "30",
        "end_stop": "39",
        "bus": "90",
        "timestamps": [
          3600.0,
          3720.0
        ]
      },
      "geometry": {
        "type": "LineString",
        "coordinates": [
          [
            10.8917513,
            48.361933
          ],
          [
            10.8940372,
            48.3652719
          ]
        ]
      }
    },
    {
      "type": "Feature",
      "properties": {
        "segment_id": 17,
        "start_stop": "39",
        "end_stop": "16",
        "bus": "90",
        "timestamps": [
          3720.0,
          3744.0,
          3768.0,
          3792.0,
          3816.0,
          3840.0
        ]
      },
      "geometry": {
        "type": "LineString",
        "coordinates": [
          [
            10.8940372,
            48.3652719
          ],
          [
            10.8944842,
            48.365912
          ],
          [
            10.8946538,
            48.366358
          ],
          [
            10.894765,
            48.3664357
          ],
          [
            10.8958507,
            48.3665596
          ],
          [
            10.8974953,
            48.3670837
          ]
        ]
      }
    },
    {
      "type": "Feature",
      "properties": {
        "segment_id": 18,
        "start_stop": "16",
        "end_stop": "17",
        "bus": "90",
        "timestamps": [
          3840.0,
          3880.0,
          3920.0,
          3960.0
        ]
      },
      "geometry": {
        "type": "LineString",
        "coordinates": [
          [
            10.8974953,
            48.3670837
          ],
          [
            10.8982788,
            48.3672563
          ],
          [
            10.8981962,
            48.3679132
          ],
          [
            10.8982838,
            48.368603
          ]
        ]
      }
    },
    {
      "type": "Feature",
      "properties": {
        "segment_id": 19,
        "start_stop": "17",
        "end_stop": "20",
        "bus": "90",
        "timestamps": [
          3960.0,
          3977.1429,
          3994.2857,
          4011.4286,
          4028.5714,
          4045.7143,
          4062.8571,
          4080.0
        ]
      },
      "geometry": {
        "type": "LineString",
        "coordinates": [
          [
            10.8982838,
            48.368603
          ],
          [
            10.8981467,
            48.3695187
          ],
          [
            10.8978372,
            48.3705366
          ],
          [
            10.8978033,
            48.3709946
          ],
          [
            10.8980679,
            48.3710272
          ],
          [
            10.8994849,
            48.3708767
          ],
          [
            10.9003707,
            48.3706662
          ],
          [
            10.9013338,
            48.37067
          ]
        ]
      }
    },
    {
      "type": "Feature",
      "properties": {
        "segment_id": 20,
        "start_stop": "20",
        "end_stop": "4",
        "bus": "90",
        "timestamps": [
          4080.0,
          4120.0,
          4160.0,
          4200.0
        ]
      },
      "geometry": {
        "type": "LineString",
        "coordinates": [
          [
            10.9013338,
            48.37067
          ],
          [
            10.902243,
            48.3706033
          ],
          [
            10.9035524,
            48.3703518
          ],
          [
            10.9048742,
            48.3702842
          ]
        ]
      }
    },
    {
      "type": "Feature",
      "properties": {
        "segment_id": 21,
        "start_stop": "4",
        "end_stop": "41",
        "bus": "90",
        "timestamps": [
          4200.0,
          4224.0,
          4248.0,
          4272.0,
          4296.0,
          4320.0
        ]
      },
      "geometry": {
        "type": "LineString",
        "coordinates": [
          [
            10.9048742,
            48.3702842
          ],
          [
            10.9061315,
            48.3701209
          ],
          [
            10.9080719,
            48.3703753
          ],
          [
            10.9092102,
            48.3703622
          ],
          [
            10.9094312,
            48.3704219
          ],
          [
            10.9095507,
            48.3705604
          ]
        ]
      }
    },
    {
      "type": "Feature",
      "properties": {
        "segment_id": 22,
        "start_stop": "41",
        "end_stop": "28",
        "bus": "90",
        "timestamps": [
          4320.0,
          4360.0,
          4400.0,
          4440.0
        ]
      },
      "geometry": {
        "type": "LineString",
        "coordinates": [
          [
            10.9095507,
            48.3705604
          ],
          [
            10.9101036,
            48.3716297
          ],
          [
            10.9120288,
            48.3736772
          ],
          [
            10.9124101,
            48.3744899
          ]
        ]
      }
    },
    {
      "type": "Feature",
      "properties": {
        "segment_id": 23,
        "start_stop": "28",
        "end_stop": "5",
        "bus": "90",
        "timestamps": [
          4440.0,
          4480.0,
          4520.0,
          4560.0
        ]
      },
      "geometry": {
        "type": "LineString",
        "coordinates": [
          [
            10.9124101,
            48.3744899
          ],
          [
            10.9127926,
            48.3753902
          ],
          [
            10.9138549,
            48.3769258
          ],
          [
            10.9142824,
            48.3778705
          ]
        ]
      }
    },
    {
      "type": "Feature",
      "properties": {
        "segment_id": 24,
        "start_stop": "5",
        "end_stop": "13",
        "bus": "90",
        "timestamps": [
          4560.0,
          4600.0,
          4640.0,
          4680.0
        ]
      },
      "geometry": {
        "type": "LineString",
        "coordinates": [
          [
            10.9142824,
            48.3778705
          ],
          [
            10.9150017,
            48.3796125
          ],
          [
            10.9153754,
            48.3802812
          ],
          [
            10.9157206,
            48.3807189
          ]
        ]
      }
    },
    {
      "type": "Feature",
      "properties": {
        "segment_id": 25,
        "start_stop": "13",
        "end_stop": "12",
        "bus": "90",
        "timestamps": [
          4680.0,
          4695.0,
          4710.0,
          4725.0,
          4740.0,
          4755.0,
          4770.0,
          4785.0,
          4800.0
        ]
      },
      "geometry": {
        "type": "LineString",
        "coordinates": [
          [
            10.9157206,
            48.3807189
          ],
          [
            10.9159885,
            48.3810547
          ],
          [
            10.9163025,
            48.3811292
          ],
          [
            10.9167925,
            48.3809973
          ],
          [
            10.9179373,
            48.3809186
          ],
          [
            10.9191743,
            48.3804884
          ],
          [
            10.9200178,
            48.380439
          ],
          [
            10.920728,
            48.3802247
          ],
          [
            10.9208234,
            48.3802724
          ]
        ]
      }
    },
    {
      "type": "Feature",
      "properties": {
        "segment_id": 26,
        "start_stop": "12",
        "end_stop": "40",
        "bus": "90",
        "timestamps": [
          4800.0,
          4824.0,
          4848.0,
          4872.0,
          4896.0,
          4920.0
        ]
      },
      "geometry": {
        "type": "LineString",
        "coordinates": [
          [
            10.9208234,
            48.3802724
          ],
          [
            10.9211504,
            48.3802708
          ],
          [
            10.9233556,
            48.3794
          ],
          [
            10.9234989,
            48.3791765
          ],
          [
            10.9225743,
            48.3787871
          ],
          [
            10.9256678,
            48.3767872
          ]
        ]
      }
    },
    {
      "type": "Feature",
      "properties": {
        "segment_id": 27,
        "start_stop": "40",
        "end_stop": "44",
        "bus": "90",
        "timestamps": [
          4920.0,
          4940.0,
          4960.0,
          4980.0,
          5000.0,
          5020.0,
          5040.0
        ]
      },
      "geometry": {
        "type": "LineString",
        "coordinates": [
          [
            10.9256678,
            48.3767872
          ],
          [
            10.927833,
            48.3753672
          ],
          [
            10.9295333,
            48.3745123
          ],
          [
            10.9294281,
            48.3742656
          ],
          [
            10.9294656,
            48.3741517
          ],
          [
            10.9315618,
            48.371161
          ],
          [
            10.9346139,
            48.3677324
          ]
        ]
      }
    },
    {
      "type": "Feature",
      "properties": {
        "segment_id": 28,
        "start_stop": "44",
        "end_stop": "24",
        "bus": "90",
        "timestamps": [
          5040.0,
          5100.0,
          5160.0
        ]
      },
      "geometry": {
        "type": "LineString",
        "coordinates": [
          [
            10.9346139,
            48.3677324
          ],
          [
            10.9361097,
            48.365857
          ],
          [
            10.9365074,
            48.3657967
          ]
        ]
      }
    },
    {
      "type": "Feature",
      "properties": {
        "segment_id": 29,
        "start_stop": "24",
        "end_stop": "38",
        "bus": "90",
        "timestamps": [
          5160.0,
          5177.1429,
          5194.2857,
          5211.4286,
          5228.5714,
          5245.7143,
          5262.8571,
          5280.0
        ]
      },
      "geometry": {
        "type": "LineString",
        "coordinates": [
          [
            10.9365074,
            48.3657967
          ],
          [
            10.9369544,
            48.3657011
          ],
          [
            10.9372198,
            48.3654136
          ],
          [
            10.9366486,
            48.3651711
          ],
          [
            10.9371075,
            48.3645914
          ],
          [
            10.939358,
            48.3655885
          ],
          [
            10.9401966,
            48.3652754
          ],
          [
            10.9413121,
            48.3650079
          ]
        ]
      }
    },
    {
      "type": "Feature",
      "properties": {
        "segment_id": 30,
        "start_stop": "38",
        "end_stop": "29",
        "bus": "90",
        "timestamps": [
          5280.0,
          5310.0,
          5340.0,
          5370.0,
          5400.0
        ]
      },
      "geometry": {
        "type": "LineString",
        "coordinates": [
          [
            10.9413121,
            48.3650079
          ],
          [
            10.9421082,
            48.3647063
          ],
          [
            10.9427781,
            48.3643101
          ],
          [
            10.9435446,
            48.3636567
          ],
          [
            10.9444534,
            48.3626989
          ]
        ]
      }
    },
    {
      "type": "Feature",
      "properties": {
        "segment_id": 31,
        "start_stop": "29",
        "end_stop": "19",
        "bus": "90",
        "timestamps": [
          5400.0,
          5424.0,
          5448.0,
          5472.0,
          5496.0,
          5520.0
        ]
      },
      "geometry": {
        "type": "LineString",
        "coordinates": [
          [
            10.9444534,
            48.3626989
          ],
          [
            10.9452061,
            48.3619092
          ],
          [
            10.9460521,
            48.3613189
          ],
          [
            10.9463296,
            48.3609472
          ],
          [
            10.9465657,
            48.3603419
          ],
          [
            10.9469125,
            48.3599715
          ]
        ]
      }
    },
    {
      "type": "Feature",
      "properties": {
        "segment_id": 32,
        "start_stop": "19",
        "end_stop": "37",
        "bus": "90",
        "timestamps": [
          5520.0,
          5560.0,
          5600.0,
          5640.0
        ]
      },
      "geometry": {
        "type": "LineString",
        "coordinates": [
          [
            10.9469125,
            48.3599715
          ],
          [
            10.9474149,
            48.359688
          ],
          [
            10.9476588,
            48.3594162
          ],
          [
            10.9479854,
            48.3563799
          ]
        ]
      }
    },
    {
      "type": "Feature",
      "properties": {
        "segment_id": 33,
        "start_stop": "37",
        "end_stop": "End",
        "bus": "90",
        "timestamps": [
          5640.0,
          5680.0,
          5720.0,
          5760.0
        ]
      },
      "geometry": {
        "type": "LineString",
        "coordinates": [
          [
            10.9479854,
            48.3563799
          ],
          [
            10.9481035,
            48.3552411
          ],
          [
            10.9493096,
            48.3551838
          ],
          [
            10.9502043,
            48.3552703
          ]
        ]
      }
    }
  ]
}