{
  "type": "FeatureCollection",
  "crs": {
    "type": "name",
    "properties": {
      "name": "urn:ogc:def:crs:OGC:1.3:CRS84"
    }
  },
  "features": [
    {
      "type": "Feature",
      "properties": {
        "segment_id": 1,
        "start_stop": "Start",
        "end_stop": "12",
        "bus": "23",
        "timestamps": [
          3000.0,
          3017.1429,
          3034.2857,
          3051.4286,
          3068.5714,
          3085.7143,
          3102.8571,
          3120.0
        ]
      },
      "geometry": {
        "type": "LineString",
        "coordinates": [
          [
            10.8938012,
            48.4061743
          ],
          [
            10.8934668,
            48.4062495
          ],
          [
            10.8934124,
            48.4063363
          ],
          [
            10.8929656,
            48.4062113
          ],
          [
            10.8927704,
            48.4056117
          ],
          [
            10.892636,
            48.4043992
          ],
          [
            10.8927146,
            48.4039562
          ],
          [
            10.8932134,
            48.4026646
          ]
        ]
      }
    },
    {
      "type": "Feature",
      "properties": {
        "segment_id": 2,
        "start_stop": "12",
        "end_stop": "13",
        "bus": "23",
        "timestamps": [
          3150.0,
          3210.0,
          3270.0
        ]
      },
      "geometry": {
        "type": "LineString",
        "coordinates": [
          [
            10.8932134,
            48.4026646
          ],
          [
            10.8932383,
            48.4025935
          ],
          [
            10.8983075,
            48.4032376
          ]
        ]
      }
    },
    {
      "type": "Feature",
      "properties": {
        "segment_id": 3,
        "start_stop": "13",
        "end_stop": "23",
        "bus": "23",
        "timestamps": [
          3300.0,
          3340.0,
          3380.0,
          3420.0
        ]
      },
      "geometry": {
        "type": "LineString",
        "coordinates": [
          [
            10.8983075,
            48.4032376
          ],
          [
            10.903216,
            48.4038998
          ],
          [
            10.9033617,
            48.4038584
          ],
          [
            10.9055617,
            48.4042254
          ]
        ]
      }
    },
    {
      "type": "Feature",
      "properties": {
        "segment_id": 5,
        "start_stop": "2",
        "end_stop": "14",
        "bus": "23",
        "timestamps": [
          3450.0,
          3510.0,
          3570.0
        ]
      },
      "geometry": {
        "type": "LineString",
        "coordinates": [
          [
            10.9109419,
            48.402436
          ],
          [
            10.9117038,
            48.401426
          ],
          [
            10.9141644,
            48.3990238
          ]
        ]
      }
    },
    {
      "type": "Feature",
      "properties": {
        "segment_id": 6,
        "start_stop": "14",
        "end_stop": "15",
        "bus": "23",
        "timestamps": [
          3600.0,
          3640.0,
          3680.0,
          3720.0
        ]
      },
      "geometry": {
        "type": "LineString",
        "coordinates": [
          [
            10.9141644,
            48.3990238
          ],
          [
            10.9148412,
            48.3982242
          ],
          [
            10.9103718,
            48.3972692
          ],
          [
            10.9105958,
            48.3959605
          ]
        ]
      }
    },
    {
      "type": "Feature",
      "properties": {
        "segment_id": 7,
        "start_stop": "15",
        "end_stop": "16",
        "bus": "23",
        "timestamps": [
          3750.0,
          3790.0,
          3830.0,
          3870.0
        ]
      },
      "geometry": {
        "type": "LineString",
        "coordinates": [
          [
            10.9105958,
            48.3959605
          ],
          [
            10.9106206,
            48.3957677
          ],
          [
            10.9127768,
            48.3961896
          ],
          [
            10.9146007,
            48.3963918
          ]
        ]
      }
    },
    {
      "type": "Feature",
      "properties": {
        "segment_id": 8,
        "start_stop": "16",
        "end_stop": "20",
        "bus": "23",
        "timestamps": [
          3900.0,
          3940.0,
          3980.0,
          4020.0
        ]
      },
      "geometry": {
        "type": "LineString",
        "coordinates": [
          [
            10.9146007,
            48.3963918
          ],
          [
            10.9154765,
            48.3964918
          ],
          [
            10.9155256,
            48.3958808
          ],
          [
            10.9153742,
            48.3951479
          ]
        ]
      }
    },
    {
      "type": "Feature",
      "properties": {
        "segment_id": 9,
        "start_stop": "20",
        "end_stop": "10",
        "bus": "23",
        "timestamps": [
          4050.0,
          4080.0,
          4110.0,
          4140.0,
          4170.0
        ]
      },
      "geometry": {
        "type": "LineString",
        "coordinates": [
          [
            10.9153742,
            48.3951479
          ],
          [
            10.915131,
            48.3941858
          ],
          [
            10.9150065,
            48.3928745
          ],
          [
            10.9151397,
            48.3912137
          ],
          [
            10.9152742,
            48.3905333
          ]
        ]
      }
    },
    {
      "type": "Feature",
      "properties": {
        "segment_id": 10,
        "start_stop": "10",
        "end_stop": "17",
        "bus": "23",
        "timestamps": [
          4200.0,
          4230.0,
          4260.0,
          4290.0,
          4320.0
        ]
      },
      "geometry": {
        "type": "LineString",
        "coordinates": [
          [
            10.9152742,
            48.3905333
          ],
          [
            10.9154782,
            48.3890301
          ],
          [
            10.9156389,
            48.3886317
          ],
          [
            10.9161236,
            48.3877353
          ],
          [
            10.9165527,
            48.3878803
          ]
        ]
      }
    },
    {
      "type": "Feature",
      "properties": {
        "segment_id": 11,
        "start_stop": "17",
        "end_stop": "18",
        "bus": "23",
        "timestamps": [
          4350.0,
          4410.0,
          4470.0
        ]
      },
      "geometry": {
        "type": "LineString",
        "coordinates": [
          [
            10.9165527,
            48.3878803
          ],
          [
            10.920827,
            48.3889756
          ],
          [
            10.9212246,
            48.3882263
          ]
        ]
      }
    },
    {
      "type": "Feature",
      "properties": {
        "segment_id": 12,
        "start_stop": "18",
        "end_stop": "19",
        "bus": "23",
        "timestamps": [
          4500.0,
          4540.0,
          4580.0,
          4620.0
        ]
      },
      "geometry": {
        "type": "LineString",
        "coordinates": [
          [
            10.9212246,
            48.3882263
          ],
          [
            10.9220948,
            48.3869545
          ],
          [
            10.923735,
            48.3850226
          ],
          [
            10.9228813,
            48.3847941
          ]
        ]
      }
    },
    {
      "type": "Feature",
      "properties": {
        "segment_id": 13,
        "start_stop": "19",
        "end_stop": "22",
        "bus": "23",
        "timestamps": [
          4650.0,
          4770.0
        ]
      },
      "geometry": {
        "type": "LineString",
        "coordinates": [
          [
            10.9228813,
            48.3847941
          ],
          [
            10.9182973,
            48.3834946
          ]
        ]
      }
    },
    {
      "type": "Feature",
      "properties": {
        "segment_id": 14,
        "start_stop": "22",
        "end_stop": "4",
        "bus": "23",
        "timestamps": [
          4800.0,
          4817.1429,
          4834.2857,
          4851.4286,
          4868.5714,
          4885.7143,
          4902.8571,
          4920.0
        ]
      },
      "geometry": {
        "type": "LineString",
        "coordinates": [
          [
            10.9182973,
            48.3834946
          ],
          [
            10.917936,
            48.3834003
          ],
          [
            10.9174086,
            48.3834204
          ],
          [
            10.9171905,
            48.3828772
          ],
          [
            10.9163433,
            48.3814231
          ],
          [
            10.916032,
            48.3811826
          ],
          [
            10.9160927,
            48.3811099
          ],
          [
            10.9157206,
            48.3807189
          ]
        ]
      }
    },
    {
      "type": "Feature",
      "properties": {
        "segment_id": 15,
        "start_stop": "4",
        "end_stop": "1",
        "bus": "23",
        "timestamps": [
          4950.0,
          4990.0,
          5030.0,
          5070.0
        ]
      },
      "geometry": {
        "type": "LineString",
        "coordinates": [
          [
            10.9157206,
            48.3807189
          ],
          [
            10.9153754,
            48.3802812
          ],
          [
            10.9150017,
            48.3796125
          ],
          [
            10.9142824,
            48.3778705
          ]
        ]
      }
    },
    {
      "type": "Feature",
      "properties": {
        "segment_id": 16,
        "start_stop": "1",
        "end_stop": "8",
        "bus": "23",
        "timestamps": [
          5100.0,
          5140.0,
          5180.0,
          5220.0
        ]
      },
      "geometry": {
        "type": "LineString",
        "coordinates": [
          [
            10.9142824,
            48.3778705
          ],
          [
            10.9138549,
            48.3769258
          ],
          [
            10.9127926,
            48.3753902
          ],
          [
            10.9124101,
            48.3744899
          ]
        ]
      }
    },
    {
      "type": "Feature",
      "properties": {
        "segment_id": 17,
        "start_stop": "8",
        "end_stop": "5",
        "bus": "23",
        "timestamps": [
          5250.0,
          5290.0,
          5330.0,
          5370.0
        ]
      },
      "geometry": {
        "type": "LineString",
        "coordinates": [
          [
            10.9124101,
            48.3744899
          ],
          [
            10.9120288,
            48.3736772
          ],
          [
            10.9101932,
            48.3717465
          ],
          [
            10.9097038,
            48.3708749
          ]
        ]
      }
    },
    {
      "type": "Feature",
      "properties": {
        "segment_id": 18,
        "start_stop": "5",
        "end_stop": "0",
        "bus": "23",
        "timestamps": [
          5400.0,
          5424.0,
          5448.0,
          5472.0,
          5496.0,
          5520.0
        ]
      },
      "geometry": {
        "type": "LineString",
        "coordinates": [
          [
            10.9097038,
            48.3708749
          ],
          [
            10.9094671,
            48.3704486
          ],
          [
            10.9092102,
            48.3703622
          ],
          [
            10.9080719,
            48.3703753
          ],
          [
            10.9061315,
            48.3701209
          ],
          [
            10.9048742,
            48.3702842
          ]
        ]
      }
    },
    {
      "type": "Feature",
      "properties": {
        "segment_id": 19,
        "start_stop": "0",
        "end_stop": "6",
        "bus": "23",
        "timestamps": [
          5550.0,
          5590.0,
          5630.0,
          5670.0
        ]
      },
      "geometry": {
        "type": "LineString",
        "coordinates": [
          [
            10.9048742,
            48.3702842
          ],
          [
            10.9035524,
            48.3703518
          ],
          [
            10.902243,
            48.3706033
          ],
          [
            10.9013338,
            48.37067
          ]
        ]
      }
    },
    {
      "type": "Feature",
      "properties": {
        "segment_id": 20,
        "start_stop": "6",
        "end_stop": "21",
        "bus": "23",
        "timestamps": [
          5700.0,
          5760.0,
          5820.0
        ]
      },
      "geometry": {
        "type": "LineString",
        "coordinates": [
          [
            10.9013338,
            48.37067
          ],
          [
            10.8984191,
            48.370579
          ],
          [
            10.897199,
            48.3703969
          ]
        ]
      }
    },
    {
      "type": "Feature",
      "properties": {
        "segment_id": 21,
        "start_stop": "21",
        "end_stop": "9",
        "bus": "23",
        "timestamps": [
          5850.0,
          5874.0,
          5898.0,
          5922.0,
          5946.0,
          5970.0
        ]
      },
      "geometry": {
        "type": "LineString",
        "coordinates": [
          [
            10.897199,
            48.3703969
          ],
          [
            10.8966359,
            48.3702282
          ],
          [
            10.8924912,
            48.3696867
          ],
          [
            10.8923747,
            48.3695185
          ],
          [
            10.8928391,
            48.3691847
          ],
          [
            10.8930545,
            48.3688205
          ]
        ]
      }
    },
    {
      "type": "Feature",
      "properties": {
        "segment_id": 22,
        "start_stop": "9",
        "end_stop": "3",
        "bus": "23",
        "timestamps": [
          6000.0,
          6024.0,
          6048.0,
          6072.0,
          6096.0,
          6120.0
        ]
      },
      "geometry": {
        "type": "LineString",
        "coordinates": [
          [
            10.8930545,
            48.3688205
          ],
          [
            10.8933642,
            48.3680606
          ],
          [
            10.8895576,
            48.3673275
          ],
          [
            10.8889738,
            48.3675177
          ],
          [
            10.8866746,
            48.3666703
          ],
          [
            10.8877355,
            48.3654998
          ]
        ]
      }
    }
  ]
}