{
  "type": "FeatureCollection",
  "crs": {
    "type": "name",
    "properties": {
      "name": "urn:ogc:def:crs:OGC:1.3:CRS84"
    }
  },
  "features": [
    {
      "type": "Feature",
      "properties": {
        "segment_id": 1,
        "start_stop": "Start",
        "end_stop": "2",
        "bus": "43",
        "timestamps": [
          2100.0,
          2124.0,
          2148.0,
          2172.0,
          2196.0,
          2220.0
        ]
      },
      "geometry": {
        "type": "LineString",
        "coordinates": [
          [
            10.8901929,
            48.3514296
          ],
          [
            10.8902582,
            48.3518499
          ],
          [
            10.8925021,
            48.3516652
          ],
          [
            10.8927171,
            48.3532494
          ],
          [
            10.8981102,
            48.3527015
          ],
          [
            10.8982286,
            48.3533833
          ]
        ]
      }
    },
    {
      "type": "Feature",
      "properties": {
        "segment_id": 2,
        "start_stop": "2",
        "end_stop": "3",
        "bus": "43",
        "timestamps": [
          2220.0,
          2260.0,
          2300.0,
          2340.0
        ]
      },
      "geometry": {
        "type": "LineString",
        "coordinates": [
          [
            10.8982286,
            48.3533833
          ],
          [
            10.8985991,
            48.355517
          ],
          [
            10.8963797,
            48.35565
          ],
          [
            10.8969963,
            48.3571993
          ]
        ]
      }
    },
    {
      "type": "Feature",
      "properties": {
        "segment_id": 3,
        "start_stop": "3",
        "end_stop": "4",
        "bus": "43",
        "timestamps": [
          2340.0,
          2400.0,
          2460.0
        ]
      },
      "geometry": {
        "type": "LineString",
        "coordinates": [
          [
            10.8969963,
            48.3571993
          ],
          [
            10.8979621,
            48.3597975
          ],
          [
            10.8973794,
            48.360685
          ]
        ]
      }
    },
    {
      "type": "Feature",
      "properties": {
        "segment_id": 4,
        "start_stop": "4",
        "end_stop": "6",
        "bus": "43",
        "timestamps": [
          2460.0,
          2500.0,
          2540.0,
          2580.0
        ]
      },
      "geometry": {
        "type": "LineString",
        "coordinates": [
          [
            10.8973794,
            48.360685
          ],
          [
            10.8949858,
            48.3649979
          ],
          [
            10.8947155,
            48.3651306
          ],
          [
            10.8941272,
            48.365152
          ]
        ]
      }
    },
    {
      "type": "Feature",
      "properties": {
        "segment_id": 5,
        "start_stop": "6",
        "end_stop": "1",
        "bus": "43",
        "timestamps": [
          2580.0,
          2620.0,
          2660.0,
          2700.0
        ]
      },
      "geometry": {
        "type": "LineString",
        "coordinates": [
          [
            10.8941272,
            48.365152
          ],
          [
            10.8935083,
            48.3650358
          ],
          [
            10.8929626,
            48.3650299
          ],
          [
            10.8881204,
            48.36548
          ]
        ]
      }
    },
    {
      "type": "Feature",
      "properties": {
        "segment_id": 6,
        "start_stop": "1",
        "end_stop": "End",
        "bus": "43",
        "timestamps": [
          2700.0,
          2724.0,
          2748.0,
          2772.0,
          2796.0,
          2820.0
        ]
      },
      "geometry": {
        "type": "LineString",
        "coordinates": [
          [
            10.8881204,
            48.36548
          ],
          [
            10.8879492,
            48.3655131
          ],
          [
            10.8877702,
            48.3656787
          ],
          [
            10.8858772,
            48.3677034
          ],
          [
            10.886556,
            48.368316
          ],
          [
            10.8880256,
            48.3691016
          ]
        ]
      }
    }
  ]
}