{
  "type": "FeatureCollection",
  "crs": {
    "type": "name",
    "properties": {
      "name": "urn:ogc:def:crs:OGC:1.3:CRS84"
    }
  },
  "features": [
    {
      "type": "Feature",
      "properties": {
        "segment_id": 1,
        "start_stop": "Start",
        "end_stop": "13",
        "bus": "21",
        "timestamps": [
          1500.0,
          1620.0
        ]
      },
      "geometry": {
        "type": "LineString",
        "coordinates": [
          [
            10.8474322,
            48.3947956
          ],
          [
            10.84743,
            48.3972687
          ]
        ]
      }
    },
    {
      "type": "Feature",
      "properties": {
        "segment_id": 2,
        "start_stop": "13",
        "end_stop": "12",
        "bus": "21",
        "timestamps": [
          1620.0,
          1740.0
        ]
      },
      "geometry": {
        "type": "LineString",
        "coordinates": [
          [
            10.84743,
            48.3972687
          ],
          [
            10.8477771,
            48.3997928
          ]
        ]
      }
    },
    {
      "type": "Feature",
      "properties": {
        "segment_id": 3,
        "start_stop": "12",
        "end_stop": "4",
        "bus": "21",
        "timestamps": [
          1740.0,
          1760.0,
          1780.0,
          1800.0,
          1820.0,
          1840.0,
          1860.0
        ]
      },
      "geometry": {
        "type": "LineString",
        "coordinates": [
          [
            10.8477771,
            48.3997928
          ],
          [
            10.8479231,
            48.4004777
          ],
          [
            10.8481559,
            48.401007
          ],
          [
            10.848633,
            48.4016331
          ],
          [
            10.8491291,
            48.4020612
          ],
          [
            10.8517343,
            48.4035341
          ],
          [
            10.8521651,
            48.403192
          ]
        ]
      }
    },
    {
      "type": "Feature",
      "properties": {
        "segment_id": 4,
        "start_stop": "4",
        "end_stop": "6",
        "bus": "21",
        "timestamps": [
          1860.0,
          1890.0,
          1920.0,
          1950.0,
          1980.0
        ]
      },
      "geometry": {
        "type": "LineString",
        "coordinates": [
          [
            10.8521651,
            48.403192
          ],
          [
            10.8530759,
            48.4022931
          ],
          [
            10.8543866,
            48.4002543
          ],
          [
            10.8547933,
            48.3998267
          ],
          [
            10.8556656,
            48.3991281
          ]
        ]
      }
    },
    {
      "type": "Feature",
      "properties": {
        "segment_id": 5,
        "start_stop": "6",
        "end_stop": "11",
        "bus": "21",
        "timestamps": [
          1980.0,
          2010.0,
          2040.0,
          2070.0,
          2100.0
        ]
      },
      "geometry": {
        "type": "LineString",
        "coordinates": [
          [
            10.8556656,
            48.3991281
          ],
          [
            10.8581671,
            48.3973583
          ],
          [
            10.8582255,
            48.3973028
          ],
          [
            10.8581881,
            48.3972058
          ],
          [
            10.8587188,
            48.3968243
          ]
        ]
      }
    },
    {
      "type": "Feature",
      "properties": {
        "segment_id": 6,
        "start_stop": "11",
        "end_stop": "0",
        "bus": "21",
        "timestamps": [
          2100.0,
          2140.0,
          2180.0,
          2220.0
        ]
      },
      "geometry": {
        "type": "LineString",
        "coordinates": [
          [
            10.8587188,
            48.3968243
          ],
          [
            10.8590533,
            48.3965505
          ],
          [
            10.8581528,
            48.395913
          ],
          [
            10.8574904,
            48.3952578
          ]
        ]
      }
    },
    {
      "type": "Feature",
      "properties": {
        "segment_id": 7,
        "start_stop": "0",
        "end_stop": "8",
        "bus": "21",
        "timestamps": [
          2220.0,
          2250.0,
          2280.0,
          2310.0,
          2340.0
        ]
      },
      "geometry": {
        "type": "LineString",
        "coordinates": [
          [
            10.8574904,
            48.3952578
          ],
          [
            10.8565793,
            48.3939265
          ],
          [
            10.856553,
            48.3936507
          ],
          [
            10.8556793,
            48.3916281
          ],
          [
            10.8568889,
            48.3914761
          ]
        ]
      }
    },
    {
      "type": "Feature",
      "properties": {
        "segment_id": 8,
        "start_stop": "8",
        "end_stop": "10",
        "bus": "21",
        "timestamps": [
          2340.0,
          2400.0,
          2460.0
        ]
      },
      "geometry": {
        "type": "LineString",
        "coordinates": [
          [
            10.8568889,
            48.3914761
          ],
          [
            10.8604599,
            48.3910228
          ],
          [
            10.8644631,
            48.3903174
          ]
        ]
      }
    },
    {
      "type": "Feature",
      "properties": {
        "segment_id": 9,
        "start_stop": "10",
        "end_stop": "9",
        "bus": "21",
        "timestamps": [
          2460.0,
          2472.0,
          2484.0,
          2496.0,
          2508.0,
          2520.0,
          2532.0,
          2544.0,
          2556.0,
          2568.0,
          2580.0
        ]
      },
      "geometry": {
        "type": "LineString",
        "coordinates": [
          [
            10.8644631,
            48.3903174
          ],
          [
            10.8648039,
            48.3902581
          ],
          [
            10.8643563,
            48.3889684
          ],
          [
            10.8639907,
            48.3886374
          ],
          [
            10.8630395,
            48.3883727
          ],
          [
            10.86278,
            48.3881797
          ],
          [
            10.8622986,
            48.3871939
          ],
          [
            10.862253,
            48.3869385
          ],
          [
            10.8624428,
            48.3866231
          ],
          [
            10.8627796,
            48.3864348
          ],
          [
            10.8647738,
            48.3862274
          ]
        ]
      }
    },
    {
      "type": "Feature",
      "properties": {
        "segment_id": 10,
        "start_stop": "9",
        "end_stop": "7",
        "bus": "21",
        "timestamps": [
          2580.0,
          2592.0,
          2604.0,
          2616.0,
          2628.0,
          2640.0,
          2652.0,
          2664.0,
          2676.0,
          2688.0,
          2700.0
        ]
      },
      "geometry": {
        "type": "LineString",
        "coordinates": [
          [
            10.8647738,
            48.3862274
          ],
          [
            10.8685605,
            48.3858817
          ],
          [
            10.8686027,
            48.3860181
          ],
          [
            10.8691232,
            48.3866042
          ],
          [
            10.8692175,
            48.3871014
          ],
          [
            10.8690664,
            48.3875528
          ],
          [
            10.8683385,
            48.3884621
          ],
          [
            10.868266,
            48.3888369
          ],
          [
            10.8683118,
            48.3893469
          ],
          [
            10.8684113,
            48.3898333
          ],
          [
            10.8691502,
            48.3897761
          ]
        ]
      }
    },
    {
      "type": "Feature",
      "properties": {
        "segment_id": 11,
        "start_stop": "7",
        "end_stop": "5",
        "bus": "21",
        "timestamps": [
          2700.0,
          2730.0,
          2760.0,
          2790.0,
          2820.0
        ]
      },
      "geometry": {
        "type": "LineString",
        "coordinates": [
          [
            10.8691502,
            48.3897761
          ],
          [
            10.8704372,
            48.3896183
          ],
          [
            10.8731152,
            48.3888286
          ],
          [
            10.873388,
            48.3886867
          ],
          [
            10.8739171,
            48.3882095
          ]
        ]
      }
    },
    {
      "type": "Feature",
      "properties": {
        "segment_id": 12,
        "start_stop": "5",
        "end_stop": "1",
        "bus": "21",
        "timestamps": [
          2820.0,
          2830.9091,
          2841.8182,
          2852.7273,
          2863.6364,
          2874.5455,
          2885.4545,
          2896.3636,
          2907.2727,
          2918.1818,
          2929.0909,
          2940.0
        ]
      },
      "geometry": {
        "type": "LineString",
        "coordinates": [
          [
            10.8739171,
            48.3882095
          ],
          [
            10.8741896,
            48.3880469
          ],
          [
            10.8741075,
            48.3878595
          ],
          [
            10.8742068,
            48.3873405
          ],
          [
            10.8740157,
            48.3867597
          ],
          [
            10.8740967,
            48.3865439
          ],
          [
            10.8743329,
            48.386298
          ],
          [
            10.8751875,
            48.3860603
          ],
          [
            10.8761077,
            48.3860058
          ],
          [
            10.87641,
            48.3859135
          ],
          [
            10.8764349,
            48.3855686
          ],
          [
            10.8770296,
            48.3855718
          ]
        ]
      }
    },
    {
      "type": "Feature",
      "properties": {
        "segment_id": 13,
        "start_stop": "1",
        "end_stop": "End",
        "bus": "21",
        "timestamps": [
          2940.0,
          2960.0,
          2980.0,
          3000.0,
          3020.0,
          3040.0,
          3060.0
        ]
      },
      "geometry": {
        "type": "LineString",
        "coordinates": [
          [
            10.8770296,
            48.3855718
          ],
          [
            10.8786737,
            48.3860745
          ],
          [
            10.8792489,
            48.385815
          ],
          [
            10.8803345,
            48.3855217
          ],
          [
            10.8802305,
            48.3849896
          ],
          [
            10.8805469,
            48.3850053
          ],
          [
            10.880536,
            48.3854347
          ]
        ]
      }
    }
  ]
}