{
  "type": "FeatureCollection",
  "crs": {
    "type": "name",
    "properties": {
      "name": "urn:ogc:def:crs:OGC:1.3:CRS84"
    }
  },
  "features": [
    {
      "type": "Feature",
      "properties": {
        "segment_id": 1,
        "start_stop": "Start",
        "end_stop": "2",
        "bus": "43",
        "timestamps": [
          3300.0,
          3324.0,
          3348.0,
          3372.0,
          3396.0,
          3420.0
        ]
      },
      "geometry": {
        "type": "LineString",
        "coordinates": [
          [
            10.8901929,
            48.3514296
          ],
          [
            10.8902582,
            48.3518499
          ],
          [
            10.8925021,
            48.3516652
          ],
          [
            10.8927171,
            48.3532494
          ],
          [
            10.8981102,
            48.3527015
          ],
          [
            10.8982286,
            48.3533833
          ]
        ]
      }
    },
    {
      "type": "Feature",
      "properties": {
        "segment_id": 2,
        "start_stop": "2",
        "end_stop": "3",
        "bus": "43",
        "timestamps": [
          3420.0,
          3460.0,
          3500.0,
          3540.0
        ]
      },
      "geometry": {
        "type": "LineString",
        "coordinates": [
          [
            10.8982286,
            48.3533833
          ],
          [
            10.8985991,
            48.355517
          ],
          [
            10.8963797,
            48.35565
          ],
          [
            10.8969963,
            48.3571993
          ]
        ]
      }
    },
    {
      "type": "Feature",
      "properties": {
        "segment_id": 3,
        "start_stop": "3",
        "end_stop": "4",
        "bus": "43",
        "timestamps": [
          3540.0,
          3600.0,
          3660.0
        ]
      },
      "geometry": {
        "type": "LineString",
        "coordinates": [
          [
            10.8969963,
            48.3571993
          ],
          [
            10.8979621,
            48.3597975
          ],
          [
            10.8973794,
            48.360685
          ]
        ]
      }
    },
    {
      "type": "Feature",
      "properties": {
        "segment_id": 4,
        "start_stop": "4",
        "end_stop": "6",
        "bus": "43",
        "timestamps": [
          3660.0,
          3700.0,
          3740.0,
          3780.0
        ]
      },
      "geometry": {
        "type": "LineString",
        "coordinates": [
          [
            10.8973794,
            48.360685
          ],
          [
            10.8949858,
            48.3649979
          ],
          [
            10.8947155,
            48.3651306
          ],
          [
            10.8941272,
            48.365152
          ]
        ]
      }
    },
    {
      "type": "Feature",
      "properties": {
        "segment_id": 5,
        "start_stop": "6",
        "end_stop": "1",
        "bus": "43",
        "timestamps": [
          3780.0,
          3820.0,
          3860.0,
          3900.0
        ]
      },
      "geometry": {
        "type": "LineString",
        "coordinates": [
          [
            10.8941272,
            48.365152
          ],
          [
            10.8935083,
            48.3650358
          ],
          [
            10.8929626,
            48.3650299
          ],
          [
            10.8881204,
            48.36548
          ]
        ]
      }
    },
    {
      "type": "Feature",
      "properties": {
        "segment_id": 6,
        "start_stop": "1",
        "end_stop": "End",
        "bus": "43",
        "timestamps": [
          3900.0,
          3924.0,
          3948.0,
          3972.0,
          3996.0,
          4020.0
        ]
      },
      "geometry": {
        "type": "LineString",
        "coordinates": [
          [
            10.8881204,
            48.36548
          ],
          [
            10.8879492,
            48.3655131
          ],
          [
            10.8877702,
            48.3656787
          ],
          [
            10.8858772,
            48.3677034
          ],
          [
            10.886556,
            48.368316
          ],
          [
            10.8880256,
            48.3691016
          ]
        ]
      }
    }
  ]
}