{
  "type": "FeatureCollection",
  "crs": {
    "type": "name",
    "properties": {
      "name": "urn:ogc:def:crs:OGC:1.3:CRS84"
    }
  },
  "features": [
    {
      "type": "Feature",
      "properties": {
        "segment_id": 1,
        "start_stop": "Start",
        "end_stop": "14",
        "bus": "23",
        "timestamps": [
          1500.0,
          1560.0,
          1620.0
        ]
      },
      "geometry": {
        "type": "LineString",
        "coordinates": [
          [
            10.8938012,
            48.4061743
          ],
          [
            10.8963397,
            48.4060172
          ],
          [
            10.8963283,
            48.4059513
          ]
        ]
      }
    },
    {
      "type": "Feature",
      "properties": {
        "segment_id": 2,
        "start_stop": "14",
        "end_stop": "15",
        "bus": "23",
        "timestamps": [
          1650.0,
          1770.0
        ]
      },
      "geometry": {
        "type": "LineString",
        "coordinates": [
          [
            10.8963283,
            48.4059513
          ],
          [
            10.8958448,
            48.4032435
          ]
        ]
      }
    },
    {
      "type": "Feature",
      "properties": {
        "segment_id": 3,
        "start_stop": "15",
        "end_stop": "23",
        "bus": "23",
        "timestamps": [
          1800.0,
          1860.0,
          1920.0
        ]
      },
      "geometry": {
        "type": "LineString",
        "coordinates": [
          [
            10.8958448,
            48.4032435
          ],
          [
            10.8957883,
            48.4029097
          ],
          [
            10.8984359,
            48.4032532
          ]
        ]
      }
    },
    {
      "type": "Feature",
      "properties": {
        "segment_id": 4,
        "start_stop": "23",
        "end_stop": "10",
        "bus": "23",
        "timestamps": [
          1950.0,
          2070.0
        ]
      },
      "geometry": {
        "type": "LineString",
        "coordinates": [
          [
            10.8984359,
            48.4032532
          ],
          [
            10.9057701,
            48.4042562
          ]
        ]
      }
    },
    {
      "type": "Feature",
      "properties": {
        "segment_id": 5,
        "start_stop": "10",
        "end_stop": "16",
        "bus": "23",
        "timestamps": [
          2100.0,
          2124.0,
          2148.0,
          2172.0,
          2196.0,
          2220.0
        ]
      },
      "geometry": {
        "type": "LineString",
        "coordinates": [
          [
            10.9057701,
            48.4042562
          ],
          [
            10.907758,
            48.4045936
          ],
          [
            10.9082146,
            48.4045777
          ],
          [
            10.9098956,
            48.4048279
          ],
          [
            10.9103399,
            48.4034789
          ],
          [
            10.9111579,
            48.4021214
          ]
        ]
      }
    },
    {
      "type": "Feature",
      "properties": {
        "segment_id": 6,
        "start_stop": "16",
        "end_stop": "17",
        "bus": "23",
        "timestamps": [
          2250.0,
          2310.0,
          2370.0
        ]
      },
      "geometry": {
        "type": "LineString",
        "coordinates": [
          [
            10.9111579,
            48.4021214
          ],
          [
            10.9117038,
            48.401426
          ],
          [
            10.9140765,
            48.399113
          ]
        ]
      }
    },
    {
      "type": "Feature",
      "properties": {
        "segment_id": 7,
        "start_stop": "17",
        "end_stop": "18",
        "bus": "23",
        "timestamps": [
          2400.0,
          2440.0,
          2480.0,
          2520.0
        ]
      },
      "geometry": {
        "type": "LineString",
        "coordinates": [
          [
            10.9140765,
            48.399113
          ],
          [
            10.9148412,
            48.3982242
          ],
          [
            10.9103718,
            48.3972692
          ],
          [
            10.9104778,
            48.3967402
          ]
        ]
      }
    },
    {
      "type": "Feature",
      "properties": {
        "segment_id": 8,
        "start_stop": "18",
        "end_stop": "24",
        "bus": "23",
        "timestamps": [
          2550.0,
          2590.0,
          2630.0,
          2670.0
        ]
      },
      "geometry": {
        "type": "LineString",
        "coordinates": [
          [
            10.9104778,
            48.3967402
          ],
          [
            10.9106206,
            48.3957677
          ],
          [
            10.9127768,
            48.3961896
          ],
          [
            10.9147043,
            48.396404
          ]
        ]
      }
    },
    {
      "type": "Feature",
      "properties": {
        "segment_id": 9,
        "start_stop": "24",
        "end_stop": "21",
        "bus": "23",
        "timestamps": [
          2700.0,
          2740.0,
          2780.0,
          2820.0
        ]
      },
      "geometry": {
        "type": "LineString",
        "coordinates": [
          [
            10.9147043,
            48.396404
          ],
          [
            10.9154765,
            48.3964918
          ],
          [
            10.9155256,
            48.3958808
          ],
          [
            10.9153471,
            48.3950431
          ]
        ]
      }
    },
    {
      "type": "Feature",
      "properties": {
        "segment_id": 10,
        "start_stop": "21",
        "end_stop": "11",
        "bus": "23",
        "timestamps": [
          2850.0,
          2880.0,
          2910.0,
          2940.0,
          2970.0
        ]
      },
      "geometry": {
        "type": "LineString",
        "coordinates": [
          [
            10.9153471,
            48.3950431
          ],
          [
            10.915131,
            48.3941858
          ],
          [
            10.9150065,
            48.3928745
          ],
          [
            10.9151725,
            48.3913776
          ],
          [
            10.9152749,
            48.3911304
          ]
        ]
      }
    },
    {
      "type": "Feature",
      "properties": {
        "segment_id": 11,
        "start_stop": "11",
        "end_stop": "19",
        "bus": "23",
        "timestamps": [
          3000.0,
          3040.0,
          3080.0,
          3120.0
        ]
      },
      "geometry": {
        "type": "LineString",
        "coordinates": [
          [
            10.9152749,
            48.3911304
          ],
          [
            10.9152669,
            48.390601
          ],
          [
            10.9154782,
            48.3890301
          ],
          [
            10.9158839,
            48.3881789
          ]
        ]
      }
    },
    {
      "type": "Feature",
      "properties": {
        "segment_id": 12,
        "start_stop": "19",
        "end_stop": "20",
        "bus": "23",
        "timestamps": [
          3150.0,
          3180.0,
          3210.0,
          3240.0,
          3270.0
        ]
      },
      "geometry": {
        "type": "LineString",
        "coordinates": [
          [
            10.9158839,
            48.3881789
          ],
          [
            10.9161236,
            48.3877353
          ],
          [
            10.9199481,
            48.3887668
          ],
          [
            10.920827,
            48.3889756
          ],
          [
            10.9208649,
            48.3889041
          ]
        ]
      }
    },
    {
      "type": "Feature",
      "properties": {
        "segment_id": 13,
        "start_stop": "20",
        "end_stop": "6",
        "bus": "23",
        "timestamps": [
          3300.0,
          3360.0,
          3420.0
        ]
      },
      "geometry": {
        "type": "LineString",
        "coordinates": [
          [
            10.9208649,
            48.3889041
          ],
          [
            10.921882,
            48.3872374
          ],
          [
            10.9234651,
            48.3853148
          ]
        ]
      }
    },
    {
      "type": "Feature",
      "properties": {
        "segment_id": 14,
        "start_stop": "6",
        "end_stop": "22",
        "bus": "23",
        "timestamps": [
          3450.0,
          3510.0,
          3570.0
        ]
      },
      "geometry": {
        "type": "LineString",
        "coordinates": [
          [
            10.9234651,
            48.3853148
          ],
          [
            10.923735,
            48.3850226
          ],
          [
            10.9182973,
            48.3834946
          ]
        ]
      }
    },
    {
      "type": "Feature",
      "properties": {
        "segment_id": 15,
        "start_stop": "22",
        "end_stop": "3",
        "bus": "23",
        "timestamps": [
          3600.0,
          3620.0,
          3640.0,
          3660.0,
          3680.0,
          3700.0,
          3720.0
        ]
      },
      "geometry": {
        "type": "LineString",
        "coordinates": [
          [
            10.9182973,
            48.3834946
          ],
          [
            10.917936,
            48.3834003
          ],
          [
            10.9174086,
            48.3834204
          ],
          [
            10.9172393,
            48.3829711
          ],
          [
            10.9164315,
            48.3815868
          ],
          [
            10.9162889,
            48.3812072
          ],
          [
            10.9159429,
            48.3810018
          ]
        ]
      }
    },
    {
      "type": "Feature",
      "properties": {
        "segment_id": 16,
        "start_stop": "3",
        "end_stop": "1",
        "bus": "23",
        "timestamps": [
          3750.0,
          3780.0,
          3810.0,
          3840.0,
          3870.0
        ]
      },
      "geometry": {
        "type": "LineString",
        "coordinates": [
          [
            10.9159429,
            48.3810018
          ],
          [
            10.9151597,
            48.3799182
          ],
          [
            10.9138549,
            48.3769258
          ],
          [
            10.9127926,
            48.3753902
          ],
          [
            10.9123673,
            48.3743667
          ]
        ]
      }
    },
    {
      "type": "Feature",
      "properties": {
        "segment_id": 17,
        "start_stop": "1",
        "end_stop": "4",
        "bus": "23",
        "timestamps": [
          3900.0,
          3940.0,
          3980.0,
          4020.0
        ]
      },
      "geometry": {
        "type": "LineString",
        "coordinates": [
          [
            10.9123673,
            48.3743667
          ],
          [
            10.9120288,
            48.3736772
          ],
          [
            10.9101932,
            48.3717465
          ],
          [
            10.9097038,
            48.3708749
          ]
        ]
      }
    },
    {
      "type": "Feature",
      "properties": {
        "segment_id": 18,
        "start_stop": "4",
        "end_stop": "0",
        "bus": "23",
        "timestamps": [
          4050.0,
          4067.1429,
          4084.2857,
          4101.4286,
          4118.5714,
          4135.7143,
          4152.8571,
          4170.0
        ]
      },
      "geometry": {
        "type": "LineString",
        "coordinates": [
          [
            10.9097038,
            48.3708749
          ],
          [
            10.9095141,
            48.3705017
          ],
          [
            10.90933,
            48.3703817
          ],
          [
            10.9078671,
            48.3703561
          ],
          [
            10.9059181,
            48.37005
          ],
          [
            10.9049785,
            48.3702351
          ],
          [
            10.9035563,
            48.3703113
          ],
          [
            10.9024131,
            48.3705245
          ]
        ]
      }
    },
    {
      "type": "Feature",
      "properties": {
        "segment_id": 19,
        "start_stop": "0",
        "end_stop": "2",
        "bus": "23",
        "timestamps": [
          4200.0,
          4240.0,
          4280.0,
          4320.0
        ]
      },
      "geometry": {
        "type": "LineString",
        "coordinates": [
          [
            10.9024131,
            48.3705245
          ],
          [
            10.90042,
            48.3706678
          ],
          [
            10.8979802,
            48.3705493
          ],
          [
            10.8973349,
            48.3704369
          ]
        ]
      }
    },
    {
      "type": "Feature",
      "properties": {
        "segment_id": 20,
        "start_stop": "2",
        "end_stop": "8",
        "bus": "23",
        "timestamps": [
          4350.0,
          4390.0,
          4430.0,
          4470.0
        ]
      },
      "geometry": {
        "type": "LineString",
        "coordinates": [
          [
            10.8973349,
            48.3704369
          ],
          [
            10.8966359,
            48.3702282
          ],
          [
            10.8932394,
            48.3698249
          ],
          [
            10.8921595,
            48.3693998
          ]
        ]
      }
    },
    {
      "type": "Feature",
      "properties": {
        "segment_id": 21,
        "start_stop": "8",
        "end_stop": "12",
        "bus": "23",
        "timestamps": [
          4500.0,
          4530.0,
          4560.0,
          4590.0,
          4620.0
        ]
      },
      "geometry": {
        "type": "LineString",
        "coordinates": [
          [
            10.8921595,
            48.3693998
          ],
          [
            10.8891662,
            48.3679578
          ],
          [
            10.8890211,
            48.3677849
          ],
          [
            10.8889738,
            48.3675177
          ],
          [
            10.8885818,
            48.3673518
          ]
        ]
      }
    },
    {
      "type": "Feature",
      "properties": {
        "segment_id": 22,
        "start_stop": "12",
        "end_stop": "7",
        "bus": "23",
        "timestamps": [
          4650.0,
          4680.0,
          4710.0,
          4740.0,
          4770.0
        ]
      },
      "geometry": {
        "type": "LineString",
        "coordinates": [
          [
            10.8885818,
            48.3673518
          ],
          [
            10.8868324,
            48.3667339
          ],
          [
            10.8877702,
            48.3656787
          ],
          [
            10.8879492,
            48.3655131
          ],
          [
            10.8881204,
            48.36548
          ]
        ]
      }
    },
    {
      "type": "Feature",
      "properties": {
        "segment_id": 23,
        "start_stop": "7",
        "end_stop": "9",
        "bus": "23",
        "timestamps": [
          4800.0,
          4840.0,
          4880.0,
          4920.0
        ]
      },
      "geometry": {
        "type": "LineString",
        "coordinates": [
          [
            10.8881204,
            48.36548
          ],
          [
            10.8929626,
            48.3650299
          ],
          [
            10.8936888,
            48.3650812
          ],
          [
            10.8938971,
            48.3653113
          ]
        ]
      }
    },
    {
      "type": "Feature",
      "properties": {
        "segment_id": 24,
        "start_stop": "9",
        "end_stop": "5",
        "bus": "23",
        "timestamps": [
          4950.0,
          5010.0,
          5070.0
        ]
      },
      "geometry": {
        "type": "LineString",
        "coordinates": [
          [
            10.8938971,
            48.3653113
          ],
          [
            10.9154415,
            48.3914136
          ],
          [
            10.9196522,
            48.3923318
          ]
        ]
      }
    },
    {
      "type": "Feature",
      "properties": {
        "segment_id": 25,
        "start_stop": "5",
        "end_stop": "End",
        "bus": "23",
        "timestamps": [
          5100.0,
          5120.0,
          5140.0,
          5160.0,
          5180.0,
          5200.0,
          5220.0
        ]
      },
      "geometry": {
        "type": "LineString",
        "coordinates": [
          [
            10.9196522,
            48.3923318
          ],
          [
            10.9200453,
            48.3924228
          ],
          [
            10.9201578,
            48.3925221
          ],
          [
            10.9200503,
            48.3924027
          ],
          [
            10.9202584,
            48.3923485
          ],
          [
            10.9203193,
            48.3924626
          ],
          [
            10.9202078,
            48.3925229
          ]
        ]
      }
    }
  ]
}