{
  "type": "FeatureCollection",
  "crs": {
    "type": "name",
    "properties": {
      "name": "urn:ogc:def:crs:OGC:1.3:CRS84"
    }
  },
  "features": [
    {
      "type": "Feature",
      "properties": {
        "segment_id": 1,
        "start_stop": "Start",
        "end_stop": "2",
        "bus": "24",
        "timestamps": [
          2400.0,
          2417.1429,
          2434.2857,
          2451.4286,
          2468.5714,
          2485.7143,
          2502.8571,
          2520.0
        ]
      },
      "geometry": {
        "type": "LineString",
        "coordinates": [
          [
            10.8941732,
            48.2960603
          ],
          [
            10.8921743,
            48.2964245
          ],
          [
            10.8926302,
            48.2974155
          ],
          [
            10.8930136,
            48.297727
          ],
          [
            10.8936451,
            48.2979039
          ],
          [
            10.8966753,
            48.2977504
          ],
          [
            10.8986093,
            48.2973587
          ],
          [
            10.8987912,
            48.2977623
          ]
        ]
      }
    },
    {
      "type": "Feature",
      "properties": {
        "segment_id": 2,
        "start_stop": "2",
        "end_stop": "3",
        "bus": "24",
        "timestamps": [
          2520.0,
          2544.0,
          2568.0,
          2592.0,
          2616.0,
          2640.0
        ]
      },
      "geometry": {
        "type": "LineString",
        "coordinates": [
          [
            10.8987912,
            48.2977623
          ],
          [
            10.8989663,
            48.2980318
          ],
          [
            10.8992159,
            48.2981532
          ],
          [
            10.9008481,
            48.2980855
          ],
          [
            10.9016703,
            48.2982025
          ],
          [
            10.9023304,
            48.2981519
          ]
        ]
      }
    },
    {
      "type": "Feature",
      "properties": {
        "segment_id": 3,
        "start_stop": "3",
        "end_stop": "7",
        "bus": "24",
        "timestamps": [
          2640.0,
          2680.0,
          2720.0,
          2760.0
        ]
      },
      "geometry": {
        "type": "LineString",
        "coordinates": [
          [
            10.9023304,
            48.2981519
          ],
          [
            10.9044634,
            48.2980335
          ],
          [
            10.9045981,
            48.2981554
          ],
          [
            10.9056268,
            48.3001486
          ]
        ]
      }
    },
    {
      "type": "Feature",
      "properties": {
        "segment_id": 4,
        "start_stop": "7",
        "end_stop": "4",
        "bus": "24",
        "timestamps": [
          2760.0,
          2800.0,
          2840.0,
          2880.0
        ]
      },
      "geometry": {
        "type": "LineString",
        "coordinates": [
          [
            10.9056268,
            48.3001486
          ],
          [
            10.9062271,
            48.3010672
          ],
          [
            10.9067614,
            48.302237
          ],
          [
            10.9076909,
            48.3034081
          ]
        ]
      }
    },
    {
      "type": "Feature",
      "properties": {
        "segment_id": 5,
        "start_stop": "4",
        "end_stop": "5",
        "bus": "24",
        "timestamps": [
          2880.0,
          2900.0,
          2920.0,
          2940.0,
          2960.0,
          2980.0,
          3000.0
        ]
      },
      "geometry": {
        "type": "LineString",
        "coordinates": [
          [
            10.9076909,
            48.3034081
          ],
          [
            10.9083557,
            48.3042441
          ],
          [
            10.9085011,
            48.3047875
          ],
          [
            10.9091192,
            48.3056546
          ],
          [
            10.9102032,
            48.3080158
          ],
          [
            10.9102138,
            48.3083335
          ],
          [
            10.9100029,
            48.3090942
          ]
        ]
      }
    },
    {
      "type": "Feature",
      "properties": {
        "segment_id": 6,
        "start_stop": "5",
        "end_stop": "6",
        "bus": "24",
        "timestamps": [
          3000.0,
          3017.1429,
          3034.2857,
          3051.4286,
          3068.5714,
          3085.7143,
          3102.8571,
          3120.0
        ]
      },
      "geometry": {
        "type": "LineString",
        "coordinates": [
          [
            10.9100029,
            48.3090942
          ],
          [
            10.9098005,
            48.3102262
          ],
          [
            10.9100443,
            48.3113269
          ],
          [
            10.9102453,
            48.3114673
          ],
          [
            10.9109709,
            48.3115667
          ],
          [
            10.911152,
            48.3120137
          ],
          [
            10.9106982,
            48.3129182
          ],
          [
            10.9105374,
            48.3137131
          ]
        ]
      }
    },
    {
      "type": "Feature",
      "properties": {
        "segment_id": 7,
        "start_stop": "6",
        "end_stop": "End",
        "bus": "24",
        "timestamps": [
          3120.0,
          3150.0,
          3180.0,
          3210.0,
          3240.0
        ]
      },
      "geometry": {
        "type": "LineString",
        "coordinates": [
          [
            10.9105374,
            48.3137131
          ],
          [
            10.9102826,
            48.3156371
          ],
          [
            10.9091838,
            48.318471
          ],
          [
            10.9090421,
            48.3195106
          ],
          [
            10.90855,
            48.3194936
          ]
        ]
      }
    }
  ]
}