{
  "type": "FeatureCollection",
  "crs": {
    "type": "name",
    "properties": {
      "name": "urn:ogc:def:crs:OGC:1.3:CRS84"
    }
  },
  "features": [
    {
      "type": "Feature",
      "properties": {
        "segment_id": 1,
        "start_stop": "Start",
        "end_stop": "14",
        "bus": "22",
        "timestamps": [
          2100.0,
          2117.1429,
          2134.2857,
          2151.4286,
          2168.5714,
          2185.7143,
          2202.8571,
          2220.0
        ]
      },
      "geometry": {
        "type": "LineString",
        "coordinates": [
          [
            10.8941338,
            48.4077796
          ],
          [
            10.8936945,
            48.4078701
          ],
          [
            10.8934972,
            48.4064393
          ],
          [
            10.8934124,
            48.4063363
          ],
          [
            10.8929207,
            48.4061732
          ],
          [
            10.8926399,
            48.4048031
          ],
          [
            10.8927146,
            48.4039562
          ],
          [
            10.8935118,
            48.4019794
          ]
        ]
      }
    },
    {
      "type": "Feature",
      "properties": {
        "segment_id": 2,
        "start_stop": "14",
        "end_stop": "13",
        "bus": "22",
        "timestamps": [
          2250.0,
          2370.0
        ]
      },
      "geometry": {
        "type": "LineString",
        "coordinates": [
          [
            10.8935118,
            48.4019794
          ],
          [
            10.8962808,
            48.3980074
          ]
        ]
      }
    },
    {
      "type": "Feature",
      "properties": {
        "segment_id": 3,
        "start_stop": "13",
        "end_stop": "10",
        "bus": "22",
        "timestamps": [
          2400.0,
          2520.0
        ]
      },
      "geometry": {
        "type": "LineString",
        "coordinates": [
          [
            10.8962808,
            48.3980074
          ],
          [
            10.8982817,
            48.3952198
          ]
        ]
      }
    },
    {
      "type": "Feature",
      "properties": {
        "segment_id": 4,
        "start_stop": "10",
        "end_stop": "12",
        "bus": "22",
        "timestamps": [
          2550.0,
          2670.0
        ]
      },
      "geometry": {
        "type": "LineString",
        "coordinates": [
          [
            10.8982817,
            48.3952198
          ],
          [
            10.9020781,
            48.3914823
          ]
        ]
      }
    },
    {
      "type": "Feature",
      "properties": {
        "segment_id": 5,
        "start_stop": "12",
        "end_stop": "11",
        "bus": "22",
        "timestamps": [
          2700.0,
          2760.0,
          2820.0
        ]
      },
      "geometry": {
        "type": "LineString",
        "coordinates": [
          [
            10.9020781,
            48.3914823
          ],
          [
            10.9037252,
            48.3899035
          ],
          [
            10.9053749,
            48.3880941
          ]
        ]
      }
    },
    {
      "type": "Feature",
      "properties": {
        "segment_id": 6,
        "start_stop": "11",
        "end_stop": "8",
        "bus": "22",
        "timestamps": [
          2850.0,
          2870.0,
          2890.0,
          2910.0,
          2930.0,
          2950.0,
          2970.0
        ]
      },
      "geometry": {
        "type": "LineString",
        "coordinates": [
          [
            10.9053749,
            48.3880941
          ],
          [
            10.9067532,
            48.3865699
          ],
          [
            10.9072067,
            48.3859478
          ],
          [
            10.907374,
            48.3858963
          ],
          [
            10.9076366,
            48.3854654
          ],
          [
            10.9081316,
            48.3848942
          ],
          [
            10.9083768,
            48.384375
          ]
        ]
      }
    },
    {
      "type": "Feature",
      "properties": {
        "segment_id": 7,
        "start_stop": "8",
        "end_stop": "0",
        "bus": "22",
        "timestamps": [
          3000.0,
          3030.0,
          3060.0,
          3090.0,
          3120.0
        ]
      },
      "geometry": {
        "type": "LineString",
        "coordinates": [
          [
            10.9083768,
            48.384375
          ],
          [
            10.9088072,
            48.3834231
          ],
          [
            10.9091594,
            48.3809818
          ],
          [
            10.9096498,
            48.3802943
          ],
          [
            10.9101986,
            48.3798702
          ]
        ]
      }
    },
    {
      "type": "Feature",
      "properties": {
        "segment_id": 8,
        "start_stop": "0",
        "end_stop": "1",
        "bus": "22",
        "timestamps": [
          3150.0,
          3180.0,
          3210.0,
          3240.0,
          3270.0
        ]
      },
      "geometry": {
        "type": "LineString",
        "coordinates": [
          [
            10.9101986,
            48.3798702
          ],
          [
            10.9134439,
            48.3781349
          ],
          [
            10.9137934,
            48.3786058
          ],
          [
            10.9145195,
            48.3784033
          ],
          [
            10.9142824,
            48.3778705
          ]
        ]
      }
    },
    {
      "type": "Feature",
      "properties": {
        "segment_id": 9,
        "start_stop": "1",
        "end_stop": "9",
        "bus": "22",
        "timestamps": [
          3300.0,
          3340.0,
          3380.0,
          3420.0
        ]
      },
      "geometry": {
        "type": "LineString",
        "coordinates": [
          [
            10.9142824,
            48.3778705
          ],
          [
            10.9138549,
            48.3769258
          ],
          [
            10.9127926,
            48.3753902
          ],
          [
            10.9124101,
            48.3744899
          ]
        ]
      }
    },
    {
      "type": "Feature",
      "properties": {
        "segment_id": 10,
        "start_stop": "9",
        "end_stop": "5",
        "bus": "22",
        "timestamps": [
          3450.0,
          3490.0,
          3530.0,
          3570.0
        ]
      },
      "geometry": {
        "type": "LineString",
        "coordinates": [
          [
            10.9124101,
            48.3744899
          ],
          [
            10.9120288,
            48.3736772
          ],
          [
            10.9101932,
            48.3717465
          ],
          [
            10.9097038,
            48.3708749
          ]
        ]
      }
    },
    {
      "type": "Feature",
      "properties": {
        "segment_id": 11,
        "start_stop": "5",
        "end_stop": "4",
        "bus": "22",
        "timestamps": [
          3600.0,
          3608.0,
          3616.0,
          3624.0,
          3632.0,
          3640.0,
          3648.0,
          3656.0,
          3664.0,
          3672.0,
          3680.0,
          3688.0,
          3696.0,
          3704.0,
          3712.0,
          3720.0
        ]
      },
      "geometry": {
        "type": "LineString",
        "coordinates": [
          [
            10.9097038,
            48.3708749
          ],
          [
            10.9094312,
            48.3704219
          ],
          [
            10.9095107,
            48.3703473
          ],
          [
            10.9094802,
            48.3701541
          ],
          [
            10.9095997,
            48.3695964
          ],
          [
            10.9098199,
            48.3693691
          ],
          [
            10.9104755,
            48.3690266
          ],
          [
            10.9106285,
            48.368833
          ],
          [
            10.910665,
            48.3684989
          ],
          [
            10.9105003,
            48.3682251
          ],
          [
            10.9101374,
            48.3679874
          ],
          [
            10.9098729,
            48.3679173
          ],
          [
            10.9087578,
            48.3678391
          ],
          [
            10.9049915,
            48.3662585
          ],
          [
            10.9046585,
            48.3660056
          ],
          [
            10.904277,
            48.3658448
          ]
        ]
      }
    },
    {
      "type": "Feature",
      "properties": {
        "segment_id": 12,
        "start_stop": "4",
        "end_stop": "15",
        "bus": "22",
        "timestamps": [
          3750.0,
          3770.0,
          3790.0,
          3810.0,
          3830.0,
          3850.0,
          3870.0
        ]
      },
      "geometry": {
        "type": "LineString",
        "coordinates": [
          [
            10.904277,
            48.3658448
          ],
          [
            10.9038318,
            48.3657085
          ],
          [
            10.9043622,
            48.3648363
          ],
          [
            10.9044808,
            48.3633132
          ],
          [
            10.9047953,
            48.3621494
          ],
          [
            10.9043011,
            48.3621842
          ],
          [
            10.9034103,
            48.3620995
          ]
        ]
      }
    },
    {
      "type": "Feature",
      "properties": {
        "segment_id": 13,
        "start_stop": "15",
        "end_stop": "16",
        "bus": "22",
        "timestamps": [
          3900.0,
          3920.0,
          3940.0,
          3960.0,
          3980.0,
          4000.0,
          4020.0
        ]
      },
      "geometry": {
        "type": "LineString",
        "coordinates": [
          [
            10.9034103,
            48.3620995
          ],
          [
            10.9026514,
            48.3619477
          ],
          [
            10.9013897,
            48.3619533
          ],
          [
            10.9005538,
            48.3621726
          ],
          [
            10.9002992,
            48.362327
          ],
          [
            10.9002659,
            48.3629332
          ],
          [
            10.900116,
            48.3632816
          ]
        ]
      }
    },
    {
      "type": "Feature",
      "properties": {
        "segment_id": 14,
        "start_stop": "16",
        "end_stop": "3",
        "bus": "22",
        "timestamps": [
          4050.0,
          4065.0,
          4080.0,
          4095.0,
          4110.0,
          4125.0,
          4140.0,
          4155.0,
          4170.0
        ]
      },
      "geometry": {
        "type": "LineString",
        "coordinates": [
          [
            10.900116,
            48.3632816
          ],
          [
            10.8996113,
            48.364825
          ],
          [
            10.8996868,
            48.3648861
          ],
          [
            10.8996634,
            48.3650767
          ],
          [
            10.8995722,
            48.3652444
          ],
          [
            10.8994201,
            48.3653154
          ],
          [
            10.8986884,
            48.3669126
          ],
          [
            10.8982788,
            48.3672563
          ],
          [
            10.8974953,
            48.3670837
          ]
        ]
      }
    },
    {
      "type": "Feature",
      "properties": {
        "segment_id": 15,
        "start_stop": "3",
        "end_stop": "7",
        "bus": "22",
        "timestamps": [
          4200.0,
          4240.0,
          4280.0,
          4320.0
        ]
      },
      "geometry": {
        "type": "LineString",
        "coordinates": [
          [
            10.8974953,
            48.3670837
          ],
          [
            10.8958507,
            48.3665596
          ],
          [
            10.894765,
            48.3664357
          ],
          [
            10.8938971,
            48.3653113
          ]
        ]
      }
    },
    {
      "type": "Feature",
      "properties": {
        "segment_id": 16,
        "start_stop": "7",
        "end_stop": "End",
        "bus": "22",
        "timestamps": [
          4350.0,
          4390.0,
          4430.0,
          4470.0
        ]
      },
      "geometry": {
        "type": "LineString",
        "coordinates": [
          [
            10.8938971,
            48.3653113
          ],
          [
            10.8936888,
            48.3650812
          ],
          [
            10.8929626,
            48.3650299
          ],
          [
            10.8881204,
            48.36548
          ]
        ]
      }
    }
  ]
}