{"type":"FeatureCollection","features":[{"type":"Feature","geometry":{"type":"Point","coordinates":[12.20555548814074,48.91698071307451]},"properties":{"id":"113","land-id":"09375","name":"Alteglofsheim","population":3180,"area":13.14,"centroid_coordinates":[12.20555548814074,48.91698071307451]}},{"type":"Feature","geometry":{"type":"Point","coordinates":[12.300012179056997,49.09161083260579]},"properties":{"id":"114","land-id":"09375","name":"Altenthann","population":1504,"area":21.47,"centroid_coordinates":[12.300012179056997,49.09161083260579]}},{"type":"Feature","geometry":{"type":"Point","coordinates":[12.28357251239577,48.874566739593384]},"properties":{"id":"115","land-id":"09375","name":"Aufhausen","population":1912,"area":27.24,"centroid_coordinates":[12.28357251239577,48.874566739593384]}},{"type":"Feature","geometry":{"type":"Point","coordinates":[12.294259563682173,49.02327084260423]},"properties":{"id":"116","land-id":"09375","name":"Bach a.d.Donau","population":1966,"area":14.69,"centroid_coordinates":[12.294259563682173,49.02327084260423]}},{"type":"Feature","geometry":{"type":"Point","coordinates":[12.26893974208967,48.99989375946281]},"properties":{"id":"117","land-id":"09375","name":"Barbing","population":5836,"area":30.61,"centroid_coordinates":[12.26893974208967,48.99989375946281]}},{"type":"Feature","geometry":{"type":"Point","coordinates":[11.82133532205922,49.11864832768434]},"properties":{"id":"118","land-id":"09375","name":"Beratzhausen","population":5552,"area":72.58,"centroid_coordinates":[11.82133532205922,49.11864832768434]}},{"type":"Feature","geometry":{"type":"Point","coordinates":[12.24486960491238,49.11157962876138]},"properties":{"id":"119","land-id":"09375","name":"Bernhardswald","population":5396,"area":71.84,"centroid_coordinates":[12.24486960491238,49.11157962876138]}},{"type":"Feature","geometry":{"type":"Point","coordinates":[12.385004789317529,49.074157877262614]},"properties":{"id":"120","land-id":"09375","name":"Brennberg","population":2101,"area":30.49,"centroid_coordinates":[12.385004789317529,49.074157877262614]}},{"type":"Feature","geometry":{"type":"Point","coordinates":[11.918354341733291,49.08585179081276]},"properties":{"id":"122","land-id":"09375","name":"Brunn","population":1633,"area":16.1,"centroid_coordinates":[11.918354341733291,49.08585179081276]}},{"type":"Feature","geometry":{"type":"Point","coordinates":[11.901865033091019,49.029640519912256]},"properties":{"id":"127","land-id":"09375","name":"Deuerling","population":1911,"area":7.11,"centroid_coordinates":[11.901865033091019,49.029640519912256]}},{"type":"Feature","geometry":{"type":"Point","coordinates":[12.226031819775097,49.02914746041909]},"properties":{"id":"130","land-id":"09375","name":"Donaustauf","population":4269,"area":9.71,"centroid_coordinates":[12.226031819775097,49.02914746041909]}},{"type":"Feature","geometry":{"type":"Point","coordinates":[11.925236941504364,49.12286849591258]},"properties":{"id":"131","land-id":"09375","name":"Duggendorf","population":1536,"area":22.87,"centroid_coordinates":[11.925236941504364,49.12286849591258]}},{"type":"Feature","geometry":{"type":"Point","coordinates":[12.229869749691423,48.89457529137213]},"properties":{"id":"143","land-id":"09375","name":"Hagelstadt","population":2001,"area":20.78,"centroid_coordinates":[12.229869749691423,48.89457529137213]}},{"type":"Feature","geometry":{"type":"Point","coordinates":[11.764115296420446,49.04533493552133]},"properties":{"id":"148","land-id":"09375","name":"Hemau","population":9296,"area":122.32,"centroid_coordinates":[11.764115296420446,49.04533493552133]}},{"type":"Feature","geometry":{"type":"Point","coordinates":[12.004106603127687,49.140771039220624]},"properties":{"id":"153","land-id":"09375","name":"Holzheim a.Forst","population":1089,"area":15.64,"centroid_coordinates":[12.004106603127687,49.140771039220624]}},{"type":"Feature","geometry":{"type":"Point","coordinates":[11.939698725064384,49.162391047946855]},"properties":{"id":"156","land-id":"09375","name":"Kallm\u00fcnz","population":2816,"area":43.13,"centroid_coordinates":[11.939698725064384,49.162391047946855]}},{"type":"Feature","geometry":{"type":"Point","coordinates":[12.182293028150776,48.939610707148546]},"properties":{"id":"161","land-id":"09375","name":"K\u00f6fering","population":2819,"area":5.29,"centroid_coordinates":[12.182293028150776,48.939610707148546]}},{"type":"Feature","geometry":{"type":"Point","coordinates":[11.894044239604451,49.06662854455789]},"properties":{"id":"162","land-id":"09375","name":"Laaber","population":5243,"area":29.65,"centroid_coordinates":[11.894044239604451,49.06662854455789]}},{"type":"Feature","geometry":{"type":"Point","coordinates":[12.058925852891193,49.07340529697465]},"properties":{"id":"165","land-id":"09375","name":"Lappersdorf","population":13327,"area":34.46,"centroid_coordinates":[12.058925852891193,49.07340529697465]}},{"type":"Feature","geometry":{"type":"Point","coordinates":[12.261810849793214,48.948561522080105]},"properties":{"id":"170","land-id":"09375","name":"Mintraching","population":4991,"area":53.8,"centroid_coordinates":[12.261810849793214,48.948561522080105]}},{"type":"Feature","geometry":{"type":"Point","coordinates":[12.401926480236412,48.90437027222309]},"properties":{"id":"171","land-id":"09375","name":"M\u00f6tzing","population":1399,"area":36.24,"centroid_coordinates":[12.401926480236412,48.90437027222309]}},{"type":"Feature","geometry":{"type":"Point","coordinates":[12.206935005522464,48.98147647799373]},"properties":{"id":"174","land-id":"09375","name":"Neutraubling","population":14168,"area":9.8,"centroid_coordinates":[12.206935005522464,48.98147647799373]}},{"type":"Feature","geometry":{"type":"Point","coordinates":[11.942227738850058,49.01813290667528]},"properties":{"id":"175","land-id":"09375","name":"Nittendorf","population":8974,"area":33.53,"centroid_coordinates":[11.942227738850058,49.01813290667528]}},{"type":"Feature","geometry":{"type":"Point","coordinates":[12.152147977820624,48.95448168457817]},"properties":{"id":"179","land-id":"09375","name":"Obertraubling","population":8743,"area":24.83,"centroid_coordinates":[12.152147977820624,48.95448168457817]}},{"type":"Feature","geometry":{"type":"Point","coordinates":[12.060575488501481,48.96014949935364]},"properties":{"id":"180","land-id":"09375","name":"Pentling","population":6214,"area":32.59,"centroid_coordinates":[12.060575488501481,48.96014949935364]}},{"type":"Feature","geometry":{"type":"Point","coordinates":[12.010290136121082,49.04709596564702]},"properties":{"id":"181","land-id":"09375","name":"Pettendorf","population":3432,"area":24.55,"centroid_coordinates":[12.010290136121082,49.04709596564702]}},{"type":"Feature","geometry":{"type":"Point","coordinates":[12.219969317244544,48.8596093585082]},"properties":{"id":"182","land-id":"09375","name":"Pfakofen","population":1604,"area":15.27,"centroid_coordinates":[12.219969317244544,48.8596093585082]}},{"type":"Feature","geometry":{"type":"Point","coordinates":[12.380764550065834,48.96033342370435]},"properties":{"id":"183","land-id":"09375","name":"Pfatter","population":3152,"area":48.13,"centroid_coordinates":[12.380764550065834,48.96033342370435]}},{"type":"Feature","geometry":{"type":"Point","coordinates":[11.976904739181798,49.07745591596811]},"properties":{"id":"184","land-id":"09375","name":"Pielenhofen","population":1670,"area":14.62,"centroid_coordinates":[11.976904739181798,49.07745591596811]}},{"type":"Feature","geometry":{"type":"Point","coordinates":[12.128180773748113,49.145341688950914]},"properties":{"id":"190","land-id":"09375","name":"Regenstauf","population":15869,"area":104.01,"centroid_coordinates":[12.128180773748113,49.145341688950914]}},{"type":"Feature","geometry":{"type":"Point","coordinates":[12.334973963676953,48.91859903827087]},"properties":{"id":"191","land-id":"09375","name":"Riekofen","population":778,"area":23.9,"centroid_coordinates":[12.334973963676953,48.91859903827087]}},{"type":"Feature","geometry":{"type":"Point","coordinates":[12.158737610891261,48.82561114313057]},"properties":{"id":"196","land-id":"09375","name":"Schierling","population":8134,"area":77.5,"centroid_coordinates":[12.158737610891261,48.82561114313057]}},{"type":"Feature","geometry":{"type":"Point","coordinates":[11.979433383507343,48.9847587343481]},"properties":{"id":"199","land-id":"09375","name":"Sinzing","population":7312,"area":44.15,"centroid_coordinates":[11.979433383507343,48.9847587343481]}},{"type":"Feature","geometry":{"type":"Point","coordinates":[12.355146121316915,48.870496940304385]},"properties":{"id":"201","land-id":"09375","name":"S\u00fcnching","population":2213,"area":19.46,"centroid_coordinates":[12.355146121316915,48.870496940304385]}},{"type":"Feature","geometry":{"type":"Point","coordinates":[12.183111363645796,49.030379507330146]},"properties":{"id":"204","land-id":"09375","name":"Tegernheim","population":5572,"area":11.43,"centroid_coordinates":[12.183111363645796,49.030379507330146]}},{"type":"Feature","geometry":{"type":"Point","coordinates":[12.141120108582971,48.90742070256648]},"properties":{"id":"205","land-id":"09375","name":"Thalmassing","population":3575,"area":37.16,"centroid_coordinates":[12.141120108582971,48.90742070256648]}},{"type":"Feature","geometry":{"type":"Point","coordinates":[12.17720697066058,49.07568941288825]},"properties":{"id":"208","land-id":"09375","name":"Wenzenbach","population":8744,"area":29.85,"centroid_coordinates":[12.17720697066058,49.07568941288825]}},{"type":"Feature","geometry":{"type":"Point","coordinates":[12.36969954468887,49.027863545591494]},"properties":{"id":"209","land-id":"09375","name":"Wiesent","population":2625,"area":26.78,"centroid_coordinates":[12.36969954468887,49.027863545591494]}},{"type":"Feature","geometry":{"type":"Point","coordinates":[12.421831915886587,49.00466211124863]},"properties":{"id":"210","land-id":"09375","name":"W\u00f6rth a.d.Donau","population":5150,"area":52.28,"centroid_coordinates":[12.421831915886587,49.00466211124863]}},{"type":"Feature","geometry":{"type":"Point","coordinates":[11.982593597020392,49.105095306131716]},"properties":{"id":"211","land-id":"09375","name":"Wolfsegg","population":1496,"area":15.38,"centroid_coordinates":[11.982593597020392,49.105095306131716]}},{"type":"Feature","geometry":{"type":"Point","coordinates":[12.122693845339152,49.088868522229255]},"properties":{"id":"213","land-id":"09375","name":"Zeitlarn","population":5363,"area":16.07,"centroid_coordinates":[12.122693845339152,49.088868522229255]}}]}