{"type":"FeatureCollection","features":[{"type":"Feature","geometry":{"type":"Point","coordinates":[11.766820748545875,49.4395322095657]},"properties":{"id":"111","land-id":"09371","name":"Ammerthal","population":2068,"area":8.14,"centroid_coordinates":[11.766820748545875,49.4395322095657]}},{"type":"Feature","geometry":{"type":"Point","coordinates":[11.609827288971847,49.693688033840864]},"properties":{"id":"113","land-id":"09371","name":"Auerbach i.d.OPf.","population":8890,"area":78.1,"centroid_coordinates":[11.609827288971847,49.693688033840864]}},{"type":"Feature","geometry":{"type":"Point","coordinates":[11.617038690637477,49.43402289596781]},"properties":{"id":"116","land-id":"09371","name":"Birgland","population":1825,"area":62.43,"centroid_coordinates":[11.617038690637477,49.43402289596781]}},{"type":"Feature","geometry":{"type":"Point","coordinates":[11.99546524692564,49.383274825283515]},"properties":{"id":"118","land-id":"09371","name":"Ebermannsdorf","population":2389,"area":45.19,"centroid_coordinates":[11.99546524692564,49.383274825283515]}},{"type":"Feature","geometry":{"type":"Point","coordinates":[11.711416130845446,49.582714768756084]},"properties":{"id":"119","land-id":"09371","name":"Edelsfeld","population":1995,"area":34.66,"centroid_coordinates":[11.711416130845446,49.582714768756084]}},{"type":"Feature","geometry":{"type":"Point","coordinates":[11.918190950380426,49.352038495407704]},"properties":{"id":"120","land-id":"09371","name":"Ensdorf","population":2158,"area":59.13,"centroid_coordinates":[11.918190950380426,49.352038495407704]}},{"type":"Feature","geometry":{"type":"Point","coordinates":[11.907799281543877,49.60893572680833]},"properties":{"id":"121","land-id":"09371","name":"Freihung","population":2540,"area":46.48,"centroid_coordinates":[11.907799281543877,49.60893572680833]}},{"type":"Feature","geometry":{"type":"Point","coordinates":[11.969060583025582,49.46851917891552]},"properties":{"id":"122","land-id":"09371","name":"Freudenberg","population":4079,"area":82.07,"centroid_coordinates":[11.969060583025582,49.46851917891552]}},{"type":"Feature","geometry":{"type":"Point","coordinates":[11.872609041960947,49.54725086243025]},"properties":{"id":"123","land-id":"09371","name":"Gebenbach","population":862,"area":18.2,"centroid_coordinates":[11.872609041960947,49.54725086243025]}},{"type":"Feature","geometry":{"type":"Point","coordinates":[11.811561989484755,49.53751513575146]},"properties":{"id":"126","land-id":"09371","name":"Hahnbach","population":5005,"area":67.34,"centroid_coordinates":[11.811561989484755,49.53751513575146]}},{"type":"Feature","geometry":{"type":"Point","coordinates":[11.941690987698589,49.55107376239397]},"properties":{"id":"127","land-id":"09371","name":"Hirschau","population":5696,"area":74.93,"centroid_coordinates":[11.941690987698589,49.55107376239397]}},{"type":"Feature","geometry":{"type":"Point","coordinates":[11.585763582540025,49.574425319878074]},"properties":{"id":"128","land-id":"09371","name":"Hirschbach","population":1207,"area":31.08,"centroid_coordinates":[11.585763582540025,49.574425319878074]}},{"type":"Feature","geometry":{"type":"Point","coordinates":[11.817645346394746,49.31228420756423]},"properties":{"id":"129","land-id":"09371","name":"Hohenburg","population":1775,"area":39.35,"centroid_coordinates":[11.817645346394746,49.31228420756423]}},{"type":"Feature","geometry":{"type":"Point","coordinates":[11.696454594438286,49.454214274589525]},"properties":{"id":"131","land-id":"09371","name":"Illschwang","population":2109,"area":54.2,"centroid_coordinates":[11.696454594438286,49.454214274589525]}},{"type":"Feature","geometry":{"type":"Point","coordinates":[11.688559543269516,49.364894578924854]},"properties":{"id":"132","land-id":"09371","name":"Kastl","population":2515,"area":64.85,"centroid_coordinates":[11.688559543269516,49.364894578924854]}},{"type":"Feature","geometry":{"type":"Point","coordinates":[11.641138212156685,49.61057022672012]},"properties":{"id":"135","land-id":"09371","name":"K\u00f6nigstein","population":1731,"area":35.18,"centroid_coordinates":[11.641138212156685,49.61057022672012]}},{"type":"Feature","geometry":{"type":"Point","coordinates":[11.889770774787515,49.40899595603728]},"properties":{"id":"136","land-id":"09371","name":"K\u00fcmmersbruck","population":9856,"area":46.45,"centroid_coordinates":[11.889770774787515,49.40899595603728]}},{"type":"Feature","geometry":{"type":"Point","coordinates":[11.581954303195648,49.53465207130149]},"properties":{"id":"140","land-id":"09371","name":"Etzelwang","population":1396,"area":21.67,"centroid_coordinates":[11.581954303195648,49.53465207130149]}},{"type":"Feature","geometry":{"type":"Point","coordinates":[11.64836410020828,49.53227493154619]},"properties":{"id":"141","land-id":"09371","name":"Neukirchen b.Sulzbach-Rosenberg","population":2488,"area":45.79,"centroid_coordinates":[11.64836410020828,49.53227493154619]}},{"type":"Feature","geometry":{"type":"Point","coordinates":[11.814681091512119,49.47927460958726]},"properties":{"id":"144","land-id":"09371","name":"Poppenricht","population":3371,"area":11.62,"centroid_coordinates":[11.814681091512119,49.47927460958726]}},{"type":"Feature","geometry":{"type":"Point","coordinates":[11.929520354535804,49.30871461494668]},"properties":{"id":"146","land-id":"09371","name":"Rieden","population":2635,"area":32.28,"centroid_coordinates":[11.929520354535804,49.30871461494668]}},{"type":"Feature","geometry":{"type":"Point","coordinates":[11.922275673741591,49.26858904872684]},"properties":{"id":"148","land-id":"09371","name":"Schmidm\u00fchlen","population":2342,"area":25.48,"centroid_coordinates":[11.922275673741591,49.26858904872684]}},{"type":"Feature","geometry":{"type":"Point","coordinates":[12.043454917391754,49.53721751998282]},"properties":{"id":"150","land-id":"09371","name":"Schnaittenbach","population":4305,"area":63.42,"centroid_coordinates":[12.043454917391754,49.53721751998282]}},{"type":"Feature","geometry":{"type":"Point","coordinates":[11.736653230700245,49.50620303967073]},"properties":{"id":"151","land-id":"09371","name":"Sulzbach-Rosenberg","population":19398,"area":53.16,"centroid_coordinates":[11.736653230700245,49.50620303967073]}},{"type":"Feature","geometry":{"type":"Point","coordinates":[11.784966112691295,49.37930595885262]},"properties":{"id":"154","land-id":"09371","name":"Ursensollen","population":3832,"area":74.76,"centroid_coordinates":[11.784966112691295,49.37930595885262]}},{"type":"Feature","geometry":{"type":"Point","coordinates":[11.798486824167966,49.61188123478949]},"properties":{"id":"156","land-id":"09371","name":"Vilseck","population":6313,"area":64.65,"centroid_coordinates":[11.798486824167966,49.61188123478949]}},{"type":"Feature","geometry":{"type":"Point","coordinates":[11.583407222743016,49.50036201488023]},"properties":{"id":"157","land-id":"09371","name":"Weigendorf","population":1251,"area":12.56,"centroid_coordinates":[11.583407222743016,49.50036201488023]}}]}