{"type":"FeatureCollection","features":[{"type":"Feature","geometry":{"type":"Point","coordinates":[11.766820748545875,49.4395322095657]},"properties":{"id":"111","land-id":"09371","name":"Ammerthal","population":2068,"area":8.14,"centroid_coordinates":[11.766820748545875,49.4395322095657]}},{"type":"Feature","geometry":{"type":"Point","coordinates":[11.609827288971847,49.693688033840864]},"properties":{"id":"113","land-id":"09371","name":"Auerbach i.d.OPf.","population":8890,"area":78.1,"centroid_coordinates":[11.609827288971847,49.693688033840864]}},{"type":"Feature","geometry":{"type":"Point","coordinates":[11.617038690637477,49.43402289596781]},"properties":{"id":"116","land-id":"09371","name":"Birgland","population":1825,"area":62.43,"centroid_coordinates":[11.617038690637477,49.43402289596781]}},{"type":"Feature","geometry":{"type":"Point","coordinates":[11.99546524692564,49.383274825283515]},"properties":{"id":"118","land-id":"09371","name":"Ebermannsdorf","population":2389,"area":45.19,"centroid_coordinates":[11.99546524692564,49.383274825283515]}},{"type":"Feature","geometry":{"type":"Point","coordinates":[11.711416130845446,49.582714768756084]},"properties":{"id":"119","land-id":"09371","name":"Edelsfeld","population":1995,"area":34.66,"centroid_coordinates":[11.711416130845446,49.582714768756084]}},{"type":"Feature","geometry":{"type":"Point","coordinates":[11.918190950380426,49.352038495407704]},"properties":{"id":"120","land-id":"09371","name":"Ensdorf","population":2158,"area":59.13,"centroid_coordinates":[11.918190950380426,49.352038495407704]}},{"type":"Feature","geometry":{"type":"Point","coordinates":[11.907799281543877,49.60893572680833]},"properties":{"id":"121","land-id":"09371","name":"Freihung","population":2540,"area":46.48,"centroid_coordinates":[11.907799281543877,49.60893572680833]}},{"type":"Feature","geometry":{"type":"Point","coordinates":[11.969060583025582,49.46851917891552]},"properties":{"id":"122","land-id":"09371","name":"Freudenberg","population":4079,"area":82.07,"centroid_coordinates":[11.969060583025582,49.46851917891552]}},{"type":"Feature","geometry":{"type":"Point","coordinates":[11.872609041960947,49.54725086243025]},"properties":{"id":"123","land-id":"09371","name":"Gebenbach","population":862,"area":18.2,"centroid_coordinates":[11.872609041960947,49.54725086243025]}},{"type":"Feature","geometry":{"type":"Point","coordinates":[11.811561989484755,49.53751513575146]},"properties":{"id":"126","land-id":"09371","name":"Hahnbach","population":5005,"area":67.34,"centroid_coordinates":[11.811561989484755,49.53751513575146]}},{"type":"Feature","geometry":{"type":"Point","coordinates":[11.941690987698589,49.55107376239397]},"properties":{"id":"127","land-id":"09371","name":"Hirschau","population":5696,"area":74.93,"centroid_coordinates":[11.941690987698589,49.55107376239397]}},{"type":"Feature","geometry":{"type":"Point","coordinates":[11.585763582540025,49.574425319878074]},"properties":{"id":"128","land-id":"09371","name":"Hirschbach","population":1207,"area":31.08,"centroid_coordinates":[11.585763582540025,49.574425319878074]}},{"type":"Feature","geometry":{"type":"Point","coordinates":[11.817645346394746,49.31228420756423]},"properties":{"id":"129","land-id":"09371","name":"Hohenburg","population":1775,"area":39.35,"centroid_coordinates":[11.817645346394746,49.31228420756423]}},{"type":"Feature","geometry":{"type":"Point","coordinates":[11.696454594438286,49.454214274589525]},"properties":{"id":"131","land-id":"09371","name":"Illschwang","population":2109,"area":54.2,"centroid_coordinates":[11.696454594438286,49.454214274589525]}},{"type":"Feature","geometry":{"type":"Point","coordinates":[11.688559543269516,49.364894578924854]},"properties":{"id":"132","land-id":"09371","name":"Kastl","population":2515,"area":64.85,"centroid_coordinates":[11.688559543269516,49.364894578924854]}},{"type":"Feature","geometry":{"type":"Point","coordinates":[11.641138212156685,49.61057022672012]},"properties":{"id":"135","land-id":"09371","name":"K\u00f6nigstein","population":1731,"area":35.18,"centroid_coordinates":[11.641138212156685,49.61057022672012]}},{"type":"Feature","geometry":{"type":"Point","coordinates":[11.889770774787515,49.40899595603728]},"properties":{"id":"136","land-id":"09371","name":"K\u00fcmmersbruck","population":9856,"area":46.45,"centroid_coordinates":[11.889770774787515,49.40899595603728]}},{"type":"Feature","geometry":{"type":"Point","coordinates":[11.581954303195648,49.53465207130149]},"properties":{"id":"140","land-id":"09371","name":"Etzelwang","population":1396,"area":21.67,"centroid_coordinates":[11.581954303195648,49.53465207130149]}},{"type":"Feature","geometry":{"type":"Point","coordinates":[11.64836410020828,49.53227493154619]},"properties":{"id":"141","land-id":"09371","name":"Neukirchen b.Sulzbach-Rosenberg","population":2488,"area":45.79,"centroid_coordinates":[11.64836410020828,49.53227493154619]}},{"type":"Feature","geometry":{"type":"Point","coordinates":[11.814681091512119,49.47927460958726]},"properties":{"id":"144","land-id":"09371","name":"Poppenricht","population":3371,"area":11.62,"centroid_coordinates":[11.814681091512119,49.47927460958726]}},{"type":"Feature","geometry":{"type":"Point","coordinates":[11.929520354535804,49.30871461494668]},"properties":{"id":"146","land-id":"09371","name":"Rieden","population":2635,"area":32.28,"centroid_coordinates":[11.929520354535804,49.30871461494668]}},{"type":"Feature","geometry":{"type":"Point","coordinates":[11.922275673741591,49.26858904872684]},"properties":{"id":"148","land-id":"09371","name":"Schmidm\u00fchlen","population":2342,"area":25.48,"centroid_coordinates":[11.922275673741591,49.26858904872684]}},{"type":"Feature","geometry":{"type":"Point","coordinates":[12.043454917391754,49.53721751998282]},"properties":{"id":"150","land-id":"09371","name":"Schnaittenbach","population":4305,"area":63.42,"centroid_coordinates":[12.043454917391754,49.53721751998282]}},{"type":"Feature","geometry":{"type":"Point","coordinates":[11.736653230700245,49.50620303967073]},"properties":{"id":"151","land-id":"09371","name":"Sulzbach-Rosenberg","population":19398,"area":53.16,"centroid_coordinates":[11.736653230700245,49.50620303967073]}},{"type":"Feature","geometry":{"type":"Point","coordinates":[11.784966112691295,49.37930595885262]},"properties":{"id":"154","land-id":"09371","name":"Ursensollen","population":3832,"area":74.76,"centroid_coordinates":[11.784966112691295,49.37930595885262]}},{"type":"Feature","geometry":{"type":"Point","coordinates":[11.798486824167966,49.61188123478949]},"properties":{"id":"156","land-id":"09371","name":"Vilseck","population":6313,"area":64.65,"centroid_coordinates":[11.798486824167966,49.61188123478949]}},{"type":"Feature","geometry":{"type":"Point","coordinates":[11.583407222743016,49.50036201488023]},"properties":{"id":"157","land-id":"09371","name":"Weigendorf","population":1251,"area":12.56,"centroid_coordinates":[11.583407222743016,49.50036201488023]}},{"type":"Feature","geometry":{"type":"Point","coordinates":[12.817911293316843,49.265047985476244]},"properties":{"id":"112","land-id":"09372","name":"Arnschwang","population":1972,"area":28.26,"centroid_coordinates":[12.817911293316843,49.265047985476244]}},{"type":"Feature","geometry":{"type":"Point","coordinates":[12.993837377557716,49.193129858977336]},"properties":{"id":"113","land-id":"09372","name":"Arrach","population":2308,"area":28.82,"centroid_coordinates":[12.993837377557716,49.193129858977336]}},{"type":"Feature","geometry":{"type":"Point","coordinates":[12.814714882119612,49.162597850375754]},"properties":{"id":"115","land-id":"09372","name":"Blaibach","population":1885,"area":17.0,"centroid_coordinates":[12.814714882119612,49.162597850375754]}},{"type":"Feature","geometry":{"type":"Point","coordinates":[12.665700274615608,49.20997443999233]},"properties":{"id":"116","land-id":"09372","name":"Cham","population":17467,"area":80.7,"centroid_coordinates":[12.665700274615608,49.20997443999233]}},{"type":"Feature","geometry":{"type":"Point","coordinates":[12.769491464799055,49.19644547549553]},"properties":{"id":"117","land-id":"09372","name":"Chamerau","population":2517,"area":23.43,"centroid_coordinates":[12.769491464799055,49.19644547549553]}},{"type":"Feature","geometry":{"type":"Point","coordinates":[12.937381641567612,49.2981172365971]},"properties":{"id":"124","land-id":"09372","name":"Eschlkam","population":3347,"area":60.45,"centroid_coordinates":[12.937381641567612,49.2981172365971]}},{"type":"Feature","geometry":{"type":"Point","coordinates":[12.484552050350969,49.10151700719143]},"properties":{"id":"125","land-id":"09372","name":"Falkenstein","population":3405,"area":45.5,"centroid_coordinates":[12.484552050350969,49.10151700719143]}},{"type":"Feature","geometry":{"type":"Point","coordinates":[12.834642333307594,49.30953592763291]},"properties":{"id":"126","land-id":"09372","name":"Furth im Wald","population":8697,"area":67.04,"centroid_coordinates":[12.834642333307594,49.30953592763291]}},{"type":"Feature","geometry":{"type":"Point","coordinates":[12.74368817903406,49.32472690664739]},"properties":{"id":"128","land-id":"09372","name":"Glei\u00dfenberg","population":806,"area":15.31,"centroid_coordinates":[12.74368817903406,49.32472690664739]}},{"type":"Feature","geometry":{"type":"Point","coordinates":[12.879557091866019,49.20345688951417]},"properties":{"id":"130","land-id":"09372","name":"Grafenwiesen","population":1534,"area":10.19,"centroid_coordinates":[12.879557091866019,49.20345688951417]}},{"type":"Feature","geometry":{"type":"Point","coordinates":[12.938012222891446,49.20160999445791]},"properties":{"id":"135","land-id":"09372","name":"Hohenwarth","population":1905,"area":24.25,"centroid_coordinates":[12.938012222891446,49.20160999445791]}},{"type":"Feature","geometry":{"type":"Point","coordinates":[12.879018520736407,49.170349040057935]},"properties":{"id":"137","land-id":"09372","name":"Bad K\u00f6tzting","population":7487,"area":62.18,"centroid_coordinates":[12.879018520736407,49.170349040057935]}},{"type":"Feature","geometry":{"type":"Point","coordinates":[13.053227410671273,49.1990643181653]},"properties":{"id":"138","land-id":"09372","name":"Lam","population":2594,"area":33.27,"centroid_coordinates":[13.053227410671273,49.1990643181653]}},{"type":"Feature","geometry":{"type":"Point","coordinates":[12.541324102731673,49.12180794636298]},"properties":{"id":"142","land-id":"09372","name":"Michelsneukirchen","population":1739,"area":32.85,"centroid_coordinates":[12.541324102731673,49.12180794636298]}},{"type":"Feature","geometry":{"type":"Point","coordinates":[12.774625237777993,49.145743819687084]},"properties":{"id":"143","land-id":"09372","name":"Miltach","population":2270,"area":25.25,"centroid_coordinates":[12.774625237777993,49.145743819687084]}},{"type":"Feature","geometry":{"type":"Point","coordinates":[13.001060432435711,49.255257462605314]},"properties":{"id":"144","land-id":"09372","name":"Neukirchen b.Hl.Blut","population":3659,"area":59.87,"centroid_coordinates":[13.001060432435711,49.255257462605314]}},{"type":"Feature","geometry":{"type":"Point","coordinates":[12.607769889668639,49.27550800232788]},"properties":{"id":"146","land-id":"09372","name":"Pemfling","population":2173,"area":44.57,"centroid_coordinates":[12.607769889668639,49.27550800232788]}},{"type":"Feature","geometry":{"type":"Point","coordinates":[12.550377072607318,49.233940230829205]},"properties":{"id":"147","land-id":"09372","name":"P\u00f6sing","population":1015,"area":9.16,"centroid_coordinates":[12.550377072607318,49.233940230829205]}},{"type":"Feature","geometry":{"type":"Point","coordinates":[12.347102635575327,49.17903716367405]},"properties":{"id":"149","land-id":"09372","name":"Reichenbach","population":1297,"area":10.5,"centroid_coordinates":[12.347102635575327,49.17903716367405]}},{"type":"Feature","geometry":{"type":"Point","coordinates":[12.45693408331779,49.06363334505417]},"properties":{"id":"150","land-id":"09372","name":"Rettenbach","population":1812,"area":27.12,"centroid_coordinates":[12.45693408331779,49.06363334505417]}},{"type":"Feature","geometry":{"type":"Point","coordinates":[12.885688611199585,49.23453660425753]},"properties":{"id":"151","land-id":"09372","name":"Rimbach","population":1793,"area":24.74,"centroid_coordinates":[12.885688611199585,49.23453660425753]}},{"type":"Feature","geometry":{"type":"Point","coordinates":[12.480437981364249,49.20597094137424]},"properties":{"id":"153","land-id":"09372","name":"Roding","population":12933,"area":119.71,"centroid_coordinates":[12.480437981364249,49.20597094137424]}},{"type":"Feature","geometry":{"type":"Point","coordinates":[12.530871155008267,49.35245437352901]},"properties":{"id":"154","land-id":"09372","name":"R\u00f6tz","population":3213,"area":66.65,"centroid_coordinates":[12.530871155008267,49.35245437352901]}},{"type":"Feature","geometry":{"type":"Point","coordinates":[12.757031230656503,49.222243667665154]},"properties":{"id":"155","land-id":"09372","name":"Runding","population":2234,"area":20.96,"centroid_coordinates":[12.757031230656503,49.222243667665154]}},{"type":"Feature","geometry":{"type":"Point","coordinates":[12.602032121606282,49.35400465654307]},"properties":{"id":"157","land-id":"09372","name":"Sch\u00f6nthal","population":1962,"area":43.65,"centroid_coordinates":[12.602032121606282,49.35400465654307]}},{"type":"Feature","geometry":{"type":"Point","coordinates":[12.596061751550295,49.16752066381212]},"properties":{"id":"158","land-id":"09372","name":"Schorndorf","population":3002,"area":38.56,"centroid_coordinates":[12.596061751550295,49.16752066381212]}},{"type":"Feature","geometry":{"type":"Point","coordinates":[12.523547937406695,49.27412962971982]},"properties":{"id":"161","land-id":"09372","name":"Stamsried","population":2218,"area":43.42,"centroid_coordinates":[12.523547937406695,49.27412962971982]}},{"type":"Feature","geometry":{"type":"Point","coordinates":[12.590016478740157,49.44237715402195]},"properties":{"id":"163","land-id":"09372","name":"Tiefenbach","population":1877,"area":45.77,"centroid_coordinates":[12.590016478740157,49.44237715402195]}},{"type":"Feature","geometry":{"type":"Point","coordinates":[12.647424318763306,49.131221807303824]},"properties":{"id":"164","land-id":"09372","name":"Traitsching","population":4232,"area":45.34,"centroid_coordinates":[12.647424318763306,49.131221807303824]}},{"type":"Feature","geometry":{"type":"Point","coordinates":[12.625980290978067,49.41831816725038]},"properties":{"id":"165","land-id":"09372","name":"Treffelstein","population":978,"area":20.89,"centroid_coordinates":[12.625980290978067,49.41831816725038]}},{"type":"Feature","geometry":{"type":"Point","coordinates":[12.416216395191297,49.140660804302215]},"properties":{"id":"167","land-id":"09372","name":"Zell","population":1817,"area":32.9,"centroid_coordinates":[12.416216395191297,49.140660804302215]}},{"type":"Feature","geometry":{"type":"Point","coordinates":[12.667123266293292,49.28498473320118]},"properties":{"id":"168","land-id":"09372","name":"Waffenbrunn","population":2045,"area":25.14,"centroid_coordinates":[12.667123266293292,49.28498473320118]}},{"type":"Feature","geometry":{"type":"Point","coordinates":[12.351624400047323,49.12841333740377]},"properties":{"id":"169","land-id":"09372","name":"Wald","population":2984,"area":37.79,"centroid_coordinates":[12.351624400047323,49.12841333740377]}},{"type":"Feature","geometry":{"type":"Point","coordinates":[12.391163772380787,49.19809039250652]},"properties":{"id":"170","land-id":"09372","name":"Walderbach","population":2333,"area":34.96,"centroid_coordinates":[12.391163772380787,49.19809039250652]}},{"type":"Feature","geometry":{"type":"Point","coordinates":[12.697324130636046,49.367903667287955]},"properties":{"id":"171","land-id":"09372","name":"Waldm\u00fcnchen","population":6591,"area":101.19,"centroid_coordinates":[12.697324130636046,49.367903667287955]}},{"type":"Feature","geometry":{"type":"Point","coordinates":[12.751931441725187,49.26774012024441]},"properties":{"id":"174","land-id":"09372","name":"Weiding","population":2415,"area":28.19,"centroid_coordinates":[12.751931441725187,49.26774012024441]}},{"type":"Feature","geometry":{"type":"Point","coordinates":[12.682688191562903,49.25053760732877]},"properties":{"id":"175","land-id":"09372","name":"Willmering","population":1997,"area":10.31,"centroid_coordinates":[12.682688191562903,49.25053760732877]}},{"type":"Feature","geometry":{"type":"Point","coordinates":[12.723899966985627,49.143621374848586]},"properties":{"id":"177","land-id":"09372","name":"Zandt","population":2061,"area":21.62,"centroid_coordinates":[12.723899966985627,49.143621374848586]}},{"type":"Feature","geometry":{"type":"Point","coordinates":[13.108022669578537,49.15998353400532]},"properties":{"id":"178","land-id":"09372","name":"Lohberg","population":1794,"area":59.33,"centroid_coordinates":[13.108022669578537,49.15998353400532]}},{"type":"Feature","geometry":{"type":"Point","coordinates":[11.466711075936578,49.11807506510384]},"properties":{"id":"112","land-id":"09373","name":"Berching","population":9034,"area":131.35,"centroid_coordinates":[11.466711075936578,49.11807506510384]}},{"type":"Feature","geometry":{"type":"Point","coordinates":[11.442949651832796,49.35317490249002]},"properties":{"id":"113","land-id":"09373","name":"Berg b.Neumarkt i.d.OPf.","population":7998,"area":65.1,"centroid_coordinates":[11.442949651832796,49.35317490249002]}},{"type":"Feature","geometry":{"type":"Point","coordinates":[11.385302894036005,49.251246147436795]},"properties":{"id":"114","land-id":"09373","name":"Berngau","population":2645,"area":27.05,"centroid_coordinates":[11.385302894036005,49.251246147436795]}},{"type":"Feature","geometry":{"type":"Point","coordinates":[11.632330106879,49.09174479152122]},"properties":{"id":"115","land-id":"09373","name":"Breitenbrunn","population":3672,"area":70.81,"centroid_coordinates":[11.632330106879,49.09174479152122]}},{"type":"Feature","geometry":{"type":"Point","coordinates":[11.539375532341055,49.212940931080716]},"properties":{"id":"119","land-id":"09373","name":"Deining","population":5395,"area":71.25,"centroid_coordinates":[11.539375532341055,49.212940931080716]}},{"type":"Feature","geometry":{"type":"Point","coordinates":[11.590868958682444,49.029055378449335]},"properties":{"id":"121","land-id":"09373","name":"Dietfurt a.d.Altm\u00fchl","population":6394,"area":78.7,"centroid_coordinates":[11.590868958682444,49.029055378449335]}},{"type":"Feature","geometry":{"type":"Point","coordinates":[11.34056066915757,49.18498000778932]},"properties":{"id":"126","land-id":"09373","name":"Freystadt","population":9093,"area":80.53,"centroid_coordinates":[11.34056066915757,49.18498000778932]}},{"type":"Feature","geometry":{"type":"Point","coordinates":[11.851387124119826,49.22587206133031]},"properties":{"id":"134","land-id":"09373","name":"Hohenfels","population":2309,"area":136.97,"centroid_coordinates":[11.851387124119826,49.22587206133031]}},{"type":"Feature","geometry":{"type":"Point","coordinates":[11.5652226761956,49.372774063712335]},"properties":{"id":"140","land-id":"09373","name":"Lauterhofen","population":3739,"area":83.09,"centroid_coordinates":[11.5652226761956,49.372774063712335]}},{"type":"Feature","geometry":{"type":"Point","coordinates":[11.757935038638504,49.15770985012667]},"properties":{"id":"143","land-id":"09373","name":"Lupburg","population":2572,"area":30.64,"centroid_coordinates":[11.757935038638504,49.15770985012667]}},{"type":"Feature","geometry":{"type":"Point","coordinates":[11.42991183339612,49.18046607726388]},"properties":{"id":"146","land-id":"09373","name":"M\u00fchlhausen","population":5292,"area":36.91,"centroid_coordinates":[11.42991183339612,49.18046607726388]}},{"type":"Feature","geometry":{"type":"Point","coordinates":[11.472974128922427,49.28249649557716]},"properties":{"id":"147","land-id":"09373","name":"Neumarkt i.d.OPf.","population":41055,"area":79.07,"centroid_coordinates":[11.472974128922427,49.28249649557716]}},{"type":"Feature","geometry":{"type":"Point","coordinates":[11.720586919778288,49.17089306023367]},"properties":{"id":"151","land-id":"09373","name":"Parsberg","population":7815,"area":57.36,"centroid_coordinates":[11.720586919778288,49.17089306023367]}},{"type":"Feature","geometry":{"type":"Point","coordinates":[11.541408893057318,49.327635425655224]},"properties":{"id":"153","land-id":"09373","name":"Pilsach","population":2857,"area":47.68,"centroid_coordinates":[11.541408893057318,49.327635425655224]}},{"type":"Feature","geometry":{"type":"Point","coordinates":[11.354446374241313,49.28986070110513]},"properties":{"id":"155","land-id":"09373","name":"Postbauer-Heng","population":7945,"area":24.68,"centroid_coordinates":[11.354446374241313,49.28986070110513]}},{"type":"Feature","geometry":{"type":"Point","coordinates":[11.270751573287964,49.28929658305599]},"properties":{"id":"156","land-id":"09373","name":"Pyrbaum","population":5808,"area":50.32,"centroid_coordinates":[11.270751573287964,49.28929658305599]}},{"type":"Feature","geometry":{"type":"Point","coordinates":[11.44807112202477,49.223096844920015]},"properties":{"id":"159","land-id":"09373","name":"Sengenthal","population":4134,"area":28.56,"centroid_coordinates":[11.44807112202477,49.223096844920015]}},{"type":"Feature","geometry":{"type":"Point","coordinates":[11.61749476522022,49.155212940343596]},"properties":{"id":"160","land-id":"09373","name":"Seubersdorf i.d.OPf.","population":5314,"area":68.25,"centroid_coordinates":[11.61749476522022,49.155212940343596]}},{"type":"Feature","geometry":{"type":"Point","coordinates":[11.678527980010465,49.26155871023947]},"properties":{"id":"167","land-id":"09373","name":"Velburg","population":5405,"area":175.56,"centroid_coordinates":[11.678527980010465,49.26155871023947]}},{"type":"Feature","geometry":{"type":"Point","coordinates":[12.125449299900302,49.72349028722954]},"properties":{"id":"111","land-id":"09374","name":"Altenstadt a.d.Waldnaab","population":4686,"area":21.99,"centroid_coordinates":[12.125449299900302,49.72349028722954]}},{"type":"Feature","geometry":{"type":"Point","coordinates":[11.830400343533292,49.746891065279705]},"properties":{"id":"117","land-id":"09374","name":"Eschenbach i.d.OPf.","population":4314,"area":35.18,"centroid_coordinates":[11.830400343533292,49.746891065279705]}},{"type":"Feature","geometry":{"type":"Point","coordinates":[12.524925189732855,49.57940247646234]},"properties":{"id":"118","land-id":"09374","name":"Eslarn","population":2734,"area":55.2,"centroid_coordinates":[12.524925189732855,49.57940247646234]}},{"type":"Feature","geometry":{"type":"Point","coordinates":[12.094839011937625,49.62307585285454]},"properties":{"id":"119","land-id":"09374","name":"Etzenricht","population":1545,"area":13.64,"centroid_coordinates":[12.094839011937625,49.62307585285454]}},{"type":"Feature","geometry":{"type":"Point","coordinates":[12.277808089398983,49.7256887584857]},"properties":{"id":"121","land-id":"09374","name":"Flo\u00df","population":3504,"area":54.35,"centroid_coordinates":[12.277808089398983,49.7256887584857]}},{"type":"Feature","geometry":{"type":"Point","coordinates":[12.358147890382128,49.74223937948911]},"properties":{"id":"122","land-id":"09374","name":"Flossenb\u00fcrg","population":1489,"area":23.31,"centroid_coordinates":[12.358147890382128,49.74223937948911]}},{"type":"Feature","geometry":{"type":"Point","coordinates":[12.40840167181339,49.70444343904175]},"properties":{"id":"123","land-id":"09374","name":"Georgenberg","population":1271,"area":36.81,"centroid_coordinates":[12.40840167181339,49.70444343904175]}},{"type":"Feature","geometry":{"type":"Point","coordinates":[11.800874027006461,49.68364107601962]},"properties":{"id":"124","land-id":"09374","name":"Grafenw\u00f6hr","population":6323,"area":216.04,"centroid_coordinates":[11.800874027006461,49.68364107601962]}},{"type":"Feature","geometry":{"type":"Point","coordinates":[12.22608789348312,49.628206727453325]},"properties":{"id":"127","land-id":"09374","name":"Irchenrieth","population":1669,"area":5.25,"centroid_coordinates":[12.22608789348312,49.628206727453325]}},{"type":"Feature","geometry":{"type":"Point","coordinates":[12.110837072649886,49.76950370016163]},"properties":{"id":"128","land-id":"09374","name":"Kirchendemenreuth","population":904,"area":39.36,"centroid_coordinates":[12.110837072649886,49.76950370016163]}},{"type":"Feature","geometry":{"type":"Point","coordinates":[11.703154235064588,49.75657245452866]},"properties":{"id":"129","land-id":"09374","name":"Kirchenthumbach","population":3257,"area":67.62,"centroid_coordinates":[11.703154235064588,49.75657245452866]}},{"type":"Feature","geometry":{"type":"Point","coordinates":[12.023350242385803,49.60051135636043]},"properties":{"id":"131","land-id":"09374","name":"Kohlberg","population":1217,"area":33.42,"centroid_coordinates":[12.023350242385803,49.60051135636043]}},{"type":"Feature","geometry":{"type":"Point","coordinates":[12.26401573851123,49.58841491403221]},"properties":{"id":"132","land-id":"09374","name":"Leuchtenberg","population":1195,"area":32.37,"centroid_coordinates":[12.26401573851123,49.58841491403221]}},{"type":"Feature","geometry":{"type":"Point","coordinates":[12.12851659916318,49.584854346945164]},"properties":{"id":"133","land-id":"09374","name":"Luhe-Wildenau","population":3438,"area":38.59,"centroid_coordinates":[12.12851659916318,49.584854346945164]}},{"type":"Feature","geometry":{"type":"Point","coordinates":[12.03640852382618,49.657203948662875]},"properties":{"id":"134","land-id":"09374","name":"Mantel","population":2788,"area":16.83,"centroid_coordinates":[12.03640852382618,49.657203948662875]}},{"type":"Feature","geometry":{"type":"Point","coordinates":[12.424678966700823,49.57332545566142]},"properties":{"id":"137","land-id":"09374","name":"Moosbach","population":2486,"area":64.23,"centroid_coordinates":[12.424678966700823,49.57332545566142]}},{"type":"Feature","geometry":{"type":"Point","coordinates":[12.17052844456875,49.73319289077434]},"properties":{"id":"139","land-id":"09374","name":"Neustadt a.d.Waldnaab","population":6071,"area":9.93,"centroid_coordinates":[12.17052844456875,49.73319289077434]}},{"type":"Feature","geometry":{"type":"Point","coordinates":[11.835319832057145,49.82751158231363]},"properties":{"id":"140","land-id":"09374","name":"Neustadt am Kulm","population":1157,"area":20.34,"centroid_coordinates":[11.835319832057145,49.82751158231363]}},{"type":"Feature","geometry":{"type":"Point","coordinates":[12.057406714422841,49.73346935345587]},"properties":{"id":"144","land-id":"09374","name":"Parkstein","population":2378,"area":30.89,"centroid_coordinates":[12.057406714422841,49.73346935345587]}},{"type":"Feature","geometry":{"type":"Point","coordinates":[12.184013021088575,49.616181960333144]},"properties":{"id":"146","land-id":"09374","name":"Pirk","population":1950,"area":26.14,"centroid_coordinates":[12.184013021088575,49.616181960333144]}},{"type":"Feature","geometry":{"type":"Point","coordinates":[12.421267624561143,49.64881762969468]},"properties":{"id":"147","land-id":"09374","name":"Pleystein","population":2364,"area":42.34,"centroid_coordinates":[12.421267624561143,49.64881762969468]}},{"type":"Feature","geometry":{"type":"Point","coordinates":[11.89839612231124,49.78358922454702]},"properties":{"id":"148","land-id":"09374","name":"Trabitz","population":1347,"area":26.72,"centroid_coordinates":[11.89839612231124,49.78358922454702]}},{"type":"Feature","geometry":{"type":"Point","coordinates":[11.974063387806567,49.76800768727798]},"properties":{"id":"149","land-id":"09374","name":"Pressath","population":4215,"area":66.53,"centroid_coordinates":[11.974063387806567,49.76800768727798]}},{"type":"Feature","geometry":{"type":"Point","coordinates":[12.215288796449546,49.77153125455505]},"properties":{"id":"150","land-id":"09374","name":"P\u00fcchersreuth","population":1703,"area":25.15,"centroid_coordinates":[12.215288796449546,49.77153125455505]}},{"type":"Feature","geometry":{"type":"Point","coordinates":[12.176559805118252,49.64982416830852]},"properties":{"id":"154","land-id":"09374","name":"Schirmitz","population":2086,"area":4.94,"centroid_coordinates":[12.176559805118252,49.64982416830852]}},{"type":"Feature","geometry":{"type":"Point","coordinates":[11.743199060328369,49.79041212671143]},"properties":{"id":"155","land-id":"09374","name":"Schlammersdorf","population":872,"area":20.36,"centroid_coordinates":[11.743199060328369,49.79041212671143]}},{"type":"Feature","geometry":{"type":"Point","coordinates":[12.003982364521905,49.72002235419931]},"properties":{"id":"156","land-id":"09374","name":"Schwarzenbach","population":1143,"area":12.23,"centroid_coordinates":[12.003982364521905,49.72002235419931]}},{"type":"Feature","geometry":{"type":"Point","coordinates":[11.820385637109837,49.78521380099614]},"properties":{"id":"157","land-id":"09374","name":"Speinshart","population":1126,"area":23.83,"centroid_coordinates":[11.820385637109837,49.78521380099614]}},{"type":"Feature","geometry":{"type":"Point","coordinates":[12.20312983677101,49.74293528664467]},"properties":{"id":"158","land-id":"09374","name":"St\u00f6rnstein","population":1549,"area":10.97,"centroid_coordinates":[12.20312983677101,49.74293528664467]}},{"type":"Feature","geometry":{"type":"Point","coordinates":[12.33148472949513,49.543049805799136]},"properties":{"id":"159","land-id":"09374","name":"T\u00e4nnesberg","population":1475,"area":46.58,"centroid_coordinates":[12.33148472949513,49.543049805799136]}},{"type":"Feature","geometry":{"type":"Point","coordinates":[12.225279110809309,49.69324486154286]},"properties":{"id":"160","land-id":"09374","name":"Theisseil","population":1198,"area":21.39,"centroid_coordinates":[12.225279110809309,49.69324486154286]}},{"type":"Feature","geometry":{"type":"Point","coordinates":[12.327777498852068,49.6208585063539]},"properties":{"id":"162","land-id":"09374","name":"Vohenstrau\u00df","population":7687,"area":75.15,"centroid_coordinates":[12.327777498852068,49.6208585063539]}},{"type":"Feature","geometry":{"type":"Point","coordinates":[11.753780742079442,49.814911535121716]},"properties":{"id":"163","land-id":"09374","name":"Vorbach","population":1076,"area":13.53,"centroid_coordinates":[11.753780742079442,49.814911535121716]}},{"type":"Feature","geometry":{"type":"Point","coordinates":[12.492545650449323,49.65122292362169]},"properties":{"id":"164","land-id":"09374","name":"Waidhaus","population":2130,"area":37.32,"centroid_coordinates":[12.492545650449323,49.65122292362169]}},{"type":"Feature","geometry":{"type":"Point","coordinates":[12.328366051084211,49.68130818388123]},"properties":{"id":"165","land-id":"09374","name":"Waldthurn","population":1941,"area":30.98,"centroid_coordinates":[12.328366051084211,49.68130818388123]}},{"type":"Feature","geometry":{"type":"Point","coordinates":[11.992689550314532,49.64491441756978]},"properties":{"id":"166","land-id":"09374","name":"Weiherhammer","population":3842,"area":40.1,"centroid_coordinates":[11.992689550314532,49.64491441756978]}},{"type":"Feature","geometry":{"type":"Point","coordinates":[12.155957361722379,49.81160219401027]},"properties":{"id":"168","land-id":"09374","name":"Windischeschenbach","population":4994,"area":36.35,"centroid_coordinates":[12.155957361722379,49.81160219401027]}},{"type":"Feature","geometry":{"type":"Point","coordinates":[12.210503017957285,49.64714392731755]},"properties":{"id":"170","land-id":"09374","name":"Bechtsrieth","population":1068,"area":4.8,"centroid_coordinates":[12.210503017957285,49.64714392731755]}},{"type":"Feature","geometry":{"type":"Point","coordinates":[12.20555548814074,48.91698071307451]},"properties":{"id":"113","land-id":"09375","name":"Alteglofsheim","population":3180,"area":13.14,"centroid_coordinates":[12.20555548814074,48.91698071307451]}},{"type":"Feature","geometry":{"type":"Point","coordinates":[12.300012179056997,49.09161083260579]},"properties":{"id":"114","land-id":"09375","name":"Altenthann","population":1504,"area":21.47,"centroid_coordinates":[12.300012179056997,49.09161083260579]}},{"type":"Feature","geometry":{"type":"Point","coordinates":[12.28357251239577,48.874566739593384]},"properties":{"id":"115","land-id":"09375","name":"Aufhausen","population":1912,"area":27.24,"centroid_coordinates":[12.28357251239577,48.874566739593384]}},{"type":"Feature","geometry":{"type":"Point","coordinates":[12.294259563682173,49.02327084260423]},"properties":{"id":"116","land-id":"09375","name":"Bach a.d.Donau","population":1966,"area":14.69,"centroid_coordinates":[12.294259563682173,49.02327084260423]}},{"type":"Feature","geometry":{"type":"Point","coordinates":[12.26893974208967,48.99989375946281]},"properties":{"id":"117","land-id":"09375","name":"Barbing","population":5836,"area":30.61,"centroid_coordinates":[12.26893974208967,48.99989375946281]}},{"type":"Feature","geometry":{"type":"Point","coordinates":[11.82133532205922,49.11864832768434]},"properties":{"id":"118","land-id":"09375","name":"Beratzhausen","population":5552,"area":72.58,"centroid_coordinates":[11.82133532205922,49.11864832768434]}},{"type":"Feature","geometry":{"type":"Point","coordinates":[12.24486960491238,49.11157962876138]},"properties":{"id":"119","land-id":"09375","name":"Bernhardswald","population":5396,"area":71.84,"centroid_coordinates":[12.24486960491238,49.11157962876138]}},{"type":"Feature","geometry":{"type":"Point","coordinates":[12.385004789317529,49.074157877262614]},"properties":{"id":"120","land-id":"09375","name":"Brennberg","population":2101,"area":30.49,"centroid_coordinates":[12.385004789317529,49.074157877262614]}},{"type":"Feature","geometry":{"type":"Point","coordinates":[11.918354341733291,49.08585179081276]},"properties":{"id":"122","land-id":"09375","name":"Brunn","population":1633,"area":16.1,"centroid_coordinates":[11.918354341733291,49.08585179081276]}},{"type":"Feature","geometry":{"type":"Point","coordinates":[11.901865033091019,49.029640519912256]},"properties":{"id":"127","land-id":"09375","name":"Deuerling","population":1911,"area":7.11,"centroid_coordinates":[11.901865033091019,49.029640519912256]}},{"type":"Feature","geometry":{"type":"Point","coordinates":[12.226031819775097,49.02914746041909]},"properties":{"id":"130","land-id":"09375","name":"Donaustauf","population":4269,"area":9.71,"centroid_coordinates":[12.226031819775097,49.02914746041909]}},{"type":"Feature","geometry":{"type":"Point","coordinates":[11.925236941504364,49.12286849591258]},"properties":{"id":"131","land-id":"09375","name":"Duggendorf","population":1536,"area":22.87,"centroid_coordinates":[11.925236941504364,49.12286849591258]}},{"type":"Feature","geometry":{"type":"Point","coordinates":[12.229869749691423,48.89457529137213]},"properties":{"id":"143","land-id":"09375","name":"Hagelstadt","population":2001,"area":20.78,"centroid_coordinates":[12.229869749691423,48.89457529137213]}},{"type":"Feature","geometry":{"type":"Point","coordinates":[11.764115296420446,49.04533493552133]},"properties":{"id":"148","land-id":"09375","name":"Hemau","population":9296,"area":122.32,"centroid_coordinates":[11.764115296420446,49.04533493552133]}},{"type":"Feature","geometry":{"type":"Point","coordinates":[12.004106603127687,49.140771039220624]},"properties":{"id":"153","land-id":"09375","name":"Holzheim a.Forst","population":1089,"area":15.64,"centroid_coordinates":[12.004106603127687,49.140771039220624]}},{"type":"Feature","geometry":{"type":"Point","coordinates":[11.939698725064384,49.162391047946855]},"properties":{"id":"156","land-id":"09375","name":"Kallm\u00fcnz","population":2816,"area":43.13,"centroid_coordinates":[11.939698725064384,49.162391047946855]}},{"type":"Feature","geometry":{"type":"Point","coordinates":[12.182293028150776,48.939610707148546]},"properties":{"id":"161","land-id":"09375","name":"K\u00f6fering","population":2819,"area":5.29,"centroid_coordinates":[12.182293028150776,48.939610707148546]}},{"type":"Feature","geometry":{"type":"Point","coordinates":[11.894044239604451,49.06662854455789]},"properties":{"id":"162","land-id":"09375","name":"Laaber","population":5243,"area":29.65,"centroid_coordinates":[11.894044239604451,49.06662854455789]}},{"type":"Feature","geometry":{"type":"Point","coordinates":[12.058925852891193,49.07340529697465]},"properties":{"id":"165","land-id":"09375","name":"Lappersdorf","population":13327,"area":34.46,"centroid_coordinates":[12.058925852891193,49.07340529697465]}},{"type":"Feature","geometry":{"type":"Point","coordinates":[12.261810849793214,48.948561522080105]},"properties":{"id":"170","land-id":"09375","name":"Mintraching","population":4991,"area":53.8,"centroid_coordinates":[12.261810849793214,48.948561522080105]}},{"type":"Feature","geometry":{"type":"Point","coordinates":[12.401926480236412,48.90437027222309]},"properties":{"id":"171","land-id":"09375","name":"M\u00f6tzing","population":1399,"area":36.24,"centroid_coordinates":[12.401926480236412,48.90437027222309]}},{"type":"Feature","geometry":{"type":"Point","coordinates":[12.206935005522464,48.98147647799373]},"properties":{"id":"174","land-id":"09375","name":"Neutraubling","population":14168,"area":9.8,"centroid_coordinates":[12.206935005522464,48.98147647799373]}},{"type":"Feature","geometry":{"type":"Point","coordinates":[11.942227738850058,49.01813290667528]},"properties":{"id":"175","land-id":"09375","name":"Nittendorf","population":8974,"area":33.53,"centroid_coordinates":[11.942227738850058,49.01813290667528]}},{"type":"Feature","geometry":{"type":"Point","coordinates":[12.152147977820624,48.95448168457817]},"properties":{"id":"179","land-id":"09375","name":"Obertraubling","population":8743,"area":24.83,"centroid_coordinates":[12.152147977820624,48.95448168457817]}},{"type":"Feature","geometry":{"type":"Point","coordinates":[12.060575488501481,48.96014949935364]},"properties":{"id":"180","land-id":"09375","name":"Pentling","population":6214,"area":32.59,"centroid_coordinates":[12.060575488501481,48.96014949935364]}},{"type":"Feature","geometry":{"type":"Point","coordinates":[12.010290136121082,49.04709596564702]},"properties":{"id":"181","land-id":"09375","name":"Pettendorf","population":3432,"area":24.55,"centroid_coordinates":[12.010290136121082,49.04709596564702]}},{"type":"Feature","geometry":{"type":"Point","coordinates":[12.219969317244544,48.8596093585082]},"properties":{"id":"182","land-id":"09375","name":"Pfakofen","population":1604,"area":15.27,"centroid_coordinates":[12.219969317244544,48.8596093585082]}},{"type":"Feature","geometry":{"type":"Point","coordinates":[12.380764550065834,48.96033342370435]},"properties":{"id":"183","land-id":"09375","name":"Pfatter","population":3152,"area":48.13,"centroid_coordinates":[12.380764550065834,48.96033342370435]}},{"type":"Feature","geometry":{"type":"Point","coordinates":[11.976904739181798,49.07745591596811]},"properties":{"id":"184","land-id":"09375","name":"Pielenhofen","population":1670,"area":14.62,"centroid_coordinates":[11.976904739181798,49.07745591596811]}},{"type":"Feature","geometry":{"type":"Point","coordinates":[12.128180773748113,49.145341688950914]},"properties":{"id":"190","land-id":"09375","name":"Regenstauf","population":15869,"area":104.01,"centroid_coordinates":[12.128180773748113,49.145341688950914]}},{"type":"Feature","geometry":{"type":"Point","coordinates":[12.334973963676953,48.91859903827087]},"properties":{"id":"191","land-id":"09375","name":"Riekofen","population":778,"area":23.9,"centroid_coordinates":[12.334973963676953,48.91859903827087]}},{"type":"Feature","geometry":{"type":"Point","coordinates":[12.158737610891261,48.82561114313057]},"properties":{"id":"196","land-id":"09375","name":"Schierling","population":8134,"area":77.5,"centroid_coordinates":[12.158737610891261,48.82561114313057]}},{"type":"Feature","geometry":{"type":"Point","coordinates":[11.979433383507343,48.9847587343481]},"properties":{"id":"199","land-id":"09375","name":"Sinzing","population":7312,"area":44.15,"centroid_coordinates":[11.979433383507343,48.9847587343481]}},{"type":"Feature","geometry":{"type":"Point","coordinates":[12.355146121316915,48.870496940304385]},"properties":{"id":"201","land-id":"09375","name":"S\u00fcnching","population":2213,"area":19.46,"centroid_coordinates":[12.355146121316915,48.870496940304385]}},{"type":"Feature","geometry":{"type":"Point","coordinates":[12.183111363645796,49.030379507330146]},"properties":{"id":"204","land-id":"09375","name":"Tegernheim","population":5572,"area":11.43,"centroid_coordinates":[12.183111363645796,49.030379507330146]}},{"type":"Feature","geometry":{"type":"Point","coordinates":[12.141120108582971,48.90742070256648]},"properties":{"id":"205","land-id":"09375","name":"Thalmassing","population":3575,"area":37.16,"centroid_coordinates":[12.141120108582971,48.90742070256648]}},{"type":"Feature","geometry":{"type":"Point","coordinates":[12.17720697066058,49.07568941288825]},"properties":{"id":"208","land-id":"09375","name":"Wenzenbach","population":8744,"area":29.85,"centroid_coordinates":[12.17720697066058,49.07568941288825]}},{"type":"Feature","geometry":{"type":"Point","coordinates":[12.36969954468887,49.027863545591494]},"properties":{"id":"209","land-id":"09375","name":"Wiesent","population":2625,"area":26.78,"centroid_coordinates":[12.36969954468887,49.027863545591494]}},{"type":"Feature","geometry":{"type":"Point","coordinates":[12.421831915886587,49.00466211124863]},"properties":{"id":"210","land-id":"09375","name":"W\u00f6rth a.d.Donau","population":5150,"area":52.28,"centroid_coordinates":[12.421831915886587,49.00466211124863]}},{"type":"Feature","geometry":{"type":"Point","coordinates":[11.982593597020392,49.105095306131716]},"properties":{"id":"211","land-id":"09375","name":"Wolfsegg","population":1496,"area":15.38,"centroid_coordinates":[11.982593597020392,49.105095306131716]}},{"type":"Feature","geometry":{"type":"Point","coordinates":[12.122693845339152,49.088868522229255]},"properties":{"id":"213","land-id":"09375","name":"Zeitlarn","population":5363,"area":16.07,"centroid_coordinates":[12.122693845339152,49.088868522229255]}},{"type":"Feature","geometry":{"type":"Point","coordinates":[12.287537730404928,49.41898145788755]},"properties":{"id":"112","land-id":"09376","name":"Altendorf","population":857,"area":23.21,"centroid_coordinates":[12.287537730404928,49.41898145788755]}},{"type":"Feature","geometry":{"type":"Point","coordinates":[12.287101302049216,49.295550747932815]},"properties":{"id":"116","land-id":"09376","name":"Bodenw\u00f6hr","population":4197,"area":54.31,"centroid_coordinates":[12.287101302049216,49.295550747932815]}},{"type":"Feature","geometry":{"type":"Point","coordinates":[12.306565572339586,49.24740596101002]},"properties":{"id":"117","land-id":"09376","name":"Bruck i.d.OPf.","population":4156,"area":52.47,"centroid_coordinates":[12.306565572339586,49.24740596101002]}},{"type":"Feature","geometry":{"type":"Point","coordinates":[12.003626927500635,49.22789048769531]},"properties":{"id":"119","land-id":"09376","name":"Burglengenfeld","population":14348,"area":93.28,"centroid_coordinates":[12.003626927500635,49.22789048769531]}},{"type":"Feature","geometry":{"type":"Point","coordinates":[12.410794158879263,49.40660776125623]},"properties":{"id":"122","land-id":"09376","name":"Dieterskirchen","population":995,"area":24.11,"centroid_coordinates":[12.410794158879263,49.40660776125623]}},{"type":"Feature","geometry":{"type":"Point","coordinates":[12.03961534143958,49.40647200443509]},"properties":{"id":"125","land-id":"09376","name":"Fensterbach","population":2392,"area":26.97,"centroid_coordinates":[12.03961534143958,49.40647200443509]}},{"type":"Feature","geometry":{"type":"Point","coordinates":[12.317071788552287,49.501226124436485]},"properties":{"id":"131","land-id":"09376","name":"Gleiritsch","population":629,"area":10.92,"centroid_coordinates":[12.317071788552287,49.501226124436485]}},{"type":"Feature","geometry":{"type":"Point","coordinates":[12.285280960298795,49.45897084603399]},"properties":{"id":"133","land-id":"09376","name":"Guteneck","population":813,"area":35.04,"centroid_coordinates":[12.285280960298795,49.45897084603399]}},{"type":"Feature","geometry":{"type":"Point","coordinates":[12.100932997992153,49.182469411804824]},"properties":{"id":"141","land-id":"09376","name":"Maxh\u00fctte-Haidhof","population":12044,"area":34.66,"centroid_coordinates":[12.100932997992153,49.182469411804824]}},{"type":"Feature","geometry":{"type":"Point","coordinates":[12.17780624587582,49.45432433294716]},"properties":{"id":"144","land-id":"09376","name":"Nabburg","population":6239,"area":62.39,"centroid_coordinates":[12.17780624587582,49.45432433294716]}},{"type":"Feature","geometry":{"type":"Point","coordinates":[12.41762538537455,49.290297431497855]},"properties":{"id":"146","land-id":"09376","name":"Neukirchen-Balbini","population":1135,"area":48.22,"centroid_coordinates":[12.41762538537455,49.290297431497855]}},{"type":"Feature","geometry":{"type":"Point","coordinates":[12.360375512151025,49.34492940579094]},"properties":{"id":"147","land-id":"09376","name":"Neunburg vorm Wald","population":7936,"area":110.31,"centroid_coordinates":[12.360375512151025,49.34492940579094]}},{"type":"Feature","geometry":{"type":"Point","coordinates":[12.360862570932571,49.44487483770006]},"properties":{"id":"148","land-id":"09376","name":"Niedermurach","population":1261,"area":30.01,"centroid_coordinates":[12.360862570932571,49.44487483770006]}},{"type":"Feature","geometry":{"type":"Point","coordinates":[12.244890509809139,49.20588511227827]},"properties":{"id":"149","land-id":"09376","name":"Nittenau","population":9157,"area":98.72,"centroid_coordinates":[12.244890509809139,49.20588511227827]}},{"type":"Feature","geometry":{"type":"Point","coordinates":[12.158990536067236,49.54108256815533]},"properties":{"id":"150","land-id":"09376","name":"Wernberg-K\u00f6blitz","population":5484,"area":66.22,"centroid_coordinates":[12.158990536067236,49.54108256815533]}},{"type":"Feature","geometry":{"type":"Point","coordinates":[12.448520510803426,49.484557171446504]},"properties":{"id":"151","land-id":"09376","name":"Oberviechtach","population":4899,"area":62.37,"centroid_coordinates":[12.448520510803426,49.484557171446504]}},{"type":"Feature","geometry":{"type":"Point","coordinates":[12.203688352828289,49.50086474271873]},"properties":{"id":"153","land-id":"09376","name":"Pfreimd","population":4942,"area":51.45,"centroid_coordinates":[12.203688352828289,49.50086474271873]}},{"type":"Feature","geometry":{"type":"Point","coordinates":[12.069556216666387,49.44922107930024]},"properties":{"id":"159","land-id":"09376","name":"Schmidgaden","population":3054,"area":41.3,"centroid_coordinates":[12.069556216666387,49.44922107930024]}},{"type":"Feature","geometry":{"type":"Point","coordinates":[12.54359060693354,49.51295953741088]},"properties":{"id":"160","land-id":"09376","name":"Sch\u00f6nsee","population":2279,"area":50.31,"centroid_coordinates":[12.54359060693354,49.51295953741088]}},{"type":"Feature","geometry":{"type":"Point","coordinates":[12.088473725017005,49.317654386340315]},"properties":{"id":"161","land-id":"09376","name":"Schwandorf","population":29882,"area":123.88,"centroid_coordinates":[12.088473725017005,49.317654386340315]}},{"type":"Feature","geometry":{"type":"Point","coordinates":[12.212278862431136,49.397450001118756]},"properties":{"id":"162","land-id":"09376","name":"Schwarzach b.Nabburg","population":1342,"area":27.34,"centroid_coordinates":[12.212278862431136,49.397450001118756]}},{"type":"Feature","geometry":{"type":"Point","coordinates":[12.163801596749883,49.3760207304948]},"properties":{"id":"163","land-id":"09376","name":"Schwarzenfeld","population":6281,"area":38.22,"centroid_coordinates":[12.163801596749883,49.3760207304948]}},{"type":"Feature","geometry":{"type":"Point","coordinates":[12.329637762654464,49.38578700762102]},"properties":{"id":"164","land-id":"09376","name":"Schwarzhofen","population":1367,"area":35.88,"centroid_coordinates":[12.329637762654464,49.38578700762102]}},{"type":"Feature","geometry":{"type":"Point","coordinates":[12.625012733354682,49.503091349730575]},"properties":{"id":"167","land-id":"09376","name":"Stadlern","population":528,"area":10.6,"centroid_coordinates":[12.625012733354682,49.503091349730575]}},{"type":"Feature","geometry":{"type":"Point","coordinates":[12.174439300237932,49.272655049667975]},"properties":{"id":"168","land-id":"09376","name":"Steinberg am See","population":1941,"area":20.24,"centroid_coordinates":[12.174439300237932,49.272655049667975]}},{"type":"Feature","geometry":{"type":"Point","coordinates":[12.13519339142099,49.420915902756256]},"properties":{"id":"169","land-id":"09376","name":"Stulln","population":1693,"area":15.52,"centroid_coordinates":[12.13519339142099,49.420915902756256]}},{"type":"Feature","geometry":{"type":"Point","coordinates":[12.099358040885347,49.234537297120255]},"properties":{"id":"170","land-id":"09376","name":"Teublitz","population":8043,"area":38.27,"centroid_coordinates":[12.099358040885347,49.234537297120255]}},{"type":"Feature","geometry":{"type":"Point","coordinates":[12.389529340479681,49.50031833019972]},"properties":{"id":"171","land-id":"09376","name":"Teunz","population":1835,"area":30.65,"centroid_coordinates":[12.389529340479681,49.50031833019972]}},{"type":"Feature","geometry":{"type":"Point","coordinates":[12.460066364503268,49.38991295167005]},"properties":{"id":"172","land-id":"09376","name":"Thanstein","population":977,"area":27.83,"centroid_coordinates":[12.460066364503268,49.38991295167005]}},{"type":"Feature","geometry":{"type":"Point","coordinates":[12.260896354299096,49.52877659529397]},"properties":{"id":"173","land-id":"09376","name":"Trausnitz","population":902,"area":17.6,"centroid_coordinates":[12.260896354299096,49.52877659529397]}},{"type":"Feature","geometry":{"type":"Point","coordinates":[12.191262125610116,49.31454473574111]},"properties":{"id":"175","land-id":"09376","name":"Wackersdorf","population":5248,"area":33.63,"centroid_coordinates":[12.191262125610116,49.31454473574111]}},{"type":"Feature","geometry":{"type":"Point","coordinates":[12.563972203645488,49.48134817272104]},"properties":{"id":"176","land-id":"09376","name":"Weiding","population":467,"area":22.41,"centroid_coordinates":[12.563972203645488,49.48134817272104]}},{"type":"Feature","geometry":{"type":"Point","coordinates":[12.504576598739735,49.436287984441684]},"properties":{"id":"178","land-id":"09376","name":"Winklarn","population":1359,"area":33.74,"centroid_coordinates":[12.504576598739735,49.436287984441684]}},{"type":"Feature","geometry":{"type":"Point","coordinates":[12.411946170837238,49.80987716247958]},"properties":{"id":"112","land-id":"09377","name":"B\u00e4rnau","population":3065,"area":74.41,"centroid_coordinates":[12.411946170837238,49.80987716247958]}},{"type":"Feature","geometry":{"type":"Point","coordinates":[11.90015457311767,49.959844491168674]},"properties":{"id":"113","land-id":"09377","name":"Brand","population":1149,"area":10.28,"centroid_coordinates":[11.90015457311767,49.959844491168674]}},{"type":"Feature","geometry":{"type":"Point","coordinates":[11.938661763323946,49.95331575237491]},"properties":{"id":"115","land-id":"09377","name":"Ebnath","population":1306,"area":11.06,"centroid_coordinates":[11.938661763323946,49.95331575237491]}},{"type":"Feature","geometry":{"type":"Point","coordinates":[12.042735335565894,49.83834276377861]},"properties":{"id":"116","land-id":"09377","name":"Erbendorf","population":5082,"area":67.51,"centroid_coordinates":[12.042735335565894,49.83834276377861]}},{"type":"Feature","geometry":{"type":"Point","coordinates":[12.224713445839377,49.85502428742331]},"properties":{"id":"117","land-id":"09377","name":"Falkenberg","population":922,"area":39.26,"centroid_coordinates":[12.224713445839377,49.85502428742331]}},{"type":"Feature","geometry":{"type":"Point","coordinates":[12.10181520334314,49.890516231870684]},"properties":{"id":"118","land-id":"09377","name":"Friedenfels","population":1177,"area":16.32,"centroid_coordinates":[12.10181520334314,49.890516231870684]}},{"type":"Feature","geometry":{"type":"Point","coordinates":[12.131866635456527,49.921572466967355]},"properties":{"id":"119","land-id":"09377","name":"Fuchsm\u00fchl","population":1548,"area":14.79,"centroid_coordinates":[12.131866635456527,49.921572466967355]}},{"type":"Feature","geometry":{"type":"Point","coordinates":[11.849688448016614,49.92653649852125]},"properties":{"id":"127","land-id":"09377","name":"Immenreuth","population":1935,"area":26.4,"centroid_coordinates":[11.849688448016614,49.92653649852125]}},{"type":"Feature","geometry":{"type":"Point","coordinates":[11.911188012764988,49.82481578681925]},"properties":{"id":"128","land-id":"09377","name":"Kastl","population":1450,"area":24.57,"centroid_coordinates":[11.911188012764988,49.82481578681925]}},{"type":"Feature","geometry":{"type":"Point","coordinates":[11.92825192768181,49.85949517465025]},"properties":{"id":"129","land-id":"09377","name":"Kemnath","population":5849,"area":56.91,"centroid_coordinates":[11.92825192768181,49.85949517465025]}},{"type":"Feature","geometry":{"type":"Point","coordinates":[12.223887414006935,50.00594444164275]},"properties":{"id":"131","land-id":"09377","name":"Konnersreuth","population":1766,"area":23.43,"centroid_coordinates":[12.223887414006935,50.00594444164275]}},{"type":"Feature","geometry":{"type":"Point","coordinates":[12.098304754650027,49.845052735674436]},"properties":{"id":"132","land-id":"09377","name":"Krummennaab","population":1453,"area":17.65,"centroid_coordinates":[12.098304754650027,49.845052735674436]}},{"type":"Feature","geometry":{"type":"Point","coordinates":[11.90968007678801,49.914451940345195]},"properties":{"id":"133","land-id":"09377","name":"Kulmain","population":2254,"area":35.54,"centroid_coordinates":[11.90968007678801,49.914451940345195]}},{"type":"Feature","geometry":{"type":"Point","coordinates":[12.305560023510726,49.94519731457038]},"properties":{"id":"137","land-id":"09377","name":"Leonberg","population":1041,"area":51.27,"centroid_coordinates":[12.305560023510726,49.94519731457038]}},{"type":"Feature","geometry":{"type":"Point","coordinates":[12.475258721859541,49.89176464416901]},"properties":{"id":"139","land-id":"09377","name":"M\u00e4hring","population":1783,"area":72.93,"centroid_coordinates":[12.475258721859541,49.89176464416901]}},{"type":"Feature","geometry":{"type":"Point","coordinates":[12.240597619681818,49.94412287578255]},"properties":{"id":"141","land-id":"09377","name":"Mitterteich","population":6632,"area":39.46,"centroid_coordinates":[12.240597619681818,49.94412287578255]}},{"type":"Feature","geometry":{"type":"Point","coordinates":[12.424969734648998,49.9662052616634]},"properties":{"id":"142","land-id":"09377","name":"Bad Neualbenreuth","population":1418,"area":50.13,"centroid_coordinates":[12.424969734648998,49.9662052616634]}},{"type":"Feature","geometry":{"type":"Point","coordinates":[11.967785775381339,49.94122096566622]},"properties":{"id":"143","land-id":"09377","name":"Neusorg","population":1955,"area":17.79,"centroid_coordinates":[11.967785775381339,49.94122096566622]}},{"type":"Feature","geometry":{"type":"Point","coordinates":[12.170183950368228,49.969270468148515]},"properties":{"id":"145","land-id":"09377","name":"Pechbrunn","population":1286,"area":26.43,"centroid_coordinates":[12.170183950368228,49.969270468148515]}},{"type":"Feature","geometry":{"type":"Point","coordinates":[12.295759418376827,49.802636857441705]},"properties":{"id":"146","land-id":"09377","name":"Pl\u00f6\u00dfberg","population":3149,"area":74.29,"centroid_coordinates":[12.295759418376827,49.802636857441705]}},{"type":"Feature","geometry":{"type":"Point","coordinates":[12.006120212461395,49.918017777022655]},"properties":{"id":"148","land-id":"09377","name":"Pullenreuth","population":1569,"area":43.29,"centroid_coordinates":[12.006120212461395,49.918017777022655]}},{"type":"Feature","geometry":{"type":"Point","coordinates":[12.141877656121874,49.85732219432078]},"properties":{"id":"149","land-id":"09377","name":"Reuth b.Erbendorf","population":1095,"area":16.9,"centroid_coordinates":[12.141877656121874,49.85732219432078]}},{"type":"Feature","geometry":{"type":"Point","coordinates":[12.35065275990086,49.8872200904168]},"properties":{"id":"154","land-id":"09377","name":"Tirschenreuth","population":8550,"area":103.99,"centroid_coordinates":[12.35065275990086,49.8872200904168]}},{"type":"Feature","geometry":{"type":"Point","coordinates":[12.070833440898507,49.952146689044994]},"properties":{"id":"157","land-id":"09377","name":"Waldershof","population":4318,"area":60.42,"centroid_coordinates":[12.070833440898507,49.952146689044994]}},{"type":"Feature","geometry":{"type":"Point","coordinates":[12.315583212951555,50.015205497936854]},"properties":{"id":"158","land-id":"09377","name":"Waldsassen","population":6750,"area":66.49,"centroid_coordinates":[12.315583212951555,50.015205497936854]}},{"type":"Feature","geometry":{"type":"Point","coordinates":[12.18456760303896,49.906939593633886]},"properties":{"id":"159","land-id":"09377","name":"Wiesau","population":3936,"area":42.78,"centroid_coordinates":[12.18456760303896,49.906939593633886]}}]}