{"type":"FeatureCollection","features":[{"type":"Feature","geometry":{"type":"Point","coordinates":[11.766820748545875,49.4395322095657]},"properties":{"id":"111","land-id":"09371","name":"Ammerthal","population":2068,"population_man":1072,"population_woman":996,"area":8.14}},{"type":"Feature","geometry":{"type":"Point","coordinates":[11.609827288971847,49.693688033840864]},"properties":{"id":"113","land-id":"09371","name":"Auerbach i.d.OPf.","population":8890,"population_man":4371,"population_woman":4519,"area":78.1}},{"type":"Feature","geometry":{"type":"Point","coordinates":[11.617038690637477,49.43402289596781]},"properties":{"id":"116","land-id":"09371","name":"Birgland","population":1825,"population_man":968,"population_woman":857,"area":62.43}},{"type":"Feature","geometry":{"type":"Point","coordinates":[11.99546524692564,49.383274825283515]},"properties":{"id":"118","land-id":"09371","name":"Ebermannsdorf","population":2389,"population_man":1195,"population_woman":1194,"area":45.19}},{"type":"Feature","geometry":{"type":"Point","coordinates":[11.711416130845446,49.582714768756084]},"properties":{"id":"119","land-id":"09371","name":"Edelsfeld","population":1995,"population_man":976,"population_woman":1019,"area":34.66}},{"type":"Feature","geometry":{"type":"Point","coordinates":[11.918190950380426,49.352038495407704]},"properties":{"id":"120","land-id":"09371","name":"Ensdorf","population":2158,"population_man":1064,"population_woman":1094,"area":59.13}},{"type":"Feature","geometry":{"type":"Point","coordinates":[11.907799281543877,49.60893572680833]},"properties":{"id":"121","land-id":"09371","name":"Freihung","population":2540,"population_man":1277,"population_woman":1263,"area":46.48}},{"type":"Feature","geometry":{"type":"Point","coordinates":[11.969060583025582,49.46851917891552]},"properties":{"id":"122","land-id":"09371","name":"Freudenberg","population":4079,"population_man":2043,"population_woman":2036,"area":82.07}},{"type":"Feature","geometry":{"type":"Point","coordinates":[11.872609041960947,49.54725086243025]},"properties":{"id":"123","land-id":"09371","name":"Gebenbach","population":862,"population_man":453,"population_woman":409,"area":18.2}},{"type":"Feature","geometry":{"type":"Point","coordinates":[11.811561989484755,49.53751513575146]},"properties":{"id":"126","land-id":"09371","name":"Hahnbach","population":5005,"population_man":2521,"population_woman":2484,"area":67.34}},{"type":"Feature","geometry":{"type":"Point","coordinates":[11.941690987698589,49.55107376239397]},"properties":{"id":"127","land-id":"09371","name":"Hirschau","population":5696,"population_man":2784,"population_woman":2912,"area":74.93}},{"type":"Feature","geometry":{"type":"Point","coordinates":[11.585763582540025,49.574425319878074]},"properties":{"id":"128","land-id":"09371","name":"Hirschbach","population":1207,"population_man":613,"population_woman":594,"area":31.08}},{"type":"Feature","geometry":{"type":"Point","coordinates":[11.817645346394746,49.31228420756423]},"properties":{"id":"129","land-id":"09371","name":"Hohenburg","population":1775,"population_man":921,"population_woman":854,"area":39.35}},{"type":"Feature","geometry":{"type":"Point","coordinates":[11.696454594438286,49.454214274589525]},"properties":{"id":"131","land-id":"09371","name":"Illschwang","population":2109,"population_man":1052,"population_woman":1057,"area":54.2}},{"type":"Feature","geometry":{"type":"Point","coordinates":[11.688559543269516,49.364894578924854]},"properties":{"id":"132","land-id":"09371","name":"Kastl","population":2515,"population_man":1280,"population_woman":1235,"area":64.85}},{"type":"Feature","geometry":{"type":"Point","coordinates":[11.641138212156685,49.61057022672012]},"properties":{"id":"135","land-id":"09371","name":"K\u00f6nigstein","population":1731,"population_man":888,"population_woman":843,"area":35.18}},{"type":"Feature","geometry":{"type":"Point","coordinates":[11.889770774787515,49.40899595603728]},"properties":{"id":"136","land-id":"09371","name":"K\u00fcmmersbruck","population":9856,"population_man":4955,"population_woman":4901,"area":46.45}},{"type":"Feature","geometry":{"type":"Point","coordinates":[11.581954303195648,49.53465207130149]},"properties":{"id":"140","land-id":"09371","name":"Etzelwang","population":1396,"population_man":712,"population_woman":684,"area":21.67}},{"type":"Feature","geometry":{"type":"Point","coordinates":[11.64836410020828,49.53227493154619]},"properties":{"id":"141","land-id":"09371","name":"Neukirchen b.Sulzbach-Rosenberg","population":2488,"population_man":1223,"population_woman":1265,"area":45.79}},{"type":"Feature","geometry":{"type":"Point","coordinates":[11.814681091512119,49.47927460958726]},"properties":{"id":"144","land-id":"09371","name":"Poppenricht","population":3371,"population_man":1664,"population_woman":1707,"area":11.62}},{"type":"Feature","geometry":{"type":"Point","coordinates":[11.929520354535804,49.30871461494668]},"properties":{"id":"146","land-id":"09371","name":"Rieden","population":2635,"population_man":1336,"population_woman":1299,"area":32.28}},{"type":"Feature","geometry":{"type":"Point","coordinates":[11.922275673741591,49.26858904872684]},"properties":{"id":"148","land-id":"09371","name":"Schmidm\u00fchlen","population":2342,"population_man":1172,"population_woman":1170,"area":25.48}},{"type":"Feature","geometry":{"type":"Point","coordinates":[12.043454917391754,49.53721751998282]},"properties":{"id":"150","land-id":"09371","name":"Schnaittenbach","population":4305,"population_man":2177,"population_woman":2128,"area":63.42}},{"type":"Feature","geometry":{"type":"Point","coordinates":[11.736653230700245,49.50620303967073]},"properties":{"id":"151","land-id":"09371","name":"Sulzbach-Rosenberg","population":19398,"population_man":9625,"population_woman":9773,"area":53.16}},{"type":"Feature","geometry":{"type":"Point","coordinates":[11.784966112691295,49.37930595885262]},"properties":{"id":"154","land-id":"09371","name":"Ursensollen","population":3832,"population_man":1912,"population_woman":1920,"area":74.76}},{"type":"Feature","geometry":{"type":"Point","coordinates":[11.798486824167966,49.61188123478949]},"properties":{"id":"156","land-id":"09371","name":"Vilseck","population":6313,"population_man":3090,"population_woman":3223,"area":64.65}},{"type":"Feature","geometry":{"type":"Point","coordinates":[11.583407222743016,49.50036201488023]},"properties":{"id":"157","land-id":"09371","name":"Weigendorf","population":1251,"population_man":622,"population_woman":629,"area":12.56}},{"type":"Feature","geometry":{"type":"Point","coordinates":[12.817911293316843,49.265047985476244]},"properties":{"id":"112","land-id":"09372","name":"Arnschwang","population":1972,"population_man":975,"population_woman":997,"area":28.26}},{"type":"Feature","geometry":{"type":"Point","coordinates":[12.993837377557716,49.193129858977336]},"properties":{"id":"113","land-id":"09372","name":"Arrach","population":2308,"population_man":1154,"population_woman":1154,"area":28.82}},{"type":"Feature","geometry":{"type":"Point","coordinates":[12.814714882119612,49.162597850375754]},"properties":{"id":"115","land-id":"09372","name":"Blaibach","population":1885,"population_man":917,"population_woman":968,"area":17.0}},{"type":"Feature","geometry":{"type":"Point","coordinates":[12.665700274615608,49.20997443999233]},"properties":{"id":"116","land-id":"09372","name":"Cham","population":17467,"population_man":8779,"population_woman":8688,"area":80.7}},{"type":"Feature","geometry":{"type":"Point","coordinates":[12.769491464799055,49.19644547549553]},"properties":{"id":"117","land-id":"09372","name":"Chamerau","population":2517,"population_man":1269,"population_woman":1248,"area":23.43}},{"type":"Feature","geometry":{"type":"Point","coordinates":[12.937381641567612,49.2981172365971]},"properties":{"id":"124","land-id":"09372","name":"Eschlkam","population":3347,"population_man":1673,"population_woman":1674,"area":60.45}},{"type":"Feature","geometry":{"type":"Point","coordinates":[12.484552050350969,49.10151700719143]},"properties":{"id":"125","land-id":"09372","name":"Falkenstein","population":3405,"population_man":1702,"population_woman":1703,"area":45.5}},{"type":"Feature","geometry":{"type":"Point","coordinates":[12.834642333307594,49.30953592763291]},"properties":{"id":"126","land-id":"09372","name":"Furth im Wald","population":8697,"population_man":4394,"population_woman":4303,"area":67.04}},{"type":"Feature","geometry":{"type":"Point","coordinates":[12.74368817903406,49.32472690664739]},"properties":{"id":"128","land-id":"09372","name":"Glei\u00dfenberg","population":806,"population_man":400,"population_woman":406,"area":15.31}},{"type":"Feature","geometry":{"type":"Point","coordinates":[12.879557091866019,49.20345688951417]},"properties":{"id":"130","land-id":"09372","name":"Grafenwiesen","population":1534,"population_man":765,"population_woman":769,"area":10.19}},{"type":"Feature","geometry":{"type":"Point","coordinates":[12.938012222891446,49.20160999445791]},"properties":{"id":"135","land-id":"09372","name":"Hohenwarth","population":1905,"population_man":955,"population_woman":950,"area":24.25}},{"type":"Feature","geometry":{"type":"Point","coordinates":[12.879018520736407,49.170349040057935]},"properties":{"id":"137","land-id":"09372","name":"Bad K\u00f6tzting","population":7487,"population_man":3703,"population_woman":3784,"area":62.18}},{"type":"Feature","geometry":{"type":"Point","coordinates":[13.053227410671273,49.1990643181653]},"properties":{"id":"138","land-id":"09372","name":"Lam","population":2594,"population_man":1265,"population_woman":1329,"area":33.27}},{"type":"Feature","geometry":{"type":"Point","coordinates":[12.541324102731673,49.12180794636298]},"properties":{"id":"142","land-id":"09372","name":"Michelsneukirchen","population":1739,"population_man":874,"population_woman":865,"area":32.85}},{"type":"Feature","geometry":{"type":"Point","coordinates":[12.774625237777993,49.145743819687084]},"properties":{"id":"143","land-id":"09372","name":"Miltach","population":2270,"population_man":1113,"population_woman":1157,"area":25.25}},{"type":"Feature","geometry":{"type":"Point","coordinates":[13.001060432435711,49.255257462605314]},"properties":{"id":"144","land-id":"09372","name":"Neukirchen b.Hl.Blut","population":3659,"population_man":1829,"population_woman":1830,"area":59.87}},{"type":"Feature","geometry":{"type":"Point","coordinates":[12.607769889668639,49.27550800232788]},"properties":{"id":"146","land-id":"09372","name":"Pemfling","population":2173,"population_man":1086,"population_woman":1087,"area":44.57}},{"type":"Feature","geometry":{"type":"Point","coordinates":[12.550377072607318,49.233940230829205]},"properties":{"id":"147","land-id":"09372","name":"P\u00f6sing","population":1015,"population_man":514,"population_woman":501,"area":9.16}},{"type":"Feature","geometry":{"type":"Point","coordinates":[12.347102635575327,49.17903716367405]},"properties":{"id":"149","land-id":"09372","name":"Reichenbach","population":1297,"population_man":742,"population_woman":555,"area":10.5}},{"type":"Feature","geometry":{"type":"Point","coordinates":[12.45693408331779,49.06363334505417]},"properties":{"id":"150","land-id":"09372","name":"Rettenbach","population":1812,"population_man":939,"population_woman":873,"area":27.12}},{"type":"Feature","geometry":{"type":"Point","coordinates":[12.885688611199585,49.23453660425753]},"properties":{"id":"151","land-id":"09372","name":"Rimbach","population":1793,"population_man":891,"population_woman":902,"area":24.74}},{"type":"Feature","geometry":{"type":"Point","coordinates":[12.480437981364249,49.20597094137424]},"properties":{"id":"153","land-id":"09372","name":"Roding","population":12933,"population_man":6712,"population_woman":6221,"area":119.71}},{"type":"Feature","geometry":{"type":"Point","coordinates":[12.530871155008267,49.35245437352901]},"properties":{"id":"154","land-id":"09372","name":"R\u00f6tz","population":3213,"population_man":1622,"population_woman":1591,"area":66.65}},{"type":"Feature","geometry":{"type":"Point","coordinates":[12.757031230656503,49.222243667665154]},"properties":{"id":"155","land-id":"09372","name":"Runding","population":2234,"population_man":1115,"population_woman":1119,"area":20.96}},{"type":"Feature","geometry":{"type":"Point","coordinates":[12.602032121606282,49.35400465654307]},"properties":{"id":"157","land-id":"09372","name":"Sch\u00f6nthal","population":1962,"population_man":973,"population_woman":989,"area":43.65}},{"type":"Feature","geometry":{"type":"Point","coordinates":[12.596061751550295,49.16752066381212]},"properties":{"id":"158","land-id":"09372","name":"Schorndorf","population":3002,"population_man":1477,"population_woman":1525,"area":38.56}},{"type":"Feature","geometry":{"type":"Point","coordinates":[12.523547937406695,49.27412962971982]},"properties":{"id":"161","land-id":"09372","name":"Stamsried","population":2218,"population_man":1149,"population_woman":1069,"area":43.42}},{"type":"Feature","geometry":{"type":"Point","coordinates":[12.590016478740157,49.44237715402195]},"properties":{"id":"163","land-id":"09372","name":"Tiefenbach","population":1877,"population_man":944,"population_woman":933,"area":45.77}},{"type":"Feature","geometry":{"type":"Point","coordinates":[12.647424318763306,49.131221807303824]},"properties":{"id":"164","land-id":"09372","name":"Traitsching","population":4232,"population_man":2085,"population_woman":2147,"area":45.34}},{"type":"Feature","geometry":{"type":"Point","coordinates":[12.625980290978067,49.41831816725038]},"properties":{"id":"165","land-id":"09372","name":"Treffelstein","population":978,"population_man":508,"population_woman":470,"area":20.89}},{"type":"Feature","geometry":{"type":"Point","coordinates":[12.416216395191297,49.140660804302215]},"properties":{"id":"167","land-id":"09372","name":"Zell","population":1817,"population_man":944,"population_woman":873,"area":32.9}},{"type":"Feature","geometry":{"type":"Point","coordinates":[12.667123266293292,49.28498473320118]},"properties":{"id":"168","land-id":"09372","name":"Waffenbrunn","population":2045,"population_man":1054,"population_woman":991,"area":25.14}},{"type":"Feature","geometry":{"type":"Point","coordinates":[12.351624400047323,49.12841333740377]},"properties":{"id":"169","land-id":"09372","name":"Wald","population":2984,"population_man":1487,"population_woman":1497,"area":37.79}},{"type":"Feature","geometry":{"type":"Point","coordinates":[12.391163772380787,49.19809039250652]},"properties":{"id":"170","land-id":"09372","name":"Walderbach","population":2333,"population_man":1197,"population_woman":1136,"area":34.96}},{"type":"Feature","geometry":{"type":"Point","coordinates":[12.697324130636046,49.367903667287955]},"properties":{"id":"171","land-id":"09372","name":"Waldm\u00fcnchen","population":6591,"population_man":3310,"population_woman":3281,"area":101.19}},{"type":"Feature","geometry":{"type":"Point","coordinates":[12.751931441725187,49.26774012024441]},"properties":{"id":"174","land-id":"09372","name":"Weiding","population":2415,"population_man":1199,"population_woman":1216,"area":28.19}},{"type":"Feature","geometry":{"type":"Point","coordinates":[12.682688191562903,49.25053760732877]},"properties":{"id":"175","land-id":"09372","name":"Willmering","population":1997,"population_man":964,"population_woman":1033,"area":10.31}},{"type":"Feature","geometry":{"type":"Point","coordinates":[12.723899966985627,49.143621374848586]},"properties":{"id":"177","land-id":"09372","name":"Zandt","population":2061,"population_man":1008,"population_woman":1053,"area":21.62}},{"type":"Feature","geometry":{"type":"Point","coordinates":[13.108022669578537,49.15998353400532]},"properties":{"id":"178","land-id":"09372","name":"Lohberg","population":1794,"population_man":898,"population_woman":896,"area":59.33}},{"type":"Feature","geometry":{"type":"Point","coordinates":[11.466711075936578,49.11807506510384]},"properties":{"id":"112","land-id":"09373","name":"Berching","population":9034,"population_man":4569,"population_woman":4465,"area":131.35}},{"type":"Feature","geometry":{"type":"Point","coordinates":[11.442949651832796,49.35317490249002]},"properties":{"id":"113","land-id":"09373","name":"Berg b.Neumarkt i.d.OPf.","population":7998,"population_man":4020,"population_woman":3978,"area":65.1}},{"type":"Feature","geometry":{"type":"Point","coordinates":[11.385302894036005,49.251246147436795]},"properties":{"id":"114","land-id":"09373","name":"Berngau","population":2645,"population_man":1305,"population_woman":1340,"area":27.05}},{"type":"Feature","geometry":{"type":"Point","coordinates":[11.632330106879,49.09174479152122]},"properties":{"id":"115","land-id":"09373","name":"Breitenbrunn","population":3672,"population_man":1873,"population_woman":1799,"area":70.81}},{"type":"Feature","geometry":{"type":"Point","coordinates":[11.539375532341055,49.212940931080716]},"properties":{"id":"119","land-id":"09373","name":"Deining","population":5395,"population_man":2699,"population_woman":2696,"area":71.25}},{"type":"Feature","geometry":{"type":"Point","coordinates":[11.590868958682444,49.029055378449335]},"properties":{"id":"121","land-id":"09373","name":"Dietfurt a.d.Altm\u00fchl","population":6394,"population_man":3342,"population_woman":3052,"area":78.7}},{"type":"Feature","geometry":{"type":"Point","coordinates":[11.34056066915757,49.18498000778932]},"properties":{"id":"126","land-id":"09373","name":"Freystadt","population":9093,"population_man":4656,"population_woman":4437,"area":80.53}},{"type":"Feature","geometry":{"type":"Point","coordinates":[11.851387124119826,49.22587206133031]},"properties":{"id":"134","land-id":"09373","name":"Hohenfels","population":2309,"population_man":1181,"population_woman":1128,"area":136.97}},{"type":"Feature","geometry":{"type":"Point","coordinates":[11.5652226761956,49.372774063712335]},"properties":{"id":"140","land-id":"09373","name":"Lauterhofen","population":3739,"population_man":1929,"population_woman":1810,"area":83.09}},{"type":"Feature","geometry":{"type":"Point","coordinates":[11.757935038638504,49.15770985012667]},"properties":{"id":"143","land-id":"09373","name":"Lupburg","population":2572,"population_man":1308,"population_woman":1264,"area":30.64}},{"type":"Feature","geometry":{"type":"Point","coordinates":[11.42991183339612,49.18046607726388]},"properties":{"id":"146","land-id":"09373","name":"M\u00fchlhausen","population":5292,"population_man":2760,"population_woman":2532,"area":36.91}},{"type":"Feature","geometry":{"type":"Point","coordinates":[11.472974128922427,49.28249649557716]},"properties":{"id":"147","land-id":"09373","name":"Neumarkt i.d.OPf.","population":41055,"population_man":20280,"population_woman":20775,"area":79.07}},{"type":"Feature","geometry":{"type":"Point","coordinates":[11.720586919778288,49.17089306023367]},"properties":{"id":"151","land-id":"09373","name":"Parsberg","population":7815,"population_man":3970,"population_woman":3845,"area":57.36}},{"type":"Feature","geometry":{"type":"Point","coordinates":[11.541408893057318,49.327635425655224]},"properties":{"id":"153","land-id":"09373","name":"Pilsach","population":2857,"population_man":1496,"population_woman":1361,"area":47.68}},{"type":"Feature","geometry":{"type":"Point","coordinates":[11.354446374241313,49.28986070110513]},"properties":{"id":"155","land-id":"09373","name":"Postbauer-Heng","population":7945,"population_man":3862,"population_woman":4083,"area":24.68}},{"type":"Feature","geometry":{"type":"Point","coordinates":[11.270751573287964,49.28929658305599]},"properties":{"id":"156","land-id":"09373","name":"Pyrbaum","population":5808,"population_man":2882,"population_woman":2926,"area":50.32}},{"type":"Feature","geometry":{"type":"Point","coordinates":[11.44807112202477,49.223096844920015]},"properties":{"id":"159","land-id":"09373","name":"Sengenthal","population":4134,"population_man":2660,"population_woman":1474,"area":28.56}},{"type":"Feature","geometry":{"type":"Point","coordinates":[11.61749476522022,49.155212940343596]},"properties":{"id":"160","land-id":"09373","name":"Seubersdorf i.d.OPf.","population":5314,"population_man":2642,"population_woman":2672,"area":68.25}},{"type":"Feature","geometry":{"type":"Point","coordinates":[11.678527980010465,49.26155871023947]},"properties":{"id":"167","land-id":"09373","name":"Velburg","population":5405,"population_man":2719,"population_woman":2686,"area":175.56}},{"type":"Feature","geometry":{"type":"Point","coordinates":[12.125449299900302,49.72349028722954]},"properties":{"id":"111","land-id":"09374","name":"Altenstadt a.d.Waldnaab","population":4686,"population_man":2269,"population_woman":2417,"area":21.99}},{"type":"Feature","geometry":{"type":"Point","coordinates":[11.830400343533292,49.746891065279705]},"properties":{"id":"117","land-id":"09374","name":"Eschenbach i.d.OPf.","population":4314,"population_man":2105,"population_woman":2209,"area":35.18}},{"type":"Feature","geometry":{"type":"Point","coordinates":[12.524925189732855,49.57940247646234]},"properties":{"id":"118","land-id":"09374","name":"Eslarn","population":2734,"population_man":1385,"population_woman":1349,"area":55.2}},{"type":"Feature","geometry":{"type":"Point","coordinates":[12.094839011937625,49.62307585285454]},"properties":{"id":"119","land-id":"09374","name":"Etzenricht","population":1545,"population_man":777,"population_woman":768,"area":13.64}},{"type":"Feature","geometry":{"type":"Point","coordinates":[12.277808089398983,49.7256887584857]},"properties":{"id":"121","land-id":"09374","name":"Flo\u00df","population":3504,"population_man":1777,"population_woman":1727,"area":54.35}},{"type":"Feature","geometry":{"type":"Point","coordinates":[12.358147890382128,49.74223937948911]},"properties":{"id":"122","land-id":"09374","name":"Flossenb\u00fcrg","population":1489,"population_man":736,"population_woman":753,"area":23.31}},{"type":"Feature","geometry":{"type":"Point","coordinates":[12.40840167181339,49.70444343904175]},"properties":{"id":"123","land-id":"09374","name":"Georgenberg","population":1271,"population_man":639,"population_woman":632,"area":36.81}},{"type":"Feature","geometry":{"type":"Point","coordinates":[11.800874027006461,49.68364107601962]},"properties":{"id":"124","land-id":"09374","name":"Grafenw\u00f6hr","population":6323,"population_man":3077,"population_woman":3246,"area":216.04}},{"type":"Feature","geometry":{"type":"Point","coordinates":[12.22608789348312,49.628206727453325]},"properties":{"id":"127","land-id":"09374","name":"Irchenrieth","population":1669,"population_man":846,"population_woman":823,"area":5.25}},{"type":"Feature","geometry":{"type":"Point","coordinates":[12.110837072649886,49.76950370016163]},"properties":{"id":"128","land-id":"09374","name":"Kirchendemenreuth","population":904,"population_man":464,"population_woman":440,"area":39.36}},{"type":"Feature","geometry":{"type":"Point","coordinates":[11.703154235064588,49.75657245452866]},"properties":{"id":"129","land-id":"09374","name":"Kirchenthumbach","population":3257,"population_man":1685,"population_woman":1572,"area":67.62}},{"type":"Feature","geometry":{"type":"Point","coordinates":[12.023350242385803,49.60051135636043]},"properties":{"id":"131","land-id":"09374","name":"Kohlberg","population":1217,"population_man":614,"population_woman":603,"area":33.42}},{"type":"Feature","geometry":{"type":"Point","coordinates":[12.26401573851123,49.58841491403221]},"properties":{"id":"132","land-id":"09374","name":"Leuchtenberg","population":1195,"population_man":599,"population_woman":596,"area":32.37}},{"type":"Feature","geometry":{"type":"Point","coordinates":[12.12851659916318,49.584854346945164]},"properties":{"id":"133","land-id":"09374","name":"Luhe-Wildenau","population":3438,"population_man":1745,"population_woman":1693,"area":38.59}},{"type":"Feature","geometry":{"type":"Point","coordinates":[12.03640852382618,49.657203948662875]},"properties":{"id":"134","land-id":"09374","name":"Mantel","population":2788,"population_man":1401,"population_woman":1387,"area":16.83}},{"type":"Feature","geometry":{"type":"Point","coordinates":[12.424678966700823,49.57332545566142]},"properties":{"id":"137","land-id":"09374","name":"Moosbach","population":2486,"population_man":1256,"population_woman":1230,"area":64.23}},{"type":"Feature","geometry":{"type":"Point","coordinates":[12.17052844456875,49.73319289077434]},"properties":{"id":"139","land-id":"09374","name":"Neustadt a.d.Waldnaab","population":6071,"population_man":3011,"population_woman":3060,"area":9.93}},{"type":"Feature","geometry":{"type":"Point","coordinates":[11.835319832057145,49.82751158231363]},"properties":{"id":"140","land-id":"09374","name":"Neustadt am Kulm","population":1157,"population_man":569,"population_woman":588,"area":20.34}},{"type":"Feature","geometry":{"type":"Point","coordinates":[12.057406714422841,49.73346935345587]},"properties":{"id":"144","land-id":"09374","name":"Parkstein","population":2378,"population_man":1174,"population_woman":1204,"area":30.89}},{"type":"Feature","geometry":{"type":"Point","coordinates":[12.184013021088575,49.616181960333144]},"properties":{"id":"146","land-id":"09374","name":"Pirk","population":1950,"population_man":988,"population_woman":962,"area":26.14}},{"type":"Feature","geometry":{"type":"Point","coordinates":[12.421267624561143,49.64881762969468]},"properties":{"id":"147","land-id":"09374","name":"Pleystein","population":2364,"population_man":1184,"population_woman":1180,"area":42.34}},{"type":"Feature","geometry":{"type":"Point","coordinates":[11.89839612231124,49.78358922454702]},"properties":{"id":"148","land-id":"09374","name":"Trabitz","population":1347,"population_man":682,"population_woman":665,"area":26.72}},{"type":"Feature","geometry":{"type":"Point","coordinates":[11.974063387806567,49.76800768727798]},"properties":{"id":"149","land-id":"09374","name":"Pressath","population":4215,"population_man":2119,"population_woman":2096,"area":66.53}},{"type":"Feature","geometry":{"type":"Point","coordinates":[12.215288796449546,49.77153125455505]},"properties":{"id":"150","land-id":"09374","name":"P\u00fcchersreuth","population":1703,"population_man":853,"population_woman":850,"area":25.15}},{"type":"Feature","geometry":{"type":"Point","coordinates":[12.176559805118252,49.64982416830852]},"properties":{"id":"154","land-id":"09374","name":"Schirmitz","population":2086,"population_man":1000,"population_woman":1086,"area":4.94}},{"type":"Feature","geometry":{"type":"Point","coordinates":[11.743199060328369,49.79041212671143]},"properties":{"id":"155","land-id":"09374","name":"Schlammersdorf","population":872,"population_man":450,"population_woman":422,"area":20.36}},{"type":"Feature","geometry":{"type":"Point","coordinates":[12.003982364521905,49.72002235419931]},"properties":{"id":"156","land-id":"09374","name":"Schwarzenbach","population":1143,"population_man":545,"population_woman":598,"area":12.23}},{"type":"Feature","geometry":{"type":"Point","coordinates":[11.820385637109837,49.78521380099614]},"properties":{"id":"157","land-id":"09374","name":"Speinshart","population":1126,"population_man":557,"population_woman":569,"area":23.83}},{"type":"Feature","geometry":{"type":"Point","coordinates":[12.20312983677101,49.74293528664467]},"properties":{"id":"158","land-id":"09374","name":"St\u00f6rnstein","population":1549,"population_man":776,"population_woman":773,"area":10.97}},{"type":"Feature","geometry":{"type":"Point","coordinates":[12.33148472949513,49.543049805799136]},"properties":{"id":"159","land-id":"09374","name":"T\u00e4nnesberg","population":1475,"population_man":754,"population_woman":721,"area":46.58}},{"type":"Feature","geometry":{"type":"Point","coordinates":[12.225279110809309,49.69324486154286]},"properties":{"id":"160","land-id":"09374","name":"Theisseil","population":1198,"population_man":599,"population_woman":599,"area":21.39}},{"type":"Feature","geometry":{"type":"Point","coordinates":[12.327777498852068,49.6208585063539]},"properties":{"id":"162","land-id":"09374","name":"Vohenstrau\u00df","population":7687,"population_man":3832,"population_woman":3855,"area":75.15}},{"type":"Feature","geometry":{"type":"Point","coordinates":[11.753780742079442,49.814911535121716]},"properties":{"id":"163","land-id":"09374","name":"Vorbach","population":1076,"population_man":558,"population_woman":518,"area":13.53}},{"type":"Feature","geometry":{"type":"Point","coordinates":[12.492545650449323,49.65122292362169]},"properties":{"id":"164","land-id":"09374","name":"Waidhaus","population":2130,"population_man":1075,"population_woman":1055,"area":37.32}},{"type":"Feature","geometry":{"type":"Point","coordinates":[12.328366051084211,49.68130818388123]},"properties":{"id":"165","land-id":"09374","name":"Waldthurn","population":1941,"population_man":1005,"population_woman":936,"area":30.98}},{"type":"Feature","geometry":{"type":"Point","coordinates":[11.992689550314532,49.64491441756978]},"properties":{"id":"166","land-id":"09374","name":"Weiherhammer","population":3842,"population_man":1893,"population_woman":1949,"area":40.1}},{"type":"Feature","geometry":{"type":"Point","coordinates":[12.155957361722379,49.81160219401027]},"properties":{"id":"168","land-id":"09374","name":"Windischeschenbach","population":4994,"population_man":2499,"population_woman":2495,"area":36.35}},{"type":"Feature","geometry":{"type":"Point","coordinates":[12.210503017957285,49.64714392731755]},"properties":{"id":"170","land-id":"09374","name":"Bechtsrieth","population":1068,"population_man":534,"population_woman":534,"area":4.8}},{"type":"Feature","geometry":{"type":"Point","coordinates":[12.20555548814074,48.91698071307451]},"properties":{"id":"113","land-id":"09375","name":"Alteglofsheim","population":3180,"population_man":1565,"population_woman":1615,"area":13.14}},{"type":"Feature","geometry":{"type":"Point","coordinates":[12.300012179056997,49.09161083260579]},"properties":{"id":"114","land-id":"09375","name":"Altenthann","population":1504,"population_man":756,"population_woman":748,"area":21.47}},{"type":"Feature","geometry":{"type":"Point","coordinates":[12.28357251239577,48.874566739593384]},"properties":{"id":"115","land-id":"09375","name":"Aufhausen","population":1912,"population_man":938,"population_woman":974,"area":27.24}},{"type":"Feature","geometry":{"type":"Point","coordinates":[12.294259563682173,49.02327084260423]},"properties":{"id":"116","land-id":"09375","name":"Bach a.d.Donau","population":1966,"population_man":1066,"population_woman":900,"area":14.69}},{"type":"Feature","geometry":{"type":"Point","coordinates":[12.26893974208967,48.99989375946281]},"properties":{"id":"117","land-id":"09375","name":"Barbing","population":5836,"population_man":2972,"population_woman":2864,"area":30.61}},{"type":"Feature","geometry":{"type":"Point","coordinates":[11.82133532205922,49.11864832768434]},"properties":{"id":"118","land-id":"09375","name":"Beratzhausen","population":5552,"population_man":2761,"population_woman":2791,"area":72.58}},{"type":"Feature","geometry":{"type":"Point","coordinates":[12.24486960491238,49.11157962876138]},"properties":{"id":"119","land-id":"09375","name":"Bernhardswald","population":5396,"population_man":2701,"population_woman":2695,"area":71.84}},{"type":"Feature","geometry":{"type":"Point","coordinates":[12.385004789317529,49.074157877262614]},"properties":{"id":"120","land-id":"09375","name":"Brennberg","population":2101,"population_man":1063,"population_woman":1038,"area":30.49}},{"type":"Feature","geometry":{"type":"Point","coordinates":[11.918354341733291,49.08585179081276]},"properties":{"id":"122","land-id":"09375","name":"Brunn","population":1633,"population_man":820,"population_woman":813,"area":16.1}},{"type":"Feature","geometry":{"type":"Point","coordinates":[11.901865033091019,49.029640519912256]},"properties":{"id":"127","land-id":"09375","name":"Deuerling","population":1911,"population_man":966,"population_woman":945,"area":7.11}},{"type":"Feature","geometry":{"type":"Point","coordinates":[12.226031819775097,49.02914746041909]},"properties":{"id":"130","land-id":"09375","name":"Donaustauf","population":4269,"population_man":2138,"population_woman":2131,"area":9.71}},{"type":"Feature","geometry":{"type":"Point","coordinates":[11.925236941504364,49.12286849591258]},"properties":{"id":"131","land-id":"09375","name":"Duggendorf","population":1536,"population_man":777,"population_woman":759,"area":22.87}},{"type":"Feature","geometry":{"type":"Point","coordinates":[12.229869749691423,48.89457529137213]},"properties":{"id":"143","land-id":"09375","name":"Hagelstadt","population":2001,"population_man":1033,"population_woman":968,"area":20.78}},{"type":"Feature","geometry":{"type":"Point","coordinates":[11.764115296420446,49.04533493552133]},"properties":{"id":"148","land-id":"09375","name":"Hemau","population":9296,"population_man":4749,"population_woman":4547,"area":122.32}},{"type":"Feature","geometry":{"type":"Point","coordinates":[12.004106603127687,49.140771039220624]},"properties":{"id":"153","land-id":"09375","name":"Holzheim a.Forst","population":1089,"population_man":549,"population_woman":540,"area":15.64}},{"type":"Feature","geometry":{"type":"Point","coordinates":[11.939698725064384,49.162391047946855]},"properties":{"id":"156","land-id":"09375","name":"Kallm\u00fcnz","population":2816,"population_man":1397,"population_woman":1419,"area":43.13}},{"type":"Feature","geometry":{"type":"Point","coordinates":[12.182293028150776,48.939610707148546]},"properties":{"id":"161","land-id":"09375","name":"K\u00f6fering","population":2819,"population_man":1414,"population_woman":1405,"area":5.29}},{"type":"Feature","geometry":{"type":"Point","coordinates":[11.894044239604451,49.06662854455789]},"properties":{"id":"162","land-id":"09375","name":"Laaber","population":5243,"population_man":2611,"population_woman":2632,"area":29.65}},{"type":"Feature","geometry":{"type":"Point","coordinates":[12.058925852891193,49.07340529697465]},"properties":{"id":"165","land-id":"09375","name":"Lappersdorf","population":13327,"population_man":6537,"population_woman":6790,"area":34.46}},{"type":"Feature","geometry":{"type":"Point","coordinates":[12.261810849793214,48.948561522080105]},"properties":{"id":"170","land-id":"09375","name":"Mintraching","population":4991,"population_man":2483,"population_woman":2508,"area":53.8}},{"type":"Feature","geometry":{"type":"Point","coordinates":[12.401926480236412,48.90437027222309]},"properties":{"id":"171","land-id":"09375","name":"M\u00f6tzing","population":1399,"population_man":704,"population_woman":695,"area":36.24}},{"type":"Feature","geometry":{"type":"Point","coordinates":[12.206935005522464,48.98147647799373]},"properties":{"id":"174","land-id":"09375","name":"Neutraubling","population":14168,"population_man":7024,"population_woman":7144,"area":9.8}},{"type":"Feature","geometry":{"type":"Point","coordinates":[11.942227738850058,49.01813290667528]},"properties":{"id":"175","land-id":"09375","name":"Nittendorf","population":8974,"population_man":4379,"population_woman":4595,"area":33.53}},{"type":"Feature","geometry":{"type":"Point","coordinates":[12.152147977820624,48.95448168457817]},"properties":{"id":"179","land-id":"09375","name":"Obertraubling","population":8743,"population_man":4470,"population_woman":4273,"area":24.83}},{"type":"Feature","geometry":{"type":"Point","coordinates":[12.060575488501481,48.96014949935364]},"properties":{"id":"180","land-id":"09375","name":"Pentling","population":6214,"population_man":3096,"population_woman":3118,"area":32.59}},{"type":"Feature","geometry":{"type":"Point","coordinates":[12.010290136121082,49.04709596564702]},"properties":{"id":"181","land-id":"09375","name":"Pettendorf","population":3432,"population_man":1667,"population_woman":1765,"area":24.55}},{"type":"Feature","geometry":{"type":"Point","coordinates":[12.219969317244544,48.8596093585082]},"properties":{"id":"182","land-id":"09375","name":"Pfakofen","population":1604,"population_man":803,"population_woman":801,"area":15.27}},{"type":"Feature","geometry":{"type":"Point","coordinates":[12.380764550065834,48.96033342370435]},"properties":{"id":"183","land-id":"09375","name":"Pfatter","population":3152,"population_man":1588,"population_woman":1564,"area":48.13}},{"type":"Feature","geometry":{"type":"Point","coordinates":[11.976904739181798,49.07745591596811]},"properties":{"id":"184","land-id":"09375","name":"Pielenhofen","population":1670,"population_man":830,"population_woman":840,"area":14.62}},{"type":"Feature","geometry":{"type":"Point","coordinates":[12.128180773748113,49.145341688950914]},"properties":{"id":"190","land-id":"09375","name":"Regenstauf","population":15869,"population_man":7906,"population_woman":7963,"area":104.01}},{"type":"Feature","geometry":{"type":"Point","coordinates":[12.334973963676953,48.91859903827087]},"properties":{"id":"191","land-id":"09375","name":"Riekofen","population":778,"population_man":406,"population_woman":372,"area":23.9}},{"type":"Feature","geometry":{"type":"Point","coordinates":[12.158737610891261,48.82561114313057]},"properties":{"id":"196","land-id":"09375","name":"Schierling","population":8134,"population_man":4230,"population_woman":3904,"area":77.5}},{"type":"Feature","geometry":{"type":"Point","coordinates":[11.979433383507343,48.9847587343481]},"properties":{"id":"199","land-id":"09375","name":"Sinzing","population":7312,"population_man":3642,"population_woman":3670,"area":44.15}},{"type":"Feature","geometry":{"type":"Point","coordinates":[12.355146121316915,48.870496940304385]},"properties":{"id":"201","land-id":"09375","name":"S\u00fcnching","population":2213,"population_man":1091,"population_woman":1122,"area":19.46}},{"type":"Feature","geometry":{"type":"Point","coordinates":[12.183111363645796,49.030379507330146]},"properties":{"id":"204","land-id":"09375","name":"Tegernheim","population":5572,"population_man":2702,"population_woman":2870,"area":11.43}},{"type":"Feature","geometry":{"type":"Point","coordinates":[12.141120108582971,48.90742070256648]},"properties":{"id":"205","land-id":"09375","name":"Thalmassing","population":3575,"population_man":1806,"population_woman":1769,"area":37.16}},{"type":"Feature","geometry":{"type":"Point","coordinates":[12.17720697066058,49.07568941288825]},"properties":{"id":"208","land-id":"09375","name":"Wenzenbach","population":8744,"population_man":4353,"population_woman":4391,"area":29.85}},{"type":"Feature","geometry":{"type":"Point","coordinates":[12.36969954468887,49.027863545591494]},"properties":{"id":"209","land-id":"09375","name":"Wiesent","population":2625,"population_man":1301,"population_woman":1324,"area":26.78}},{"type":"Feature","geometry":{"type":"Point","coordinates":[12.421831915886587,49.00466211124863]},"properties":{"id":"210","land-id":"09375","name":"W\u00f6rth a.d.Donau","population":5150,"population_man":2607,"population_woman":2543,"area":52.28}},{"type":"Feature","geometry":{"type":"Point","coordinates":[11.982593597020392,49.105095306131716]},"properties":{"id":"211","land-id":"09375","name":"Wolfsegg","population":1496,"population_man":773,"population_woman":723,"area":15.38}},{"type":"Feature","geometry":{"type":"Point","coordinates":[12.122693845339152,49.088868522229255]},"properties":{"id":"213","land-id":"09375","name":"Zeitlarn","population":5363,"population_man":2632,"population_woman":2731,"area":16.07}},{"type":"Feature","geometry":{"type":"Point","coordinates":[12.287537730404928,49.41898145788755]},"properties":{"id":"112","land-id":"09376","name":"Altendorf","population":857,"population_man":435,"population_woman":422,"area":23.21}},{"type":"Feature","geometry":{"type":"Point","coordinates":[12.287101302049216,49.295550747932815]},"properties":{"id":"116","land-id":"09376","name":"Bodenw\u00f6hr","population":4197,"population_man":2128,"population_woman":2069,"area":54.31}},{"type":"Feature","geometry":{"type":"Point","coordinates":[12.306565572339586,49.24740596101002]},"properties":{"id":"117","land-id":"09376","name":"Bruck i.d.OPf.","population":4156,"population_man":2106,"population_woman":2050,"area":52.47}},{"type":"Feature","geometry":{"type":"Point","coordinates":[12.003626927500635,49.22789048769531]},"properties":{"id":"119","land-id":"09376","name":"Burglengenfeld","population":14348,"population_man":7037,"population_woman":7311,"area":93.28}},{"type":"Feature","geometry":{"type":"Point","coordinates":[12.410794158879263,49.40660776125623]},"properties":{"id":"122","land-id":"09376","name":"Dieterskirchen","population":995,"population_man":511,"population_woman":484,"area":24.11}},{"type":"Feature","geometry":{"type":"Point","coordinates":[12.03961534143958,49.40647200443509]},"properties":{"id":"125","land-id":"09376","name":"Fensterbach","population":2392,"population_man":1221,"population_woman":1171,"area":26.97}},{"type":"Feature","geometry":{"type":"Point","coordinates":[12.317071788552287,49.501226124436485]},"properties":{"id":"131","land-id":"09376","name":"Gleiritsch","population":629,"population_man":322,"population_woman":307,"area":10.92}},{"type":"Feature","geometry":{"type":"Point","coordinates":[12.285280960298795,49.45897084603399]},"properties":{"id":"133","land-id":"09376","name":"Guteneck","population":813,"population_man":435,"population_woman":378,"area":35.04}},{"type":"Feature","geometry":{"type":"Point","coordinates":[12.100932997992153,49.182469411804824]},"properties":{"id":"141","land-id":"09376","name":"Maxh\u00fctte-Haidhof","population":12044,"population_man":6038,"population_woman":6006,"area":34.66}},{"type":"Feature","geometry":{"type":"Point","coordinates":[12.17780624587582,49.45432433294716]},"properties":{"id":"144","land-id":"09376","name":"Nabburg","population":6239,"population_man":3080,"population_woman":3159,"area":62.39}},{"type":"Feature","geometry":{"type":"Point","coordinates":[12.41762538537455,49.290297431497855]},"properties":{"id":"146","land-id":"09376","name":"Neukirchen-Balbini","population":1135,"population_man":575,"population_woman":560,"area":48.22}},{"type":"Feature","geometry":{"type":"Point","coordinates":[12.360375512151025,49.34492940579094]},"properties":{"id":"147","land-id":"09376","name":"Neunburg vorm Wald","population":7936,"population_man":4067,"population_woman":3869,"area":110.31}},{"type":"Feature","geometry":{"type":"Point","coordinates":[12.360862570932571,49.44487483770006]},"properties":{"id":"148","land-id":"09376","name":"Niedermurach","population":1261,"population_man":657,"population_woman":604,"area":30.01}},{"type":"Feature","geometry":{"type":"Point","coordinates":[12.244890509809139,49.20588511227827]},"properties":{"id":"149","land-id":"09376","name":"Nittenau","population":9157,"population_man":4571,"population_woman":4586,"area":98.72}},{"type":"Feature","geometry":{"type":"Point","coordinates":[12.158990536067236,49.54108256815533]},"properties":{"id":"150","land-id":"09376","name":"Wernberg-K\u00f6blitz","population":5484,"population_man":2761,"population_woman":2723,"area":66.22}},{"type":"Feature","geometry":{"type":"Point","coordinates":[12.448520510803426,49.484557171446504]},"properties":{"id":"151","land-id":"09376","name":"Oberviechtach","population":4899,"population_man":2463,"population_woman":2436,"area":62.37}},{"type":"Feature","geometry":{"type":"Point","coordinates":[12.203688352828289,49.50086474271873]},"properties":{"id":"153","land-id":"09376","name":"Pfreimd","population":4942,"population_man":2433,"population_woman":2509,"area":51.45}},{"type":"Feature","geometry":{"type":"Point","coordinates":[12.069556216666387,49.44922107930024]},"properties":{"id":"159","land-id":"09376","name":"Schmidgaden","population":3054,"population_man":1525,"population_woman":1529,"area":41.3}},{"type":"Feature","geometry":{"type":"Point","coordinates":[12.54359060693354,49.51295953741088]},"properties":{"id":"160","land-id":"09376","name":"Sch\u00f6nsee","population":2279,"population_man":1150,"population_woman":1129,"area":50.31}},{"type":"Feature","geometry":{"type":"Point","coordinates":[12.088473725017005,49.317654386340315]},"properties":{"id":"161","land-id":"09376","name":"Schwandorf","population":29882,"population_man":14924,"population_woman":14958,"area":123.88}},{"type":"Feature","geometry":{"type":"Point","coordinates":[12.212278862431136,49.397450001118756]},"properties":{"id":"162","land-id":"09376","name":"Schwarzach b.Nabburg","population":1342,"population_man":685,"population_woman":657,"area":27.34}},{"type":"Feature","geometry":{"type":"Point","coordinates":[12.163801596749883,49.3760207304948]},"properties":{"id":"163","land-id":"09376","name":"Schwarzenfeld","population":6281,"population_man":3069,"population_woman":3212,"area":38.22}},{"type":"Feature","geometry":{"type":"Point","coordinates":[12.329637762654464,49.38578700762102]},"properties":{"id":"164","land-id":"09376","name":"Schwarzhofen","population":1367,"population_man":711,"population_woman":656,"area":35.88}},{"type":"Feature","geometry":{"type":"Point","coordinates":[12.625012733354682,49.503091349730575]},"properties":{"id":"167","land-id":"09376","name":"Stadlern","population":528,"population_man":270,"population_woman":258,"area":10.6}},{"type":"Feature","geometry":{"type":"Point","coordinates":[12.174439300237932,49.272655049667975]},"properties":{"id":"168","land-id":"09376","name":"Steinberg am See","population":1941,"population_man":984,"population_woman":957,"area":20.24}},{"type":"Feature","geometry":{"type":"Point","coordinates":[12.13519339142099,49.420915902756256]},"properties":{"id":"169","land-id":"09376","name":"Stulln","population":1693,"population_man":855,"population_woman":838,"area":15.52}},{"type":"Feature","geometry":{"type":"Point","coordinates":[12.099358040885347,49.234537297120255]},"properties":{"id":"170","land-id":"09376","name":"Teublitz","population":8043,"population_man":3985,"population_woman":4058,"area":38.27}},{"type":"Feature","geometry":{"type":"Point","coordinates":[12.389529340479681,49.50031833019972]},"properties":{"id":"171","land-id":"09376","name":"Teunz","population":1835,"population_man":932,"population_woman":903,"area":30.65}},{"type":"Feature","geometry":{"type":"Point","coordinates":[12.460066364503268,49.38991295167005]},"properties":{"id":"172","land-id":"09376","name":"Thanstein","population":977,"population_man":512,"population_woman":465,"area":27.83}},{"type":"Feature","geometry":{"type":"Point","coordinates":[12.260896354299096,49.52877659529397]},"properties":{"id":"173","land-id":"09376","name":"Trausnitz","population":902,"population_man":460,"population_woman":442,"area":17.6}},{"type":"Feature","geometry":{"type":"Point","coordinates":[12.191262125610116,49.31454473574111]},"properties":{"id":"175","land-id":"09376","name":"Wackersdorf","population":5248,"population_man":2651,"population_woman":2597,"area":33.63}},{"type":"Feature","geometry":{"type":"Point","coordinates":[12.563972203645488,49.48134817272104]},"properties":{"id":"176","land-id":"09376","name":"Weiding","population":467,"population_man":263,"population_woman":204,"area":22.41}},{"type":"Feature","geometry":{"type":"Point","coordinates":[12.504576598739735,49.436287984441684]},"properties":{"id":"178","land-id":"09376","name":"Winklarn","population":1359,"population_man":687,"population_woman":672,"area":33.74}},{"type":"Feature","geometry":{"type":"Point","coordinates":[12.411946170837238,49.80987716247958]},"properties":{"id":"112","land-id":"09377","name":"B\u00e4rnau","population":3065,"population_man":1611,"population_woman":1454,"area":74.41}},{"type":"Feature","geometry":{"type":"Point","coordinates":[11.90015457311767,49.959844491168674]},"properties":{"id":"113","land-id":"09377","name":"Brand","population":1149,"population_man":553,"population_woman":596,"area":10.28}},{"type":"Feature","geometry":{"type":"Point","coordinates":[11.938661763323946,49.95331575237491]},"properties":{"id":"115","land-id":"09377","name":"Ebnath","population":1306,"population_man":643,"population_woman":663,"area":11.06}},{"type":"Feature","geometry":{"type":"Point","coordinates":[12.042735335565894,49.83834276377861]},"properties":{"id":"116","land-id":"09377","name":"Erbendorf","population":5082,"population_man":2528,"population_woman":2554,"area":67.51}},{"type":"Feature","geometry":{"type":"Point","coordinates":[12.224713445839377,49.85502428742331]},"properties":{"id":"117","land-id":"09377","name":"Falkenberg","population":922,"population_man":465,"population_woman":457,"area":39.26}},{"type":"Feature","geometry":{"type":"Point","coordinates":[12.10181520334314,49.890516231870684]},"properties":{"id":"118","land-id":"09377","name":"Friedenfels","population":1177,"population_man":594,"population_woman":583,"area":16.32}},{"type":"Feature","geometry":{"type":"Point","coordinates":[12.131866635456527,49.921572466967355]},"properties":{"id":"119","land-id":"09377","name":"Fuchsm\u00fchl","population":1548,"population_man":747,"population_woman":801,"area":14.79}},{"type":"Feature","geometry":{"type":"Point","coordinates":[11.849688448016614,49.92653649852125]},"properties":{"id":"127","land-id":"09377","name":"Immenreuth","population":1935,"population_man":963,"population_woman":972,"area":26.4}},{"type":"Feature","geometry":{"type":"Point","coordinates":[11.911188012764988,49.82481578681925]},"properties":{"id":"128","land-id":"09377","name":"Kastl","population":1450,"population_man":737,"population_woman":713,"area":24.57}},{"type":"Feature","geometry":{"type":"Point","coordinates":[11.92825192768181,49.85949517465025]},"properties":{"id":"129","land-id":"09377","name":"Kemnath","population":5849,"population_man":2909,"population_woman":2940,"area":56.91}},{"type":"Feature","geometry":{"type":"Point","coordinates":[12.223887414006935,50.00594444164275]},"properties":{"id":"131","land-id":"09377","name":"Konnersreuth","population":1766,"population_man":879,"population_woman":887,"area":23.43}},{"type":"Feature","geometry":{"type":"Point","coordinates":[12.098304754650027,49.845052735674436]},"properties":{"id":"132","land-id":"09377","name":"Krummennaab","population":1453,"population_man":725,"population_woman":728,"area":17.65}},{"type":"Feature","geometry":{"type":"Point","coordinates":[11.90968007678801,49.914451940345195]},"properties":{"id":"133","land-id":"09377","name":"Kulmain","population":2254,"population_man":1113,"population_woman":1141,"area":35.54}},{"type":"Feature","geometry":{"type":"Point","coordinates":[12.305560023510726,49.94519731457038]},"properties":{"id":"137","land-id":"09377","name":"Leonberg","population":1041,"population_man":548,"population_woman":493,"area":51.27}},{"type":"Feature","geometry":{"type":"Point","coordinates":[12.475258721859541,49.89176464416901]},"properties":{"id":"139","land-id":"09377","name":"M\u00e4hring","population":1783,"population_man":948,"population_woman":835,"area":72.93}},{"type":"Feature","geometry":{"type":"Point","coordinates":[12.240597619681818,49.94412287578255]},"properties":{"id":"141","land-id":"09377","name":"Mitterteich","population":6632,"population_man":3230,"population_woman":3402,"area":39.46}},{"type":"Feature","geometry":{"type":"Point","coordinates":[12.424969734648998,49.9662052616634]},"properties":{"id":"142","land-id":"09377","name":"Bad Neualbenreuth","population":1418,"population_man":708,"population_woman":710,"area":50.13}},{"type":"Feature","geometry":{"type":"Point","coordinates":[11.967785775381339,49.94122096566622]},"properties":{"id":"143","land-id":"09377","name":"Neusorg","population":1955,"population_man":958,"population_woman":997,"area":17.79}},{"type":"Feature","geometry":{"type":"Point","coordinates":[12.170183950368228,49.969270468148515]},"properties":{"id":"145","land-id":"09377","name":"Pechbrunn","population":1286,"population_man":641,"population_woman":645,"area":26.43}},{"type":"Feature","geometry":{"type":"Point","coordinates":[12.295759418376827,49.802636857441705]},"properties":{"id":"146","land-id":"09377","name":"Pl\u00f6\u00dfberg","population":3149,"population_man":1575,"population_woman":1574,"area":74.29}},{"type":"Feature","geometry":{"type":"Point","coordinates":[12.006120212461395,49.918017777022655]},"properties":{"id":"148","land-id":"09377","name":"Pullenreuth","population":1569,"population_man":817,"population_woman":752,"area":43.29}},{"type":"Feature","geometry":{"type":"Point","coordinates":[12.141877656121874,49.85732219432078]},"properties":{"id":"149","land-id":"09377","name":"Reuth b.Erbendorf","population":1095,"population_man":556,"population_woman":539,"area":16.9}},{"type":"Feature","geometry":{"type":"Point","coordinates":[12.35065275990086,49.8872200904168]},"properties":{"id":"154","land-id":"09377","name":"Tirschenreuth","population":8550,"population_man":4162,"population_woman":4388,"area":103.99}},{"type":"Feature","geometry":{"type":"Point","coordinates":[12.070833440898507,49.952146689044994]},"properties":{"id":"157","land-id":"09377","name":"Waldershof","population":4318,"population_man":2151,"population_woman":2167,"area":60.42}},{"type":"Feature","geometry":{"type":"Point","coordinates":[12.315583212951555,50.015205497936854]},"properties":{"id":"158","land-id":"09377","name":"Waldsassen","population":6750,"population_man":3349,"population_woman":3401,"area":66.49}},{"type":"Feature","geometry":{"type":"Point","coordinates":[12.18456760303896,49.906939593633886]},"properties":{"id":"159","land-id":"09377","name":"Wiesau","population":3936,"population_man":1955,"population_woman":1981,"area":42.78}}]}