{"type":"FeatureCollection","features":[{"type":"Feature","geometry":{"type":"Point","coordinates":[11.419374192065632,49.839845347156896]},"properties":{"id":"111","land-id":"09472","name":"Ahorntal","population":2184,"area":43.36,"centroid_coordinates":[11.419374192065632,49.839845347156896]}},{"type":"Feature","geometry":{"type":"Point","coordinates":[11.241192339499124,49.89429737042124]},"properties":{"id":"115","land-id":"09472","name":"Aufse\u00df","population":1270,"area":29.42,"centroid_coordinates":[11.241192339499124,49.89429737042124]}},{"type":"Feature","geometry":{"type":"Point","coordinates":[11.679081292047506,50.045502144384514]},"properties":{"id":"116","land-id":"09472","name":"Bad Berneck i.Fichtelgebirge","population":4395,"area":38.25,"centroid_coordinates":[11.679081292047506,50.045502144384514]}},{"type":"Feature","geometry":{"type":"Point","coordinates":[11.415487086398302,49.67267775698703]},"properties":{"id":"118","land-id":"09472","name":"Betzenstein","population":2501,"area":51.83,"centroid_coordinates":[11.415487086398302,49.67267775698703]}},{"type":"Feature","geometry":{"type":"Point","coordinates":[11.602324877868316,49.996160283129704]},"properties":{"id":"119","land-id":"09472","name":"Bindlach","population":7175,"area":37.61,"centroid_coordinates":[11.602324877868316,49.996160283129704]}},{"type":"Feature","geometry":{"type":"Point","coordinates":[11.77973667059151,50.0560387327562]},"properties":{"id":"121","land-id":"09472","name":"Bischofsgr\u00fcn","population":1933,"area":8.41,"centroid_coordinates":[11.77973667059151,50.0560387327562]}},{"type":"Feature","geometry":{"type":"Point","coordinates":[11.609350606654766,49.84843314696127]},"properties":{"id":"127","land-id":"09472","name":"Creu\u00dfen","population":4912,"area":64.85,"centroid_coordinates":[11.609350606654766,49.84843314696127]}},{"type":"Feature","geometry":{"type":"Point","coordinates":[11.448692454951342,49.945652759243956]},"properties":{"id":"131","land-id":"09472","name":"Eckersdorf","population":5059,"area":36.12,"centroid_coordinates":[11.448692454951342,49.945652759243956]}},{"type":"Feature","geometry":{"type":"Point","coordinates":[11.659638175393635,49.88449801501352]},"properties":{"id":"133","land-id":"09472","name":"Emtmannsberg","population":995,"area":22.27,"centroid_coordinates":[11.659638175393635,49.88449801501352]}},{"type":"Feature","geometry":{"type":"Point","coordinates":[11.848684199650602,50.001397427548675]},"properties":{"id":"138","land-id":"09472","name":"Fichtelberg","population":1807,"area":5.18,"centroid_coordinates":[11.848684199650602,50.001397427548675]}},{"type":"Feature","geometry":{"type":"Point","coordinates":[11.732774987664811,50.094071848792055]},"properties":{"id":"139","land-id":"09472","name":"Gefrees","population":4177,"area":50.35,"centroid_coordinates":[11.732774987664811,50.094071848792055]}},{"type":"Feature","geometry":{"type":"Point","coordinates":[11.538871897826496,49.897556158936965]},"properties":{"id":"140","land-id":"09472","name":"Gesees","population":1257,"area":10.43,"centroid_coordinates":[11.538871897826496,49.897556158936965]}},{"type":"Feature","geometry":{"type":"Point","coordinates":[11.445425408790769,49.889601160718485]},"properties":{"id":"141","land-id":"09472","name":"Glash\u00fctten","population":1324,"area":3.51,"centroid_coordinates":[11.445425408790769,49.889601160718485]}},{"type":"Feature","geometry":{"type":"Point","coordinates":[11.690159889849875,50.000164260788004]},"properties":{"id":"143","land-id":"09472","name":"Goldkronach","population":3450,"area":30.61,"centroid_coordinates":[11.690159889849875,50.000164260788004]}},{"type":"Feature","geometry":{"type":"Point","coordinates":[11.566077626181926,49.874947902094796]},"properties":{"id":"146","land-id":"09472","name":"Haag","population":949,"area":15.92,"centroid_coordinates":[11.566077626181926,49.874947902094796]}},{"type":"Feature","geometry":{"type":"Point","coordinates":[11.523355766700208,49.97969736295076]},"properties":{"id":"150","land-id":"09472","name":"Heinersreuth","population":3694,"area":14.69,"centroid_coordinates":[11.523355766700208,49.97969736295076]}},{"type":"Feature","geometry":{"type":"Point","coordinates":[11.28173119427931,49.93747188958868]},"properties":{"id":"154","land-id":"09472","name":"Hollfeld","population":4796,"area":80.59,"centroid_coordinates":[11.28173119427931,49.93747188958868]}},{"type":"Feature","geometry":{"type":"Point","coordinates":[11.49885220320934,49.86968379326422]},"properties":{"id":"155","land-id":"09472","name":"Hummeltal","population":2435,"area":21.94,"centroid_coordinates":[11.49885220320934,49.86968379326422]}},{"type":"Feature","geometry":{"type":"Point","coordinates":[11.792667358199406,49.92433366576994]},"properties":{"id":"156","land-id":"09472","name":"Kirchenpingarten","population":1259,"area":33.54,"centroid_coordinates":[11.792667358199406,49.92433366576994]}},{"type":"Feature","geometry":{"type":"Point","coordinates":[11.868940690799409,49.980613775083384]},"properties":{"id":"164","land-id":"09472","name":"Mehlmeisel","population":1285,"area":13.25,"centroid_coordinates":[11.868940690799409,49.980613775083384]}},{"type":"Feature","geometry":{"type":"Point","coordinates":[11.50763689003895,49.91225182434417]},"properties":{"id":"166","land-id":"09472","name":"Mistelbach","population":1505,"area":6.1,"centroid_coordinates":[11.50763689003895,49.91225182434417]}},{"type":"Feature","geometry":{"type":"Point","coordinates":[11.419503527526414,49.905794581719405]},"properties":{"id":"167","land-id":"09472","name":"Mistelgau","population":3835,"area":42.51,"centroid_coordinates":[11.419503527526414,49.905794581719405]}},{"type":"Feature","geometry":{"type":"Point","coordinates":[11.53000022232148,49.76921976908867]},"properties":{"id":"175","land-id":"09472","name":"Pegnitz","population":13656,"area":100.02,"centroid_coordinates":[11.53000022232148,49.76921976908867]}},{"type":"Feature","geometry":{"type":"Point","coordinates":[11.339266901733538,49.88998451947299]},"properties":{"id":"176","land-id":"09472","name":"Plankenfels","population":842,"area":13.96,"centroid_coordinates":[11.339266901733538,49.88998451947299]}},{"type":"Feature","geometry":{"type":"Point","coordinates":[11.466277050372588,49.66173427033343]},"properties":{"id":"177","land-id":"09472","name":"Plech","population":1334,"area":15.29,"centroid_coordinates":[11.466277050372588,49.66173427033343]}},{"type":"Feature","geometry":{"type":"Point","coordinates":[11.420484996518027,49.772506885972916]},"properties":{"id":"179","land-id":"09472","name":"Pottenstein","population":5182,"area":73.36,"centroid_coordinates":[11.420484996518027,49.772506885972916]}},{"type":"Feature","geometry":{"type":"Point","coordinates":[11.681628477710547,49.82394233544982]},"properties":{"id":"180","land-id":"09472","name":"Prebitz","population":945,"area":20.99,"centroid_coordinates":[11.681628477710547,49.82394233544982]}},{"type":"Feature","geometry":{"type":"Point","coordinates":[11.596330618474028,49.80689601802991]},"properties":{"id":"184","land-id":"09472","name":"Schnabelwaid","population":966,"area":21.35,"centroid_coordinates":[11.596330618474028,49.80689601802991]}},{"type":"Feature","geometry":{"type":"Point","coordinates":[11.71331536528766,49.896645045036905]},"properties":{"id":"188","land-id":"09472","name":"Seybothenreuth","population":1290,"area":17.45,"centroid_coordinates":[11.71331536528766,49.896645045036905]}},{"type":"Feature","geometry":{"type":"Point","coordinates":[11.786168720404838,49.868126970519754]},"properties":{"id":"190","land-id":"09472","name":"Speichersdorf","population":5797,"area":53.0,"centroid_coordinates":[11.786168720404838,49.868126970519754]}},{"type":"Feature","geometry":{"type":"Point","coordinates":[11.329420909421035,49.84624272862656]},"properties":{"id":"197","land-id":"09472","name":"Waischenfeld","population":3005,"area":57.97,"centroid_coordinates":[11.329420909421035,49.84624272862656]}},{"type":"Feature","geometry":{"type":"Point","coordinates":[11.775437196645983,50.00234440112578]},"properties":{"id":"198","land-id":"09472","name":"Warmensteinach","population":2122,"area":32.64,"centroid_coordinates":[11.775437196645983,50.00234440112578]}},{"type":"Feature","geometry":{"type":"Point","coordinates":[11.708354748793832,49.94523696080331]},"properties":{"id":"199","land-id":"09472","name":"Weidenberg","population":5837,"area":68.88,"centroid_coordinates":[11.708354748793832,49.94523696080331]}}]}