{"type":"FeatureCollection","features":[{"type":"Feature","geometry":{"type":"Point","coordinates":[11.634502559004297,50.3517569644698]},"properties":{"id":"112","land-id":"09475","name":"Bad Steben","population":3263,"area":31.62,"centroid_coordinates":[11.634502559004297,50.3517569644698]}},{"type":"Feature","geometry":{"type":"Point","coordinates":[11.780172651267469,50.380337823268896]},"properties":{"id":"113","land-id":"09475","name":"Berg","population":1972,"area":38.88,"centroid_coordinates":[11.780172651267469,50.380337823268896]}},{"type":"Feature","geometry":{"type":"Point","coordinates":[11.964572267806924,50.285662701168896]},"properties":{"id":"120","land-id":"09475","name":"D\u00f6hlau","population":3798,"area":15.28,"centroid_coordinates":[11.964572267806924,50.285662701168896]}},{"type":"Feature","geometry":{"type":"Point","coordinates":[11.918194696227642,50.37892882833628]},"properties":{"id":"123","land-id":"09475","name":"Feilitzsch","population":2700,"area":30.24,"centroid_coordinates":[11.918194696227642,50.37892882833628]}},{"type":"Feature","geometry":{"type":"Point","coordinates":[11.99094949664766,50.32818311242045]},"properties":{"id":"127","land-id":"09475","name":"Gattendorf","population":1033,"area":22.2,"centroid_coordinates":[11.99094949664766,50.32818311242045]}},{"type":"Feature","geometry":{"type":"Point","coordinates":[11.590117229861091,50.35365192490104]},"properties":{"id":"128","land-id":"09475","name":"Geroldsgr\u00fcn","population":2618,"area":15.6,"centroid_coordinates":[11.590117229861091,50.35365192490104]}},{"type":"Feature","geometry":{"type":"Point","coordinates":[11.694059350344578,50.239625640658446]},"properties":{"id":"136","land-id":"09475","name":"Helmbrechts","population":8091,"area":58.71,"centroid_coordinates":[11.694059350344578,50.239625640658446]}},{"type":"Feature","geometry":{"type":"Point","coordinates":[11.718463730067489,50.37626353715825]},"properties":{"id":"137","land-id":"09475","name":"Issigau","population":986,"area":18.71,"centroid_coordinates":[11.718463730067489,50.37626353715825]}},{"type":"Feature","geometry":{"type":"Point","coordinates":[11.834028943870795,50.34677857095238]},"properties":{"id":"141","land-id":"09475","name":"K\u00f6ditz","population":2321,"area":31.43,"centroid_coordinates":[11.834028943870795,50.34677857095238]}},{"type":"Feature","geometry":{"type":"Point","coordinates":[11.838904788669453,50.2554995261915]},"properties":{"id":"142","land-id":"09475","name":"Konradsreuth","population":3159,"area":43.28,"centroid_coordinates":[11.838904788669453,50.2554995261915]}},{"type":"Feature","geometry":{"type":"Point","coordinates":[11.798753473559088,50.29452331764548]},"properties":{"id":"145","land-id":"09475","name":"Leupoldsgr\u00fcn","population":1234,"area":10.23,"centroid_coordinates":[11.798753473559088,50.29452331764548]}},{"type":"Feature","geometry":{"type":"Point","coordinates":[11.669646303564173,50.3797236494482]},"properties":{"id":"146","land-id":"09475","name":"Lichtenberg","population":974,"area":9.53,"centroid_coordinates":[11.669646303564173,50.3797236494482]}},{"type":"Feature","geometry":{"type":"Point","coordinates":[11.7626671138871,50.195516183050536]},"properties":{"id":"154","land-id":"09475","name":"M\u00fcnchberg","population":9959,"area":68.78,"centroid_coordinates":[11.7626671138871,50.195516183050536]}},{"type":"Feature","geometry":{"type":"Point","coordinates":[11.68697443957966,50.32321197056747]},"properties":{"id":"156","land-id":"09475","name":"Naila","population":7519,"area":37.04,"centroid_coordinates":[11.68697443957966,50.32321197056747]}},{"type":"Feature","geometry":{"type":"Point","coordinates":[11.930758633136763,50.255791852330844]},"properties":{"id":"158","land-id":"09475","name":"Oberkotzau","population":5290,"area":21.48,"centroid_coordinates":[11.930758633136763,50.255791852330844]}},{"type":"Feature","geometry":{"type":"Point","coordinates":[12.049118055561744,50.30167916712041]},"properties":{"id":"161","land-id":"09475","name":"Regnitzlosau","population":2246,"area":39.88,"centroid_coordinates":[12.049118055561744,50.30167916712041]}},{"type":"Feature","geometry":{"type":"Point","coordinates":[12.058360104585319,50.24658010248272]},"properties":{"id":"162","land-id":"09475","name":"Rehau","population":9049,"area":80.35,"centroid_coordinates":[12.058360104585319,50.24658010248272]}},{"type":"Feature","geometry":{"type":"Point","coordinates":[11.742089718748375,50.27634212898593]},"properties":{"id":"165","land-id":"09475","name":"Schauenstein","population":1860,"area":26.68,"centroid_coordinates":[11.742089718748375,50.27634212898593]}},{"type":"Feature","geometry":{"type":"Point","coordinates":[11.927195329490692,50.21014070658222]},"properties":{"id":"168","land-id":"09475","name":"Schwarzenbach a.d.Saale","population":6568,"area":59.21,"centroid_coordinates":[11.927195329490692,50.21014070658222]}},{"type":"Feature","geometry":{"type":"Point","coordinates":[11.61259238822217,50.27850234871941]},"properties":{"id":"169","land-id":"09475","name":"Schwarzenbach a.Wald","population":4261,"area":36.77,"centroid_coordinates":[11.61259238822217,50.27850234871941]}},{"type":"Feature","geometry":{"type":"Point","coordinates":[11.754797567113414,50.32107456453949]},"properties":{"id":"171","land-id":"09475","name":"Selbitz","population":4197,"area":27.77,"centroid_coordinates":[11.754797567113414,50.32107456453949]}},{"type":"Feature","geometry":{"type":"Point","coordinates":[11.849162328199073,50.15335714083939]},"properties":{"id":"174","land-id":"09475","name":"Sparneck","population":1514,"area":16.37,"centroid_coordinates":[11.849162328199073,50.15335714083939]}},{"type":"Feature","geometry":{"type":"Point","coordinates":[11.701123251878563,50.147436143037474]},"properties":{"id":"175","land-id":"09475","name":"Stammbach","population":2360,"area":34.73,"centroid_coordinates":[11.701123251878563,50.147436143037474]}},{"type":"Feature","geometry":{"type":"Point","coordinates":[11.876554141191793,50.38964929219469]},"properties":{"id":"181","land-id":"09475","name":"T\u00f6pen","population":994,"area":20.9,"centroid_coordinates":[11.876554141191793,50.38964929219469]}},{"type":"Feature","geometry":{"type":"Point","coordinates":[11.96203775138488,50.371699357758985]},"properties":{"id":"182","land-id":"09475","name":"Trogen","population":1362,"area":12.33,"centroid_coordinates":[11.96203775138488,50.371699357758985]}},{"type":"Feature","geometry":{"type":"Point","coordinates":[11.85971227424669,50.18286042820877]},"properties":{"id":"184","land-id":"09475","name":"Wei\u00dfdorf","population":1201,"area":21.91,"centroid_coordinates":[11.85971227424669,50.18286042820877]}},{"type":"Feature","geometry":{"type":"Point","coordinates":[11.799470695461542,50.13305013574778]},"properties":{"id":"189","land-id":"09475","name":"Zell im Fichtelgebirge","population":1901,"area":31.29,"centroid_coordinates":[11.799470695461542,50.13305013574778]}}]}