{"type":"FeatureCollection","features":[{"type":"Feature","geometry":{"type":"Point","coordinates":[11.003648822606738,49.7947763779013]},"properties":{"id":"111","land-id":"09471","name":"Altendorf","population":2172,"area":8.72,"centroid_coordinates":[11.003648822606738,49.7947763779013]}},{"type":"Feature","geometry":{"type":"Point","coordinates":[10.821039042429566,49.995519320100875]},"properties":{"id":"115","land-id":"09471","name":"Baunach","population":3955,"area":32.14,"centroid_coordinates":[10.821039042429566,49.995519320100875]}},{"type":"Feature","geometry":{"type":"Point","coordinates":[10.802683254704935,49.9013097606284]},"properties":{"id":"117","land-id":"09471","name":"Bischberg","population":6092,"area":17.57,"centroid_coordinates":[10.802683254704935,49.9013097606284]}},{"type":"Feature","geometry":{"type":"Point","coordinates":[10.913136339704096,49.975928294818154]},"properties":{"id":"119","land-id":"09471","name":"Breiteng\u00fc\u00dfbach","population":4474,"area":16.8,"centroid_coordinates":[10.913136339704096,49.975928294818154]}},{"type":"Feature","geometry":{"type":"Point","coordinates":[10.729960666227715,49.820842545319344]},"properties":{"id":"120","land-id":"09471","name":"Burgebrach","population":7106,"area":87.88,"centroid_coordinates":[10.729960666227715,49.820842545319344]}},{"type":"Feature","geometry":{"type":"Point","coordinates":[10.591064797944409,49.825973176090066]},"properties":{"id":"122","land-id":"09471","name":"Burgwindheim","population":1278,"area":37.56,"centroid_coordinates":[10.591064797944409,49.825973176090066]}},{"type":"Feature","geometry":{"type":"Point","coordinates":[11.067482191370841,49.82355842543181]},"properties":{"id":"123","land-id":"09471","name":"Buttenheim","population":3695,"area":30.11,"centroid_coordinates":[11.067482191370841,49.82355842543181]}},{"type":"Feature","geometry":{"type":"Point","coordinates":[10.490394007642475,49.829451774556794]},"properties":{"id":"128","land-id":"09471","name":"Ebrach","population":1863,"area":29.53,"centroid_coordinates":[10.490394007642475,49.829451774556794]}},{"type":"Feature","geometry":{"type":"Point","coordinates":[10.87032209716602,49.81065364716132]},"properties":{"id":"131","land-id":"09471","name":"Frensdorf","population":5159,"area":43.95,"centroid_coordinates":[10.87032209716602,49.81065364716132]}},{"type":"Feature","geometry":{"type":"Point","coordinates":[10.792447270443775,50.03102810583175]},"properties":{"id":"133","land-id":"09471","name":"Gerach","population":1037,"area":7.76,"centroid_coordinates":[10.792447270443775,50.03102810583175]}},{"type":"Feature","geometry":{"type":"Point","coordinates":[10.921284424779717,49.936820219190444]},"properties":{"id":"137","land-id":"09471","name":"Gundelsheim","population":3559,"area":3.8,"centroid_coordinates":[10.921284424779717,49.936820219190444]}},{"type":"Feature","geometry":{"type":"Point","coordinates":[10.873176284743282,49.930578820480015]},"properties":{"id":"140","land-id":"09471","name":"Hallstadt","population":8820,"area":14.59,"centroid_coordinates":[10.873176284743282,49.930578820480015]}},{"type":"Feature","geometry":{"type":"Point","coordinates":[11.15120666930859,49.874885664895096]},"properties":{"id":"142","land-id":"09471","name":"Heiligenstadt i.OFr.","population":3632,"area":76.85,"centroid_coordinates":[11.15120666930859,49.874885664895096]}},{"type":"Feature","geometry":{"type":"Point","coordinates":[10.978122253046834,49.81139959682243]},"properties":{"id":"145","land-id":"09471","name":"Hirschaid","population":12468,"area":41.01,"centroid_coordinates":[10.978122253046834,49.81139959682243]}},{"type":"Feature","geometry":{"type":"Point","coordinates":[10.866985614599336,49.956899390925564]},"properties":{"id":"150","land-id":"09471","name":"Kemmern","population":2494,"area":8.24,"centroid_coordinates":[10.866985614599336,49.956899390925564]}},{"type":"Feature","geometry":{"type":"Point","coordinates":[11.161104712729072,49.93969874750184]},"properties":{"id":"151","land-id":"09471","name":"K\u00f6nigsfeld","population":1259,"area":42.85,"centroid_coordinates":[11.161104712729072,49.93969874750184]}},{"type":"Feature","geometry":{"type":"Point","coordinates":[10.778016183024404,49.97719791157053]},"properties":{"id":"152","land-id":"09471","name":"Lauter","population":1189,"area":12.4,"centroid_coordinates":[10.778016183024404,49.97719791157053]}},{"type":"Feature","geometry":{"type":"Point","coordinates":[10.730403403678057,49.88979502126824]},"properties":{"id":"154","land-id":"09471","name":"Lisberg","population":1749,"area":8.36,"centroid_coordinates":[10.730403403678057,49.88979502126824]}},{"type":"Feature","geometry":{"type":"Point","coordinates":[11.039341888107089,49.915069442601926]},"properties":{"id":"155","land-id":"09471","name":"Litzendorf","population":6278,"area":25.88,"centroid_coordinates":[11.039341888107089,49.915069442601926]}},{"type":"Feature","geometry":{"type":"Point","coordinates":[10.971367262147213,49.94251256766942]},"properties":{"id":"159","land-id":"09471","name":"Memmelsdorf","population":8884,"area":26.27,"centroid_coordinates":[10.971367262147213,49.94251256766942]}},{"type":"Feature","geometry":{"type":"Point","coordinates":[10.792638446853864,49.944210691966795]},"properties":{"id":"165","land-id":"09471","name":"Oberhaid","population":4562,"area":27.0,"centroid_coordinates":[10.792638446853864,49.944210691966795]}},{"type":"Feature","geometry":{"type":"Point","coordinates":[10.928838580543554,49.83097741361782]},"properties":{"id":"169","land-id":"09471","name":"Pettstadt","population":2227,"area":9.87,"centroid_coordinates":[10.928838580543554,49.83097741361782]}},{"type":"Feature","geometry":{"type":"Point","coordinates":[10.81707333127814,49.77291260437438]},"properties":{"id":"172","land-id":"09471","name":"Pommersfelden","population":3113,"area":35.65,"centroid_coordinates":[10.81707333127814,49.77291260437438]}},{"type":"Feature","geometry":{"type":"Point","coordinates":[10.708370765641952,49.90380164180459]},"properties":{"id":"173","land-id":"09471","name":"Priesendorf","population":1517,"area":8.38,"centroid_coordinates":[10.708370765641952,49.90380164180459]}},{"type":"Feature","geometry":{"type":"Point","coordinates":[10.880857961492302,50.03765486216758]},"properties":{"id":"174","land-id":"09471","name":"Rattelsdorf","population":4575,"area":39.53,"centroid_coordinates":[10.880857961492302,50.03765486216758]}},{"type":"Feature","geometry":{"type":"Point","coordinates":[10.832540852183785,50.0276819553937]},"properties":{"id":"175","land-id":"09471","name":"Reckendorf","population":2001,"area":13.0,"centroid_coordinates":[10.832540852183785,50.0276819553937]}},{"type":"Feature","geometry":{"type":"Point","coordinates":[11.050170314489748,49.98077735527145]},"properties":{"id":"185","land-id":"09471","name":"Sche\u00dflitz","population":7141,"area":94.84,"centroid_coordinates":[11.050170314489748,49.98077735527145]}},{"type":"Feature","geometry":{"type":"Point","coordinates":[10.68106838711114,49.866009927255185]},"properties":{"id":"186","land-id":"09471","name":"Sch\u00f6nbrunn i.Steigerwald","population":1886,"area":24.74,"centroid_coordinates":[10.68106838711114,49.866009927255185]}},{"type":"Feature","geometry":{"type":"Point","coordinates":[11.175588098124926,49.99005533345333]},"properties":{"id":"189","land-id":"09471","name":"Stadelhofen","population":1251,"area":41.08,"centroid_coordinates":[11.175588098124926,49.99005533345333]}},{"type":"Feature","geometry":{"type":"Point","coordinates":[10.842865307918338,49.857820947611444]},"properties":{"id":"191","land-id":"09471","name":"Stegaurach","population":6897,"area":23.87,"centroid_coordinates":[10.842865307918338,49.857820947611444]}},{"type":"Feature","geometry":{"type":"Point","coordinates":[11.006847244115612,49.861604058100205]},"properties":{"id":"195","land-id":"09471","name":"Strullendorf","population":7762,"area":31.61,"centroid_coordinates":[11.006847244115612,49.861604058100205]}},{"type":"Feature","geometry":{"type":"Point","coordinates":[10.755361179727696,49.92288319516932]},"properties":{"id":"207","land-id":"09471","name":"Viereth-Trunstadt","population":3640,"area":15.8,"centroid_coordinates":[10.755361179727696,49.92288319516932]}},{"type":"Feature","geometry":{"type":"Point","coordinates":[10.772758554368266,49.875345746898155]},"properties":{"id":"208","land-id":"09471","name":"Walsdorf","population":2635,"area":16.2,"centroid_coordinates":[10.772758554368266,49.875345746898155]}},{"type":"Feature","geometry":{"type":"Point","coordinates":[11.136236199917501,50.029850120870144]},"properties":{"id":"209","land-id":"09471","name":"Wattendorf","population":633,"area":22.27,"centroid_coordinates":[11.136236199917501,50.029850120870144]}},{"type":"Feature","geometry":{"type":"Point","coordinates":[10.952345395748656,50.01379764257764]},"properties":{"id":"214","land-id":"09471","name":"Zapfendorf","population":4933,"area":30.57,"centroid_coordinates":[10.952345395748656,50.01379764257764]}},{"type":"Feature","geometry":{"type":"Point","coordinates":[10.629138300648428,49.76789180294212]},"properties":{"id":"220","land-id":"09471","name":"Schl\u00fcsselfeld","population":5945,"area":70.13,"centroid_coordinates":[10.629138300648428,49.76789180294212]}},{"type":"Feature","geometry":{"type":"Point","coordinates":[11.419374192065632,49.839845347156896]},"properties":{"id":"111","land-id":"09472","name":"Ahorntal","population":2184,"area":43.36,"centroid_coordinates":[11.419374192065632,49.839845347156896]}},{"type":"Feature","geometry":{"type":"Point","coordinates":[11.241192339499124,49.89429737042124]},"properties":{"id":"115","land-id":"09472","name":"Aufse\u00df","population":1270,"area":29.42,"centroid_coordinates":[11.241192339499124,49.89429737042124]}},{"type":"Feature","geometry":{"type":"Point","coordinates":[11.679081292047506,50.045502144384514]},"properties":{"id":"116","land-id":"09472","name":"Bad Berneck i.Fichtelgebirge","population":4395,"area":38.25,"centroid_coordinates":[11.679081292047506,50.045502144384514]}},{"type":"Feature","geometry":{"type":"Point","coordinates":[11.415487086398302,49.67267775698703]},"properties":{"id":"118","land-id":"09472","name":"Betzenstein","population":2501,"area":51.83,"centroid_coordinates":[11.415487086398302,49.67267775698703]}},{"type":"Feature","geometry":{"type":"Point","coordinates":[11.602324877868316,49.996160283129704]},"properties":{"id":"119","land-id":"09472","name":"Bindlach","population":7175,"area":37.61,"centroid_coordinates":[11.602324877868316,49.996160283129704]}},{"type":"Feature","geometry":{"type":"Point","coordinates":[11.77973667059151,50.0560387327562]},"properties":{"id":"121","land-id":"09472","name":"Bischofsgr\u00fcn","population":1933,"area":8.41,"centroid_coordinates":[11.77973667059151,50.0560387327562]}},{"type":"Feature","geometry":{"type":"Point","coordinates":[11.609350606654766,49.84843314696127]},"properties":{"id":"127","land-id":"09472","name":"Creu\u00dfen","population":4912,"area":64.85,"centroid_coordinates":[11.609350606654766,49.84843314696127]}},{"type":"Feature","geometry":{"type":"Point","coordinates":[11.448692454951342,49.945652759243956]},"properties":{"id":"131","land-id":"09472","name":"Eckersdorf","population":5059,"area":36.12,"centroid_coordinates":[11.448692454951342,49.945652759243956]}},{"type":"Feature","geometry":{"type":"Point","coordinates":[11.659638175393635,49.88449801501352]},"properties":{"id":"133","land-id":"09472","name":"Emtmannsberg","population":995,"area":22.27,"centroid_coordinates":[11.659638175393635,49.88449801501352]}},{"type":"Feature","geometry":{"type":"Point","coordinates":[11.848684199650602,50.001397427548675]},"properties":{"id":"138","land-id":"09472","name":"Fichtelberg","population":1807,"area":5.18,"centroid_coordinates":[11.848684199650602,50.001397427548675]}},{"type":"Feature","geometry":{"type":"Point","coordinates":[11.732774987664811,50.094071848792055]},"properties":{"id":"139","land-id":"09472","name":"Gefrees","population":4177,"area":50.35,"centroid_coordinates":[11.732774987664811,50.094071848792055]}},{"type":"Feature","geometry":{"type":"Point","coordinates":[11.538871897826496,49.897556158936965]},"properties":{"id":"140","land-id":"09472","name":"Gesees","population":1257,"area":10.43,"centroid_coordinates":[11.538871897826496,49.897556158936965]}},{"type":"Feature","geometry":{"type":"Point","coordinates":[11.445425408790769,49.889601160718485]},"properties":{"id":"141","land-id":"09472","name":"Glash\u00fctten","population":1324,"area":3.51,"centroid_coordinates":[11.445425408790769,49.889601160718485]}},{"type":"Feature","geometry":{"type":"Point","coordinates":[11.690159889849875,50.000164260788004]},"properties":{"id":"143","land-id":"09472","name":"Goldkronach","population":3450,"area":30.61,"centroid_coordinates":[11.690159889849875,50.000164260788004]}},{"type":"Feature","geometry":{"type":"Point","coordinates":[11.566077626181926,49.874947902094796]},"properties":{"id":"146","land-id":"09472","name":"Haag","population":949,"area":15.92,"centroid_coordinates":[11.566077626181926,49.874947902094796]}},{"type":"Feature","geometry":{"type":"Point","coordinates":[11.523355766700208,49.97969736295076]},"properties":{"id":"150","land-id":"09472","name":"Heinersreuth","population":3694,"area":14.69,"centroid_coordinates":[11.523355766700208,49.97969736295076]}},{"type":"Feature","geometry":{"type":"Point","coordinates":[11.28173119427931,49.93747188958868]},"properties":{"id":"154","land-id":"09472","name":"Hollfeld","population":4796,"area":80.59,"centroid_coordinates":[11.28173119427931,49.93747188958868]}},{"type":"Feature","geometry":{"type":"Point","coordinates":[11.49885220320934,49.86968379326422]},"properties":{"id":"155","land-id":"09472","name":"Hummeltal","population":2435,"area":21.94,"centroid_coordinates":[11.49885220320934,49.86968379326422]}},{"type":"Feature","geometry":{"type":"Point","coordinates":[11.792667358199406,49.92433366576994]},"properties":{"id":"156","land-id":"09472","name":"Kirchenpingarten","population":1259,"area":33.54,"centroid_coordinates":[11.792667358199406,49.92433366576994]}},{"type":"Feature","geometry":{"type":"Point","coordinates":[11.868940690799409,49.980613775083384]},"properties":{"id":"164","land-id":"09472","name":"Mehlmeisel","population":1285,"area":13.25,"centroid_coordinates":[11.868940690799409,49.980613775083384]}},{"type":"Feature","geometry":{"type":"Point","coordinates":[11.50763689003895,49.91225182434417]},"properties":{"id":"166","land-id":"09472","name":"Mistelbach","population":1505,"area":6.1,"centroid_coordinates":[11.50763689003895,49.91225182434417]}},{"type":"Feature","geometry":{"type":"Point","coordinates":[11.419503527526414,49.905794581719405]},"properties":{"id":"167","land-id":"09472","name":"Mistelgau","population":3835,"area":42.51,"centroid_coordinates":[11.419503527526414,49.905794581719405]}},{"type":"Feature","geometry":{"type":"Point","coordinates":[11.53000022232148,49.76921976908867]},"properties":{"id":"175","land-id":"09472","name":"Pegnitz","population":13656,"area":100.02,"centroid_coordinates":[11.53000022232148,49.76921976908867]}},{"type":"Feature","geometry":{"type":"Point","coordinates":[11.339266901733538,49.88998451947299]},"properties":{"id":"176","land-id":"09472","name":"Plankenfels","population":842,"area":13.96,"centroid_coordinates":[11.339266901733538,49.88998451947299]}},{"type":"Feature","geometry":{"type":"Point","coordinates":[11.466277050372588,49.66173427033343]},"properties":{"id":"177","land-id":"09472","name":"Plech","population":1334,"area":15.29,"centroid_coordinates":[11.466277050372588,49.66173427033343]}},{"type":"Feature","geometry":{"type":"Point","coordinates":[11.420484996518027,49.772506885972916]},"properties":{"id":"179","land-id":"09472","name":"Pottenstein","population":5182,"area":73.36,"centroid_coordinates":[11.420484996518027,49.772506885972916]}},{"type":"Feature","geometry":{"type":"Point","coordinates":[11.681628477710547,49.82394233544982]},"properties":{"id":"180","land-id":"09472","name":"Prebitz","population":945,"area":20.99,"centroid_coordinates":[11.681628477710547,49.82394233544982]}},{"type":"Feature","geometry":{"type":"Point","coordinates":[11.596330618474028,49.80689601802991]},"properties":{"id":"184","land-id":"09472","name":"Schnabelwaid","population":966,"area":21.35,"centroid_coordinates":[11.596330618474028,49.80689601802991]}},{"type":"Feature","geometry":{"type":"Point","coordinates":[11.71331536528766,49.896645045036905]},"properties":{"id":"188","land-id":"09472","name":"Seybothenreuth","population":1290,"area":17.45,"centroid_coordinates":[11.71331536528766,49.896645045036905]}},{"type":"Feature","geometry":{"type":"Point","coordinates":[11.786168720404838,49.868126970519754]},"properties":{"id":"190","land-id":"09472","name":"Speichersdorf","population":5797,"area":53.0,"centroid_coordinates":[11.786168720404838,49.868126970519754]}},{"type":"Feature","geometry":{"type":"Point","coordinates":[11.329420909421035,49.84624272862656]},"properties":{"id":"197","land-id":"09472","name":"Waischenfeld","population":3005,"area":57.97,"centroid_coordinates":[11.329420909421035,49.84624272862656]}},{"type":"Feature","geometry":{"type":"Point","coordinates":[11.775437196645983,50.00234440112578]},"properties":{"id":"198","land-id":"09472","name":"Warmensteinach","population":2122,"area":32.64,"centroid_coordinates":[11.775437196645983,50.00234440112578]}},{"type":"Feature","geometry":{"type":"Point","coordinates":[11.708354748793832,49.94523696080331]},"properties":{"id":"199","land-id":"09472","name":"Weidenberg","population":5837,"area":68.88,"centroid_coordinates":[11.708354748793832,49.94523696080331]}},{"type":"Feature","geometry":{"type":"Point","coordinates":[10.924203739859948,50.223129975315274]},"properties":{"id":"112","land-id":"09473","name":"Ahorn","population":4061,"area":19.89,"centroid_coordinates":[10.924203739859948,50.223129975315274]}},{"type":"Feature","geometry":{"type":"Point","coordinates":[10.999088354916395,50.286930900511166]},"properties":{"id":"120","land-id":"09473","name":"D\u00f6rfles-Esbach","population":3558,"area":3.81,"centroid_coordinates":[10.999088354916395,50.286930900511166]}},{"type":"Feature","geometry":{"type":"Point","coordinates":[11.0746698832054,50.23650110617044]},"properties":{"id":"121","land-id":"09473","name":"Ebersdorf b.Coburg","population":6102,"area":26.35,"centroid_coordinates":[11.0746698832054,50.23650110617044]}},{"type":"Feature","geometry":{"type":"Point","coordinates":[10.920533480236928,50.17860584592552]},"properties":{"id":"132","land-id":"09473","name":"Gro\u00dfheirath","population":2548,"area":22.3,"centroid_coordinates":[10.920533480236928,50.17860584592552]}},{"type":"Feature","geometry":{"type":"Point","coordinates":[11.023962847211145,50.23196954088403]},"properties":{"id":"134","land-id":"09473","name":"Grub a.Forst","population":2587,"area":11.96,"centroid_coordinates":[11.023962847211145,50.23196954088403]}},{"type":"Feature","geometry":{"type":"Point","coordinates":[10.893935675204542,50.13525211694543]},"properties":{"id":"138","land-id":"09473","name":"Itzgrund","population":2330,"area":33.08,"centroid_coordinates":[10.893935675204542,50.13525211694543]}},{"type":"Feature","geometry":{"type":"Point","coordinates":[10.959889368818175,50.34332471979964]},"properties":{"id":"141","land-id":"09473","name":"Lautertal","population":4423,"area":30.34,"centroid_coordinates":[10.959889368818175,50.34332471979964]}},{"type":"Feature","geometry":{"type":"Point","coordinates":[10.894856253432174,50.33371626186182]},"properties":{"id":"144","land-id":"09473","name":"Meeder","population":3482,"area":73.5,"centroid_coordinates":[10.894856253432174,50.33371626186182]}},{"type":"Feature","geometry":{"type":"Point","coordinates":[11.111255576027258,50.3117176828043]},"properties":{"id":"151","land-id":"09473","name":"Neustadt b.Coburg","population":14775,"area":61.89,"centroid_coordinates":[11.111255576027258,50.3117176828043]}},{"type":"Feature","geometry":{"type":"Point","coordinates":[10.990921661463123,50.22115366394012]},"properties":{"id":"153","land-id":"09473","name":"Niederf\u00fcllbach","population":1419,"area":2.63,"centroid_coordinates":[10.990921661463123,50.22115366394012]}},{"type":"Feature","geometry":{"type":"Point","coordinates":[10.794494724706109,50.335731052597694]},"properties":{"id":"158","land-id":"09473","name":"Bad Rodach","population":6225,"area":80.47,"centroid_coordinates":[10.794494724706109,50.335731052597694]}},{"type":"Feature","geometry":{"type":"Point","coordinates":[11.036029626080404,50.30886310627366]},"properties":{"id":"159","land-id":"09473","name":"R\u00f6dental","population":12435,"area":49.99,"centroid_coordinates":[11.036029626080404,50.30886310627366]}},{"type":"Feature","geometry":{"type":"Point","coordinates":[10.810064732528884,50.197829846851086]},"properties":{"id":"165","land-id":"09473","name":"Se\u00dflach","population":3817,"area":72.51,"centroid_coordinates":[10.810064732528884,50.197829846851086]}},{"type":"Feature","geometry":{"type":"Point","coordinates":[11.148657321279586,50.23708920025984]},"properties":{"id":"166","land-id":"09473","name":"Sonnefeld","population":4409,"area":34.72,"centroid_coordinates":[11.148657321279586,50.23708920025984]}},{"type":"Feature","geometry":{"type":"Point","coordinates":[10.964562287983956,50.19862211682994]},"properties":{"id":"170","land-id":"09473","name":"Untersiemau","population":4098,"area":20.47,"centroid_coordinates":[10.964562287983956,50.19862211682994]}},{"type":"Feature","geometry":{"type":"Point","coordinates":[11.150103466332258,50.19961242754887]},"properties":{"id":"174","land-id":"09473","name":"Weidhausen b.Coburg","population":3166,"area":9.6,"centroid_coordinates":[11.150103466332258,50.19961242754887]}},{"type":"Feature","geometry":{"type":"Point","coordinates":[10.872638362397355,50.24808012908322]},"properties":{"id":"175","land-id":"09473","name":"Weitramsdorf","population":5051,"area":33.71,"centroid_coordinates":[10.872638362397355,50.24808012908322]}},{"type":"Feature","geometry":{"type":"Point","coordinates":[11.119058251544976,49.598938129604456]},"properties":{"id":"119","land-id":"09474","name":"Dormitz","population":1959,"area":4.56,"centroid_coordinates":[11.119058251544976,49.598938129604456]}},{"type":"Feature","geometry":{"type":"Point","coordinates":[11.19513258301726,49.781585807833736]},"properties":{"id":"121","land-id":"09474","name":"Ebermannstadt","population":6661,"area":49.96,"centroid_coordinates":[11.19513258301726,49.781585807833736]}},{"type":"Feature","geometry":{"type":"Point","coordinates":[11.107912459401213,49.662968324040484]},"properties":{"id":"122","land-id":"09474","name":"Effeltrich","population":2453,"area":11.93,"centroid_coordinates":[11.107912459401213,49.662968324040484]}},{"type":"Feature","geometry":{"type":"Point","coordinates":[11.08780835926174,49.785042397565164]},"properties":{"id":"123","land-id":"09474","name":"Eggolsheim","population":6408,"area":48.81,"centroid_coordinates":[11.08780835926174,49.785042397565164]}},{"type":"Feature","geometry":{"type":"Point","coordinates":[11.262942974149473,49.713893281034956]},"properties":{"id":"124","land-id":"09474","name":"Egloffstein","population":2111,"area":28.1,"centroid_coordinates":[11.262942974149473,49.713893281034956]}},{"type":"Feature","geometry":{"type":"Point","coordinates":[11.063388674125191,49.72003690484447]},"properties":{"id":"126","land-id":"09474","name":"Forchheim","population":32964,"area":44.56,"centroid_coordinates":[11.063388674125191,49.72003690484447]}},{"type":"Feature","geometry":{"type":"Point","coordinates":[11.322998409567457,49.761292077185466]},"properties":{"id":"129","land-id":"09474","name":"G\u00f6\u00dfweinstein","population":4337,"area":57.76,"centroid_coordinates":[11.322998409567457,49.761292077185466]}},{"type":"Feature","geometry":{"type":"Point","coordinates":[11.244422294333122,49.662374236243345]},"properties":{"id":"132","land-id":"09474","name":"Gr\u00e4fenberg","population":4175,"area":37.82,"centroid_coordinates":[11.244422294333122,49.662374236243345]}},{"type":"Feature","geometry":{"type":"Point","coordinates":[10.976339352563626,49.75234214555242]},"properties":{"id":"133","land-id":"09474","name":"Hallerndorf","population":4136,"area":41.35,"centroid_coordinates":[10.976339352563626,49.75234214555242]}},{"type":"Feature","geometry":{"type":"Point","coordinates":[11.019377274648559,49.69759948273385]},"properties":{"id":"134","land-id":"09474","name":"Hausen","population":3733,"area":13.45,"centroid_coordinates":[11.019377274648559,49.69759948273385]}},{"type":"Feature","geometry":{"type":"Point","coordinates":[10.97390998165083,49.700705743760615]},"properties":{"id":"135","land-id":"09474","name":"Heroldsbach","population":5082,"area":15.64,"centroid_coordinates":[10.97390998165083,49.700705743760615]}},{"type":"Feature","geometry":{"type":"Point","coordinates":[11.129910357758172,49.641104173063376]},"properties":{"id":"137","land-id":"09474","name":"Hetzles","population":1369,"area":11.76,"centroid_coordinates":[11.129910357758172,49.641104173063376]}},{"type":"Feature","geometry":{"type":"Point","coordinates":[11.315911830499568,49.66295462004162]},"properties":{"id":"138","land-id":"09474","name":"Hiltpoltstein","population":1471,"area":25.54,"centroid_coordinates":[11.315911830499568,49.66295462004162]}},{"type":"Feature","geometry":{"type":"Point","coordinates":[11.217729944872955,49.62133083414467]},"properties":{"id":"140","land-id":"09474","name":"Igensdorf","population":5057,"area":28.9,"centroid_coordinates":[11.217729944872955,49.62133083414467]}},{"type":"Feature","geometry":{"type":"Point","coordinates":[11.153976931653782,49.73171001602181]},"properties":{"id":"143","land-id":"09474","name":"Kirchehrenbach","population":2177,"area":8.21,"centroid_coordinates":[11.153976931653782,49.73171001602181]}},{"type":"Feature","geometry":{"type":"Point","coordinates":[11.164047753520949,49.59943517500965]},"properties":{"id":"144","land-id":"09474","name":"Kleinsendelbach","population":1443,"area":7.47,"centroid_coordinates":[11.164047753520949,49.59943517500965]}},{"type":"Feature","geometry":{"type":"Point","coordinates":[11.158659356586968,49.67277419874077]},"properties":{"id":"145","land-id":"09474","name":"Kunreuth","population":1394,"area":9.78,"centroid_coordinates":[11.158659356586968,49.67277419874077]}},{"type":"Feature","geometry":{"type":"Point","coordinates":[11.06330695166435,49.639677562501895]},"properties":{"id":"146","land-id":"09474","name":"Langensendelbach","population":3030,"area":9.59,"centroid_coordinates":[11.06330695166435,49.639677562501895]}},{"type":"Feature","geometry":{"type":"Point","coordinates":[11.18569446620043,49.69626459584629]},"properties":{"id":"147","land-id":"09474","name":"Leutenbach","population":1644,"area":19.4,"centroid_coordinates":[11.18569446620043,49.69626459584629]}},{"type":"Feature","geometry":{"type":"Point","coordinates":[11.141723865627112,49.623811516831715]},"properties":{"id":"154","land-id":"09474","name":"Neunkirchen a.Brand","population":8015,"area":26.44,"centroid_coordinates":[11.141723865627112,49.623811516831715]}},{"type":"Feature","geometry":{"type":"Point","coordinates":[11.330876376591988,49.7007545869472]},"properties":{"id":"156","land-id":"09474","name":"Obertrubach","population":2180,"area":21.12,"centroid_coordinates":[11.330876376591988,49.7007545869472]}},{"type":"Feature","geometry":{"type":"Point","coordinates":[11.110621664834046,49.692145693015036]},"properties":{"id":"158","land-id":"09474","name":"Pinzberg","population":1941,"area":13.26,"centroid_coordinates":[11.110621664834046,49.692145693015036]}},{"type":"Feature","geometry":{"type":"Point","coordinates":[11.065793526503773,49.667415277808225]},"properties":{"id":"160","land-id":"09474","name":"Poxdorf","population":1597,"area":5.15,"centroid_coordinates":[11.065793526503773,49.667415277808225]}},{"type":"Feature","geometry":{"type":"Point","coordinates":[11.20137028722684,49.742240830778506]},"properties":{"id":"161","land-id":"09474","name":"Pretzfeld","population":2386,"area":24.17,"centroid_coordinates":[11.20137028722684,49.742240830778506]}},{"type":"Feature","geometry":{"type":"Point","coordinates":[11.17091200098608,49.82741325591673]},"properties":{"id":"168","land-id":"09474","name":"Unterleinleiter","population":1212,"area":12.41,"centroid_coordinates":[11.17091200098608,49.82741325591673]}},{"type":"Feature","geometry":{"type":"Point","coordinates":[11.131628780757804,49.7511605443694]},"properties":{"id":"171","land-id":"09474","name":"Weilersbach","population":1979,"area":8.55,"centroid_coordinates":[11.131628780757804,49.7511605443694]}},{"type":"Feature","geometry":{"type":"Point","coordinates":[11.270475290018343,49.62589606106962]},"properties":{"id":"173","land-id":"09474","name":"Wei\u00dfenohe","population":1157,"area":4.65,"centroid_coordinates":[11.270475290018343,49.62589606106962]}},{"type":"Feature","geometry":{"type":"Point","coordinates":[11.14089432672988,49.70987492472073]},"properties":{"id":"175","land-id":"09474","name":"Wiesenthau","population":1592,"area":6.46,"centroid_coordinates":[11.14089432672988,49.70987492472073]}},{"type":"Feature","geometry":{"type":"Point","coordinates":[11.249254569219207,49.818146385696146]},"properties":{"id":"176","land-id":"09474","name":"Wiesenttal","population":2542,"area":45.84,"centroid_coordinates":[11.249254569219207,49.818146385696146]}},{"type":"Feature","geometry":{"type":"Point","coordinates":[11.634502559004297,50.3517569644698]},"properties":{"id":"112","land-id":"09475","name":"Bad Steben","population":3263,"area":31.62,"centroid_coordinates":[11.634502559004297,50.3517569644698]}},{"type":"Feature","geometry":{"type":"Point","coordinates":[11.780172651267469,50.380337823268896]},"properties":{"id":"113","land-id":"09475","name":"Berg","population":1972,"area":38.88,"centroid_coordinates":[11.780172651267469,50.380337823268896]}},{"type":"Feature","geometry":{"type":"Point","coordinates":[11.964572267806924,50.285662701168896]},"properties":{"id":"120","land-id":"09475","name":"D\u00f6hlau","population":3798,"area":15.28,"centroid_coordinates":[11.964572267806924,50.285662701168896]}},{"type":"Feature","geometry":{"type":"Point","coordinates":[11.918194696227642,50.37892882833628]},"properties":{"id":"123","land-id":"09475","name":"Feilitzsch","population":2700,"area":30.24,"centroid_coordinates":[11.918194696227642,50.37892882833628]}},{"type":"Feature","geometry":{"type":"Point","coordinates":[11.99094949664766,50.32818311242045]},"properties":{"id":"127","land-id":"09475","name":"Gattendorf","population":1033,"area":22.2,"centroid_coordinates":[11.99094949664766,50.32818311242045]}},{"type":"Feature","geometry":{"type":"Point","coordinates":[11.590117229861091,50.35365192490104]},"properties":{"id":"128","land-id":"09475","name":"Geroldsgr\u00fcn","population":2618,"area":15.6,"centroid_coordinates":[11.590117229861091,50.35365192490104]}},{"type":"Feature","geometry":{"type":"Point","coordinates":[11.694059350344578,50.239625640658446]},"properties":{"id":"136","land-id":"09475","name":"Helmbrechts","population":8091,"area":58.71,"centroid_coordinates":[11.694059350344578,50.239625640658446]}},{"type":"Feature","geometry":{"type":"Point","coordinates":[11.718463730067489,50.37626353715825]},"properties":{"id":"137","land-id":"09475","name":"Issigau","population":986,"area":18.71,"centroid_coordinates":[11.718463730067489,50.37626353715825]}},{"type":"Feature","geometry":{"type":"Point","coordinates":[11.834028943870795,50.34677857095238]},"properties":{"id":"141","land-id":"09475","name":"K\u00f6ditz","population":2321,"area":31.43,"centroid_coordinates":[11.834028943870795,50.34677857095238]}},{"type":"Feature","geometry":{"type":"Point","coordinates":[11.838904788669453,50.2554995261915]},"properties":{"id":"142","land-id":"09475","name":"Konradsreuth","population":3159,"area":43.28,"centroid_coordinates":[11.838904788669453,50.2554995261915]}},{"type":"Feature","geometry":{"type":"Point","coordinates":[11.798753473559088,50.29452331764548]},"properties":{"id":"145","land-id":"09475","name":"Leupoldsgr\u00fcn","population":1234,"area":10.23,"centroid_coordinates":[11.798753473559088,50.29452331764548]}},{"type":"Feature","geometry":{"type":"Point","coordinates":[11.669646303564173,50.3797236494482]},"properties":{"id":"146","land-id":"09475","name":"Lichtenberg","population":974,"area":9.53,"centroid_coordinates":[11.669646303564173,50.3797236494482]}},{"type":"Feature","geometry":{"type":"Point","coordinates":[11.7626671138871,50.195516183050536]},"properties":{"id":"154","land-id":"09475","name":"M\u00fcnchberg","population":9959,"area":68.78,"centroid_coordinates":[11.7626671138871,50.195516183050536]}},{"type":"Feature","geometry":{"type":"Point","coordinates":[11.68697443957966,50.32321197056747]},"properties":{"id":"156","land-id":"09475","name":"Naila","population":7519,"area":37.04,"centroid_coordinates":[11.68697443957966,50.32321197056747]}},{"type":"Feature","geometry":{"type":"Point","coordinates":[11.930758633136763,50.255791852330844]},"properties":{"id":"158","land-id":"09475","name":"Oberkotzau","population":5290,"area":21.48,"centroid_coordinates":[11.930758633136763,50.255791852330844]}},{"type":"Feature","geometry":{"type":"Point","coordinates":[12.049118055561744,50.30167916712041]},"properties":{"id":"161","land-id":"09475","name":"Regnitzlosau","population":2246,"area":39.88,"centroid_coordinates":[12.049118055561744,50.30167916712041]}},{"type":"Feature","geometry":{"type":"Point","coordinates":[12.058360104585319,50.24658010248272]},"properties":{"id":"162","land-id":"09475","name":"Rehau","population":9049,"area":80.35,"centroid_coordinates":[12.058360104585319,50.24658010248272]}},{"type":"Feature","geometry":{"type":"Point","coordinates":[11.742089718748375,50.27634212898593]},"properties":{"id":"165","land-id":"09475","name":"Schauenstein","population":1860,"area":26.68,"centroid_coordinates":[11.742089718748375,50.27634212898593]}},{"type":"Feature","geometry":{"type":"Point","coordinates":[11.927195329490692,50.21014070658222]},"properties":{"id":"168","land-id":"09475","name":"Schwarzenbach a.d.Saale","population":6568,"area":59.21,"centroid_coordinates":[11.927195329490692,50.21014070658222]}},{"type":"Feature","geometry":{"type":"Point","coordinates":[11.61259238822217,50.27850234871941]},"properties":{"id":"169","land-id":"09475","name":"Schwarzenbach a.Wald","population":4261,"area":36.77,"centroid_coordinates":[11.61259238822217,50.27850234871941]}},{"type":"Feature","geometry":{"type":"Point","coordinates":[11.754797567113414,50.32107456453949]},"properties":{"id":"171","land-id":"09475","name":"Selbitz","population":4197,"area":27.77,"centroid_coordinates":[11.754797567113414,50.32107456453949]}},{"type":"Feature","geometry":{"type":"Point","coordinates":[11.849162328199073,50.15335714083939]},"properties":{"id":"174","land-id":"09475","name":"Sparneck","population":1514,"area":16.37,"centroid_coordinates":[11.849162328199073,50.15335714083939]}},{"type":"Feature","geometry":{"type":"Point","coordinates":[11.701123251878563,50.147436143037474]},"properties":{"id":"175","land-id":"09475","name":"Stammbach","population":2360,"area":34.73,"centroid_coordinates":[11.701123251878563,50.147436143037474]}},{"type":"Feature","geometry":{"type":"Point","coordinates":[11.876554141191793,50.38964929219469]},"properties":{"id":"181","land-id":"09475","name":"T\u00f6pen","population":994,"area":20.9,"centroid_coordinates":[11.876554141191793,50.38964929219469]}},{"type":"Feature","geometry":{"type":"Point","coordinates":[11.96203775138488,50.371699357758985]},"properties":{"id":"182","land-id":"09475","name":"Trogen","population":1362,"area":12.33,"centroid_coordinates":[11.96203775138488,50.371699357758985]}},{"type":"Feature","geometry":{"type":"Point","coordinates":[11.85971227424669,50.18286042820877]},"properties":{"id":"184","land-id":"09475","name":"Wei\u00dfdorf","population":1201,"area":21.91,"centroid_coordinates":[11.85971227424669,50.18286042820877]}},{"type":"Feature","geometry":{"type":"Point","coordinates":[11.799470695461542,50.13305013574778]},"properties":{"id":"189","land-id":"09475","name":"Zell im Fichtelgebirge","population":1901,"area":31.29,"centroid_coordinates":[11.799470695461542,50.13305013574778]}},{"type":"Feature","geometry":{"type":"Point","coordinates":[11.334930718549204,50.24458761535804]},"properties":{"id":"145","land-id":"09476","name":"Kronach","population":16613,"area":66.96,"centroid_coordinates":[11.334930718549204,50.24458761535804]}},{"type":"Feature","geometry":{"type":"Point","coordinates":[11.276924155667434,50.19385170870473]},"properties":{"id":"146","land-id":"09476","name":"K\u00fcps","population":7711,"area":35.59,"centroid_coordinates":[11.276924155667434,50.19385170870473]}},{"type":"Feature","geometry":{"type":"Point","coordinates":[11.374047655897352,50.482451595363585]},"properties":{"id":"152","land-id":"09476","name":"Ludwigsstadt","population":3104,"area":58.74,"centroid_coordinates":[11.374047655897352,50.482451595363585]}},{"type":"Feature","geometry":{"type":"Point","coordinates":[11.226266890457323,50.25065493482883]},"properties":{"id":"154","land-id":"09476","name":"Mitwitz","population":2852,"area":33.16,"centroid_coordinates":[11.226266890457323,50.25065493482883]}},{"type":"Feature","geometry":{"type":"Point","coordinates":[11.500639370892047,50.36882788953683]},"properties":{"id":"159","land-id":"09476","name":"Nordhalben","population":1530,"area":21.85,"centroid_coordinates":[11.500639370892047,50.36882788953683]}},{"type":"Feature","geometry":{"type":"Point","coordinates":[11.319728372149399,50.36302335309152]},"properties":{"id":"164","land-id":"09476","name":"Pressig","population":3876,"area":53.16,"centroid_coordinates":[11.319728372149399,50.36302335309152]}},{"type":"Feature","geometry":{"type":"Point","coordinates":[11.42334402084986,50.42544475818589]},"properties":{"id":"166","land-id":"09476","name":"Reichenbach","population":664,"area":8.64,"centroid_coordinates":[11.42334402084986,50.42544475818589]}},{"type":"Feature","geometry":{"type":"Point","coordinates":[11.203366959473644,50.21190706380894]},"properties":{"id":"171","land-id":"09476","name":"Schneckenlohe","population":974,"area":9.28,"centroid_coordinates":[11.203366959473644,50.21190706380894]}},{"type":"Feature","geometry":{"type":"Point","coordinates":[11.329671188389206,50.42902231784654]},"properties":{"id":"175","land-id":"09476","name":"Steinbach a.Wald","population":3032,"area":36.12,"centroid_coordinates":[11.329671188389206,50.42902231784654]}},{"type":"Feature","geometry":{"type":"Point","coordinates":[11.462770532917043,50.32001229125488]},"properties":{"id":"177","land-id":"09476","name":"Steinwiesen","population":3278,"area":54.99,"centroid_coordinates":[11.462770532917043,50.32001229125488]}},{"type":"Feature","geometry":{"type":"Point","coordinates":[11.286782319727706,50.3070432461163]},"properties":{"id":"178","land-id":"09476","name":"Stockheim","population":4771,"area":25.34,"centroid_coordinates":[11.286782319727706,50.3070432461163]}},{"type":"Feature","geometry":{"type":"Point","coordinates":[11.277457333841554,50.451606663822005]},"properties":{"id":"179","land-id":"09476","name":"Tettau","population":1890,"area":23.86,"centroid_coordinates":[11.277457333841554,50.451606663822005]}},{"type":"Feature","geometry":{"type":"Point","coordinates":[11.393018241090417,50.394568247912815]},"properties":{"id":"180","land-id":"09476","name":"Teuschnitz","population":1852,"area":34.29,"centroid_coordinates":[11.393018241090417,50.394568247912815]}},{"type":"Feature","geometry":{"type":"Point","coordinates":[11.461183921033161,50.3981789299244]},"properties":{"id":"182","land-id":"09476","name":"Tschirn","population":520,"area":20.19,"centroid_coordinates":[11.461183921033161,50.3981789299244]}},{"type":"Feature","geometry":{"type":"Point","coordinates":[11.412603539830394,50.24553827054602]},"properties":{"id":"183","land-id":"09476","name":"Marktrodach","population":3593,"area":33.31,"centroid_coordinates":[11.412603539830394,50.24553827054602]}},{"type":"Feature","geometry":{"type":"Point","coordinates":[11.499619977344425,50.27781673392308]},"properties":{"id":"184","land-id":"09476","name":"Wallenfels","population":2467,"area":45.61,"centroid_coordinates":[11.499619977344425,50.27781673392308]}},{"type":"Feature","geometry":{"type":"Point","coordinates":[11.353819785255942,50.1910823773097]},"properties":{"id":"185","land-id":"09476","name":"Wei\u00dfenbrunn","population":2730,"area":26.41,"centroid_coordinates":[11.353819785255942,50.1910823773097]}},{"type":"Feature","geometry":{"type":"Point","coordinates":[11.382535766845397,50.317372650201655]},"properties":{"id":"189","land-id":"09476","name":"Wilhelmsthal","population":3403,"area":43.09,"centroid_coordinates":[11.382535766845397,50.317372650201655]}},{"type":"Feature","geometry":{"type":"Point","coordinates":[11.612801650099593,50.20745593682242]},"properties":{"id":"117","land-id":"09477","name":"Grafengehaig","population":835,"area":20.84,"centroid_coordinates":[11.612801650099593,50.20745593682242]}},{"type":"Feature","geometry":{"type":"Point","coordinates":[11.569744711869083,50.16183694683497]},"properties":{"id":"118","land-id":"09477","name":"Guttenberg","population":476,"area":10.61,"centroid_coordinates":[11.569744711869083,50.16183694683497]}},{"type":"Feature","geometry":{"type":"Point","coordinates":[11.571127277347298,50.0334804685024]},"properties":{"id":"119","land-id":"09477","name":"Harsdorf","population":952,"area":11.3,"centroid_coordinates":[11.571127277347298,50.0334804685024]}},{"type":"Feature","geometry":{"type":"Point","coordinates":[11.609415283430637,50.05702026036727]},"properties":{"id":"121","land-id":"09477","name":"Himmelkron","population":3246,"area":23.01,"centroid_coordinates":[11.609415283430637,50.05702026036727]}},{"type":"Feature","geometry":{"type":"Point","coordinates":[11.345418998167407,50.040289206466554]},"properties":{"id":"124","land-id":"09477","name":"Kasendorf","population":2424,"area":38.98,"centroid_coordinates":[11.345418998167407,50.040289206466554]}},{"type":"Feature","geometry":{"type":"Point","coordinates":[11.510340533500242,50.099291600116366]},"properties":{"id":"127","land-id":"09477","name":"K\u00f6dnitz","population":1457,"area":19.64,"centroid_coordinates":[11.510340533500242,50.099291600116366]}},{"type":"Feature","geometry":{"type":"Point","coordinates":[11.432574391642547,50.1212137892677]},"properties":{"id":"128","land-id":"09477","name":"Kulmbach","population":26587,"area":92.81,"centroid_coordinates":[11.432574391642547,50.1212137892677]}},{"type":"Feature","geometry":{"type":"Point","coordinates":[11.587124099795517,50.14331510163101]},"properties":{"id":"129","land-id":"09477","name":"Kupferberg","population":1069,"area":8.3,"centroid_coordinates":[11.587124099795517,50.14331510163101]}},{"type":"Feature","geometry":{"type":"Point","coordinates":[11.565723507915223,50.123887819013056]},"properties":{"id":"135","land-id":"09477","name":"Ludwigschorgast","population":981,"area":5.92,"centroid_coordinates":[11.565723507915223,50.123887819013056]}},{"type":"Feature","geometry":{"type":"Point","coordinates":[11.354304230432545,50.1055189110984]},"properties":{"id":"136","land-id":"09477","name":"Mainleus","population":6495,"area":49.42,"centroid_coordinates":[11.354304230432545,50.1055189110984]}},{"type":"Feature","geometry":{"type":"Point","coordinates":[11.636986512562572,50.170005795280964]},"properties":{"id":"138","land-id":"09477","name":"Marktleugast","population":3024,"area":33.83,"centroid_coordinates":[11.636986512562572,50.170005795280964]}},{"type":"Feature","geometry":{"type":"Point","coordinates":[11.653534261305714,50.09689927064511]},"properties":{"id":"139","land-id":"09477","name":"Marktschorgast","population":1378,"area":15.77,"centroid_coordinates":[11.653534261305714,50.09689927064511]}},{"type":"Feature","geometry":{"type":"Point","coordinates":[11.497357623620832,50.02524059256969]},"properties":{"id":"142","land-id":"09477","name":"Neudrossenfeld","population":3772,"area":50.22,"centroid_coordinates":[11.497357623620832,50.02524059256969]}},{"type":"Feature","geometry":{"type":"Point","coordinates":[11.570606451678135,50.09421439812167]},"properties":{"id":"143","land-id":"09477","name":"Neuenmarkt","population":2959,"area":18.94,"centroid_coordinates":[11.570606451678135,50.09421439812167]}},{"type":"Feature","geometry":{"type":"Point","coordinates":[11.5432443389068,50.232594837587335]},"properties":{"id":"148","land-id":"09477","name":"Presseck","population":1705,"area":54.74,"centroid_coordinates":[11.5432443389068,50.232594837587335]}},{"type":"Feature","geometry":{"type":"Point","coordinates":[11.454540105498806,50.200409853278416]},"properties":{"id":"151","land-id":"09477","name":"Rugendorf","population":944,"area":17.32,"centroid_coordinates":[11.454540105498806,50.200409853278416]}},{"type":"Feature","geometry":{"type":"Point","coordinates":[11.515230055771722,50.17751133686033]},"properties":{"id":"156","land-id":"09477","name":"Stadtsteinach","population":3008,"area":39.79,"centroid_coordinates":[11.515230055771722,50.17751133686033]}},{"type":"Feature","geometry":{"type":"Point","coordinates":[11.40160440431193,50.00052992748052]},"properties":{"id":"157","land-id":"09477","name":"Thurnau","population":4067,"area":64.18,"centroid_coordinates":[11.40160440431193,50.00052992748052]}},{"type":"Feature","geometry":{"type":"Point","coordinates":[11.533639180909775,50.06680370300768]},"properties":{"id":"158","land-id":"09477","name":"Trebgast","population":1497,"area":17.07,"centroid_coordinates":[11.533639180909775,50.06680370300768]}},{"type":"Feature","geometry":{"type":"Point","coordinates":[11.51793796516863,50.1356891397333]},"properties":{"id":"159","land-id":"09477","name":"Untersteinach","population":1765,"area":11.46,"centroid_coordinates":[11.51793796516863,50.1356891397333]}},{"type":"Feature","geometry":{"type":"Point","coordinates":[11.617387521774868,50.11706626149567]},"properties":{"id":"163","land-id":"09477","name":"Wirsberg","population":1946,"area":17.24,"centroid_coordinates":[11.617387521774868,50.11706626149567]}},{"type":"Feature","geometry":{"type":"Point","coordinates":[11.312722071324659,49.98752395287492]},"properties":{"id":"164","land-id":"09477","name":"Wonsees","population":1154,"area":36.87,"centroid_coordinates":[11.312722071324659,49.98752395287492]}},{"type":"Feature","geometry":{"type":"Point","coordinates":[11.236085485943411,50.11624890471366]},"properties":{"id":"111","land-id":"09478","name":"Altenkunstadt","population":5506,"area":32.83,"centroid_coordinates":[11.236085485943411,50.11624890471366]}},{"type":"Feature","geometry":{"type":"Point","coordinates":[11.287384004416,50.14347264330675]},"properties":{"id":"116","land-id":"09478","name":"Burgkunstadt","population":6448,"area":40.63,"centroid_coordinates":[11.287384004416,50.14347264330675]}},{"type":"Feature","geometry":{"type":"Point","coordinates":[10.96297751551608,50.06442487676993]},"properties":{"id":"120","land-id":"09478","name":"Ebensfeld","population":5621,"area":68.72,"centroid_coordinates":[10.96297751551608,50.06442487676993]}},{"type":"Feature","geometry":{"type":"Point","coordinates":[11.169221665802256,50.13804460204129]},"properties":{"id":"127","land-id":"09478","name":"Hochstadt a.Main","population":1569,"area":13.84,"centroid_coordinates":[11.169221665802256,50.13804460204129]}},{"type":"Feature","geometry":{"type":"Point","coordinates":[11.084352330849134,50.13820820935379]},"properties":{"id":"139","land-id":"09478","name":"Lichtenfels","population":20548,"area":122.16,"centroid_coordinates":[11.084352330849134,50.13820820935379]}},{"type":"Feature","geometry":{"type":"Point","coordinates":[11.19215001705214,50.18577810851862]},"properties":{"id":"143","land-id":"09478","name":"Marktgraitz","population":1130,"area":3.73,"centroid_coordinates":[11.19215001705214,50.18577810851862]}},{"type":"Feature","geometry":{"type":"Point","coordinates":[11.177690338149075,50.16513929823098]},"properties":{"id":"144","land-id":"09478","name":"Marktzeuln","population":1620,"area":6.79,"centroid_coordinates":[11.177690338149075,50.16513929823098]}},{"type":"Feature","geometry":{"type":"Point","coordinates":[11.127091365377467,50.17495043488375]},"properties":{"id":"145","land-id":"09478","name":"Michelau i.OFr.","population":6004,"area":19.34,"centroid_coordinates":[11.127091365377467,50.17495043488375]}},{"type":"Feature","geometry":{"type":"Point","coordinates":[11.218608311711106,50.17766625149898]},"properties":{"id":"155","land-id":"09478","name":"Redwitz a.d.Rodach","population":3442,"area":14.69,"centroid_coordinates":[11.218608311711106,50.17766625149898]}},{"type":"Feature","geometry":{"type":"Point","coordinates":[11.021101948746459,50.100234116468535]},"properties":{"id":"165","land-id":"09478","name":"Bad Staffelstein","population":10823,"area":99.39,"centroid_coordinates":[11.021101948746459,50.100234116468535]}},{"type":"Feature","geometry":{"type":"Point","coordinates":[11.235498538471903,50.055775704954094]},"properties":{"id":"176","land-id":"09478","name":"Weismain","population":4836,"area":90.14,"centroid_coordinates":[11.235498538471903,50.055775704954094]}},{"type":"Feature","geometry":{"type":"Point","coordinates":[12.028830075458762,50.01204748668538]},"properties":{"id":"111","land-id":"09479","name":"Bad Alexandersbad","population":915,"area":9.0,"centroid_coordinates":[12.028830075458762,50.01204748668538]}},{"type":"Feature","geometry":{"type":"Point","coordinates":[12.18102811837725,50.0459293023]},"properties":{"id":"112","land-id":"09479","name":"Arzberg","population":4894,"area":43.25,"centroid_coordinates":[12.18102811837725,50.0459293023]}},{"type":"Feature","geometry":{"type":"Point","coordinates":[12.076602730685725,50.0956470656957]},"properties":{"id":"126","land-id":"09479","name":"H\u00f6chst\u00e4dt i.Fichtelgebirge","population":1036,"area":14.95,"centroid_coordinates":[12.076602730685725,50.0956470656957]}},{"type":"Feature","geometry":{"type":"Point","coordinates":[12.188011814269634,50.102439477253704]},"properties":{"id":"127","land-id":"09479","name":"Hohenberg a.d.Eger","population":1383,"area":15.66,"centroid_coordinates":[12.188011814269634,50.102439477253704]}},{"type":"Feature","geometry":{"type":"Point","coordinates":[11.95059459971829,50.15259259701011]},"properties":{"id":"129","land-id":"09479","name":"Kirchenlamitz","population":3134,"area":48.4,"centroid_coordinates":[11.95059459971829,50.15259259701011]}},{"type":"Feature","geometry":{"type":"Point","coordinates":[12.01781022493335,50.1227350518348]},"properties":{"id":"135","land-id":"09479","name":"Marktleuthen","population":2826,"area":35.46,"centroid_coordinates":[12.01781022493335,50.1227350518348]}},{"type":"Feature","geometry":{"type":"Point","coordinates":[12.101474492334729,50.010323436276884]},"properties":{"id":"136","land-id":"09479","name":"Marktredwitz","population":17060,"area":49.45,"centroid_coordinates":[12.101474492334729,50.010323436276884]}},{"type":"Feature","geometry":{"type":"Point","coordinates":[11.934868021005027,49.982394941486234]},"properties":{"id":"138","land-id":"09479","name":"Nagel","population":1660,"area":7.79,"centroid_coordinates":[11.934868021005027,49.982394941486234]}},{"type":"Feature","geometry":{"type":"Point","coordinates":[11.982233826558948,50.08150990389327]},"properties":{"id":"145","land-id":"09479","name":"R\u00f6slau","population":2000,"area":29.9,"centroid_coordinates":[11.982233826558948,50.08150990389327]}},{"type":"Feature","geometry":{"type":"Point","coordinates":[12.237043084445535,50.071883307848516]},"properties":{"id":"147","land-id":"09479","name":"Schirnding","population":1133,"area":16.52,"centroid_coordinates":[12.237043084445535,50.071883307848516]}},{"type":"Feature","geometry":{"type":"Point","coordinates":[12.083646859049873,50.20130449298656]},"properties":{"id":"150","land-id":"09479","name":"Sch\u00f6nwald","population":3112,"area":19.22,"centroid_coordinates":[12.083646859049873,50.20130449298656]}},{"type":"Feature","geometry":{"type":"Point","coordinates":[12.132760648785387,50.165181952155095]},"properties":{"id":"152","land-id":"09479","name":"Selb","population":14808,"area":86.05,"centroid_coordinates":[12.132760648785387,50.165181952155095]}},{"type":"Feature","geometry":{"type":"Point","coordinates":[12.12585767108908,50.07276111953911]},"properties":{"id":"158","land-id":"09479","name":"Thiersheim","population":1737,"area":24.41,"centroid_coordinates":[12.12585767108908,50.07276111953911]}},{"type":"Feature","geometry":{"type":"Point","coordinates":[12.098229637593988,50.11879739176356]},"properties":{"id":"159","land-id":"09479","name":"Thierstein","population":1047,"area":13.04,"centroid_coordinates":[12.098229637593988,50.11879739176356]}},{"type":"Feature","geometry":{"type":"Point","coordinates":[11.931183840217237,50.034361634212054]},"properties":{"id":"161","land-id":"09479","name":"Tr\u00f6stau","population":2071,"area":19.27,"centroid_coordinates":[11.931183840217237,50.034361634212054]}},{"type":"Feature","geometry":{"type":"Point","coordinates":[11.874454138268987,50.09346516168016]},"properties":{"id":"166","land-id":"09479","name":"Wei\u00dfenstadt","population":2862,"area":65.75,"centroid_coordinates":[11.874454138268987,50.09346516168016]}},{"type":"Feature","geometry":{"type":"Point","coordinates":[12.015794832036,50.04517541674567]},"properties":{"id":"169","land-id":"09479","name":"Wunsiedel","population":8981,"area":54.86,"centroid_coordinates":[12.015794832036,50.04517541674567]}}]}