{"type":"FeatureCollection","features":[{"type":"Feature","geometry":{"type":"Point","coordinates":[10.853149285345003,49.42309277024124]},"properties":{"id":"111","land-id":"09573","name":"Ammerndorf","population":2007,"area":5.05,"centroid_coordinates":[10.853149285345003,49.42309277024124]}},{"type":"Feature","geometry":{"type":"Point","coordinates":[10.843411021601874,49.45400627548131]},"properties":{"id":"114","land-id":"09573","name":"Cadolzburg","population":11222,"area":45.35,"centroid_coordinates":[10.843411021601874,49.45400627548131]}},{"type":"Feature","geometry":{"type":"Point","coordinates":[10.789361650505777,49.40847322741484]},"properties":{"id":"115","land-id":"09573","name":"Gro\u00dfhabersdorf","population":4269,"area":35.41,"centroid_coordinates":[10.789361650505777,49.40847322741484]}},{"type":"Feature","geometry":{"type":"Point","coordinates":[10.78248774432495,49.489282690383156]},"properties":{"id":"120","land-id":"09573","name":"Langenzenn","population":10409,"area":46.25,"centroid_coordinates":[10.78248774432495,49.489282690383156]}},{"type":"Feature","geometry":{"type":"Point","coordinates":[10.968295065651256,49.42224248466299]},"properties":{"id":"122","land-id":"09573","name":"Oberasbach","population":17555,"area":12.05,"centroid_coordinates":[10.968295065651256,49.42224248466299]}},{"type":"Feature","geometry":{"type":"Point","coordinates":[10.913091585789845,49.52978607717577]},"properties":{"id":"123","land-id":"09573","name":"Obermichelbach","population":3243,"area":9.28,"centroid_coordinates":[10.913091585789845,49.52978607717577]}},{"type":"Feature","geometry":{"type":"Point","coordinates":[10.826782531650489,49.525493690286254]},"properties":{"id":"124","land-id":"09573","name":"Puschendorf","population":2189,"area":3.43,"centroid_coordinates":[10.826782531650489,49.525493690286254]}},{"type":"Feature","geometry":{"type":"Point","coordinates":[10.88506049531994,49.38578494020005]},"properties":{"id":"125","land-id":"09573","name":"Ro\u00dftal","population":9646,"area":44.32,"centroid_coordinates":[10.88506049531994,49.38578494020005]}},{"type":"Feature","geometry":{"type":"Point","coordinates":[10.882322872058706,49.48451462571582]},"properties":{"id":"126","land-id":"09573","name":"Seukendorf","population":3137,"area":8.47,"centroid_coordinates":[10.882322872058706,49.48451462571582]}},{"type":"Feature","geometry":{"type":"Point","coordinates":[10.980124355749155,49.39916154686806]},"properties":{"id":"127","land-id":"09573","name":"Stein","population":14692,"area":19.53,"centroid_coordinates":[10.980124355749155,49.39916154686806]}},{"type":"Feature","geometry":{"type":"Point","coordinates":[10.860304564358296,49.531116193933705]},"properties":{"id":"129","land-id":"09573","name":"Tuchenbach","population":1367,"area":6.43,"centroid_coordinates":[10.860304564358296,49.531116193933705]}},{"type":"Feature","geometry":{"type":"Point","coordinates":[10.875147744894385,49.510871222270495]},"properties":{"id":"130","land-id":"09573","name":"Veitsbronn","population":6347,"area":16.17,"centroid_coordinates":[10.875147744894385,49.510871222270495]}},{"type":"Feature","geometry":{"type":"Point","coordinates":[10.719219725795904,49.46447892335753]},"properties":{"id":"133","land-id":"09573","name":"Wilhermsdorf","population":5194,"area":26.72,"centroid_coordinates":[10.719219725795904,49.46447892335753]}},{"type":"Feature","geometry":{"type":"Point","coordinates":[10.925248285825198,49.43510342133695]},"properties":{"id":"134","land-id":"09573","name":"Zirndorf","population":26374,"area":28.78,"centroid_coordinates":[10.925248285825198,49.43510342133695]}}]}