{"type":"FeatureCollection","features":[{"type":"Feature","geometry":{"type":"Point","coordinates":[11.531548386381726,49.430970860950815]},"properties":{"id":"111","land-id":"09574","name":"Alfeld","population":1109,"area":17.91,"centroid_coordinates":[11.531548386381726,49.430970860950815]}},{"type":"Feature","geometry":{"type":"Point","coordinates":[11.381309425744114,49.39351321032705]},"properties":{"id":"112","land-id":"09574","name":"Altdorf b.N\u00fcrnberg","population":15383,"area":48.62,"centroid_coordinates":[11.381309425744114,49.39351321032705]}},{"type":"Feature","geometry":{"type":"Point","coordinates":[11.328973647172761,49.33873106691305]},"properties":{"id":"117","land-id":"09574","name":"Burgthann","population":11454,"area":39.13,"centroid_coordinates":[11.328973647172761,49.33873106691305]}},{"type":"Feature","geometry":{"type":"Point","coordinates":[11.401926298518067,49.47261921085288]},"properties":{"id":"120","land-id":"09574","name":"Engelthal","population":1051,"area":13.64,"centroid_coordinates":[11.401926298518067,49.47261921085288]}},{"type":"Feature","geometry":{"type":"Point","coordinates":[11.219176489749005,49.380233359622615]},"properties":{"id":"123","land-id":"09574","name":"Feucht","population":13719,"area":9.88,"centroid_coordinates":[11.219176489749005,49.380233359622615]}},{"type":"Feature","geometry":{"type":"Point","coordinates":[11.49130651430982,49.46526582175437]},"properties":{"id":"128","land-id":"09574","name":"Happurg","population":3584,"area":42.62,"centroid_coordinates":[11.49130651430982,49.46526582175437]}},{"type":"Feature","geometry":{"type":"Point","coordinates":[11.519434521931426,49.59108665350577]},"properties":{"id":"129","land-id":"09574","name":"Hartenstein","population":1460,"area":24.8,"centroid_coordinates":[11.519434521931426,49.59108665350577]}},{"type":"Feature","geometry":{"type":"Point","coordinates":[11.392742091580969,49.49783964205099]},"properties":{"id":"131","land-id":"09574","name":"Henfenfeld","population":1738,"area":6.61,"centroid_coordinates":[11.392742091580969,49.49783964205099]}},{"type":"Feature","geometry":{"type":"Point","coordinates":[11.427443390257098,49.50633637538908]},"properties":{"id":"132","land-id":"09574","name":"Hersbruck","population":12457,"area":22.89,"centroid_coordinates":[11.427443390257098,49.50633637538908]}},{"type":"Feature","geometry":{"type":"Point","coordinates":[11.424379344113394,49.570569909920835]},"properties":{"id":"135","land-id":"09574","name":"Kirchensittenbach","population":2065,"area":43.21,"centroid_coordinates":[11.424379344113394,49.570569909920835]}},{"type":"Feature","geometry":{"type":"Point","coordinates":[11.270139387040025,49.5279639489643]},"properties":{"id":"138","land-id":"09574","name":"Lauf a.d.Pegnitz","population":26131,"area":59.73,"centroid_coordinates":[11.270139387040025,49.5279639489643]}},{"type":"Feature","geometry":{"type":"Point","coordinates":[11.335026156345739,49.45023699917422]},"properties":{"id":"139","land-id":"09574","name":"Leinburg","population":6684,"area":29.48,"centroid_coordinates":[11.335026156345739,49.45023699917422]}},{"type":"Feature","geometry":{"type":"Point","coordinates":[11.555543182123293,49.63160538327724]},"properties":{"id":"140","land-id":"09574","name":"Neuhaus a.d.Pegnitz","population":2680,"area":23.4,"centroid_coordinates":[11.555543182123293,49.63160538327724]}},{"type":"Feature","geometry":{"type":"Point","coordinates":[11.3425775299433,49.53416124244901]},"properties":{"id":"141","land-id":"09574","name":"Neunkirchen a.Sand","population":4675,"area":14.15,"centroid_coordinates":[11.3425775299433,49.53416124244901]}},{"type":"Feature","geometry":{"type":"Point","coordinates":[11.419427170864232,49.44120758426496]},"properties":{"id":"145","land-id":"09574","name":"Offenhausen","population":1577,"area":22.41,"centroid_coordinates":[11.419427170864232,49.44120758426496]}},{"type":"Feature","geometry":{"type":"Point","coordinates":[11.34543248882434,49.50287819839325]},"properties":{"id":"146","land-id":"09574","name":"Ottensoos","population":1931,"area":9.99,"centroid_coordinates":[11.34543248882434,49.50287819839325]}},{"type":"Feature","geometry":{"type":"Point","coordinates":[11.52589291886082,49.50495381752969]},"properties":{"id":"147","land-id":"09574","name":"Pommelsbrunn","population":5291,"area":50.05,"centroid_coordinates":[11.52589291886082,49.50495381752969]}},{"type":"Feature","geometry":{"type":"Point","coordinates":[11.374211480687132,49.51925847633848]},"properties":{"id":"150","land-id":"09574","name":"Reichenschwand","population":2412,"area":6.85,"centroid_coordinates":[11.374211480687132,49.51925847633848]}},{"type":"Feature","geometry":{"type":"Point","coordinates":[11.258185130557791,49.47589347809141]},"properties":{"id":"152","land-id":"09574","name":"R\u00f6thenbach a.d.Pegnitz","population":12519,"area":14.24,"centroid_coordinates":[11.258185130557791,49.47589347809141]}},{"type":"Feature","geometry":{"type":"Point","coordinates":[11.244343763008237,49.49733536839002]},"properties":{"id":"154","land-id":"09574","name":"R\u00fcckersdorf","population":4709,"area":3.6,"centroid_coordinates":[11.244343763008237,49.49733536839002]}},{"type":"Feature","geometry":{"type":"Point","coordinates":[11.345154193953062,49.581059663088325]},"properties":{"id":"155","land-id":"09574","name":"Schnaittach","population":8571,"area":49.29,"centroid_coordinates":[11.345154193953062,49.581059663088325]}},{"type":"Feature","geometry":{"type":"Point","coordinates":[11.202240142295809,49.47729350475493]},"properties":{"id":"156","land-id":"09574","name":"Schwaig b.N\u00fcrnberg","population":8771,"area":5.94,"centroid_coordinates":[11.202240142295809,49.47729350475493]}},{"type":"Feature","geometry":{"type":"Point","coordinates":[11.266736611210138,49.34991120735757]},"properties":{"id":"157","land-id":"09574","name":"Schwarzenbruck","population":8301,"area":22.27,"centroid_coordinates":[11.266736611210138,49.34991120735757]}},{"type":"Feature","geometry":{"type":"Point","coordinates":[11.34436101359022,49.62195532609994]},"properties":{"id":"158","land-id":"09574","name":"Simmelsdorf","population":3237,"area":40.9,"centroid_coordinates":[11.34436101359022,49.62195532609994]}},{"type":"Feature","geometry":{"type":"Point","coordinates":[11.485427020158726,49.62244591513135]},"properties":{"id":"160","land-id":"09574","name":"Velden","population":1728,"area":21.35,"centroid_coordinates":[11.485427020158726,49.62244591513135]}},{"type":"Feature","geometry":{"type":"Point","coordinates":[11.483157719802342,49.56008306125084]},"properties":{"id":"161","land-id":"09574","name":"Vorra","population":1644,"area":22.08,"centroid_coordinates":[11.483157719802342,49.56008306125084]}},{"type":"Feature","geometry":{"type":"Point","coordinates":[11.301702122900359,49.390971603326626]},"properties":{"id":"164","land-id":"09574","name":"Winkelhaid","population":4194,"area":6.52,"centroid_coordinates":[11.301702122900359,49.390971603326626]}}]}