{"type":"FeatureCollection","features":[{"type":"Feature","geometry":{"type":"Point","coordinates":[10.149126476556265,49.45159032665718]},"properties":{"id":"111","land-id":"09571","name":"Adelshofen","population":909,"area":27.2,"centroid_coordinates":[10.149126476556265,49.45159032665718]}},{"type":"Feature","geometry":{"type":"Point","coordinates":[10.630535795908527,49.13489995729227]},"properties":{"id":"113","land-id":"09571","name":"Arberg","population":2241,"area":31.33,"centroid_coordinates":[10.630535795908527,49.13489995729227]}},{"type":"Feature","geometry":{"type":"Point","coordinates":[10.396347497349575,49.240061986083546]},"properties":{"id":"114","land-id":"09571","name":"Aurach","population":3124,"area":36.68,"centroid_coordinates":[10.396347497349575,49.240061986083546]}},{"type":"Feature","geometry":{"type":"Point","coordinates":[10.556365115513202,49.17070870234495]},"properties":{"id":"115","land-id":"09571","name":"Bechhofen","population":6346,"area":61.77,"centroid_coordinates":[10.556365115513202,49.17070870234495]}},{"type":"Feature","geometry":{"type":"Point","coordinates":[10.691262172942546,49.34992502332105]},"properties":{"id":"122","land-id":"09571","name":"Bruckberg","population":1264,"area":7.63,"centroid_coordinates":[10.691262172942546,49.34992502332105]}},{"type":"Feature","geometry":{"type":"Point","coordinates":[10.309693101965008,49.319095980793186]},"properties":{"id":"125","land-id":"09571","name":"Buch a.Wald","population":1003,"area":26.46,"centroid_coordinates":[10.309693101965008,49.319095980793186]}},{"type":"Feature","geometry":{"type":"Point","coordinates":[10.586231058899912,49.222674608127996]},"properties":{"id":"127","land-id":"09571","name":"Burgoberbach","population":3762,"area":12.65,"centroid_coordinates":[10.586231058899912,49.222674608127996]}},{"type":"Feature","geometry":{"type":"Point","coordinates":[10.482493101057834,49.13875775481879]},"properties":{"id":"128","land-id":"09571","name":"Burk","population":1109,"area":14.09,"centroid_coordinates":[10.482493101057834,49.13875775481879]}},{"type":"Feature","geometry":{"type":"Point","coordinates":[10.401157173952893,49.36677662817871]},"properties":{"id":"130","land-id":"09571","name":"Colmberg","population":2164,"area":38.32,"centroid_coordinates":[10.401157173952893,49.36677662817871]}},{"type":"Feature","geometry":{"type":"Point","coordinates":[10.422074016670948,49.14399663545248]},"properties":{"id":"132","land-id":"09571","name":"Dentlein a.Forst","population":2330,"area":18.02,"centroid_coordinates":[10.422074016670948,49.14399663545248]}},{"type":"Feature","geometry":{"type":"Point","coordinates":[10.20938314415581,49.297786079121]},"properties":{"id":"134","land-id":"09571","name":"Diebach","population":1195,"area":22.41,"centroid_coordinates":[10.20938314415581,49.297786079121]}},{"type":"Feature","geometry":{"type":"Point","coordinates":[10.684915189878373,49.40096306256565]},"properties":{"id":"135","land-id":"09571","name":"Dietenhofen","population":5737,"area":63.89,"centroid_coordinates":[10.684915189878373,49.40096306256565]}},{"type":"Feature","geometry":{"type":"Point","coordinates":[10.310413238948527,49.07524568317468]},"properties":{"id":"136","land-id":"09571","name":"Dinkelsb\u00fchl","population":12307,"area":75.14,"centroid_coordinates":[10.310413238948527,49.07524568317468]}},{"type":"Feature","geometry":{"type":"Point","coordinates":[10.29770176845946,49.25504209478501]},"properties":{"id":"137","land-id":"09571","name":"Domb\u00fchl","population":1965,"area":17.88,"centroid_coordinates":[10.29770176845946,49.25504209478501]}},{"type":"Feature","geometry":{"type":"Point","coordinates":[10.379241480128886,49.102700790747775]},"properties":{"id":"139","land-id":"09571","name":"D\u00fcrrwangen","population":2535,"area":23.02,"centroid_coordinates":[10.379241480128886,49.102700790747775]}},{"type":"Feature","geometry":{"type":"Point","coordinates":[10.544090500240053,49.097002033731044]},"properties":{"id":"141","land-id":"09571","name":"Ehingen","population":1924,"area":47.6,"centroid_coordinates":[10.544090500240053,49.097002033731044]}},{"type":"Feature","geometry":{"type":"Point","coordinates":[10.321350976414685,49.175297073051134]},"properties":{"id":"145","land-id":"09571","name":"Feuchtwangen","population":12521,"area":137.14,"centroid_coordinates":[10.321350976414685,49.175297073051134]}},{"type":"Feature","geometry":{"type":"Point","coordinates":[10.519894020643546,49.40471376888853]},"properties":{"id":"146","land-id":"09571","name":"Flachslanden","population":2442,"area":40.85,"centroid_coordinates":[10.519894020643546,49.40471376888853]}},{"type":"Feature","geometry":{"type":"Point","coordinates":[10.2143133162317,49.34235606428688]},"properties":{"id":"152","land-id":"09571","name":"Gebsattel","population":1721,"area":19.1,"centroid_coordinates":[10.2143133162317,49.34235606428688]}},{"type":"Feature","geometry":{"type":"Point","coordinates":[10.51111027135822,49.048979587462426]},"properties":{"id":"154","land-id":"09571","name":"Gerolfingen","population":909,"area":12.64,"centroid_coordinates":[10.51111027135822,49.048979587462426]}},{"type":"Feature","geometry":{"type":"Point","coordinates":[10.310178701207569,49.36071533970021]},"properties":{"id":"155","land-id":"09571","name":"Geslau","population":1360,"area":41.98,"centroid_coordinates":[10.310178701207569,49.36071533970021]}},{"type":"Feature","geometry":{"type":"Point","coordinates":[10.80026303789596,49.34734582074836]},"properties":{"id":"165","land-id":"09571","name":"Heilsbronn","population":9782,"area":62.2,"centroid_coordinates":[10.80026303789596,49.34734582074836]}},{"type":"Feature","geometry":{"type":"Point","coordinates":[10.481466434474033,49.227882100588445]},"properties":{"id":"166","land-id":"09571","name":"Herrieden","population":8310,"area":81.66,"centroid_coordinates":[10.481466434474033,49.227882100588445]}},{"type":"Feature","geometry":{"type":"Point","coordinates":[10.162587891800815,49.31274106110331]},"properties":{"id":"169","land-id":"09571","name":"Insingen","population":1224,"area":21.24,"centroid_coordinates":[10.162587891800815,49.31274106110331]}},{"type":"Feature","geometry":{"type":"Point","coordinates":[10.453948362832584,49.10195479218292]},"properties":{"id":"170","land-id":"09571","name":"Langfurth","population":2024,"area":21.17,"centroid_coordinates":[10.453948362832584,49.10195479218292]}},{"type":"Feature","geometry":{"type":"Point","coordinates":[10.498804530516171,49.35850313141883]},"properties":{"id":"171","land-id":"09571","name":"Lehrberg","population":3083,"area":50.8,"centroid_coordinates":[10.498804530516171,49.35850313141883]}},{"type":"Feature","geometry":{"type":"Point","coordinates":[10.397386574709719,49.29666203411229]},"properties":{"id":"174","land-id":"09571","name":"Leutershausen","population":5583,"area":84.02,"centroid_coordinates":[10.397386574709719,49.29666203411229]}},{"type":"Feature","geometry":{"type":"Point","coordinates":[10.704995922418975,49.2655207245945]},"properties":{"id":"175","land-id":"09571","name":"Lichtenau","population":3791,"area":41.35,"centroid_coordinates":[10.704995922418975,49.2655207245945]}},{"type":"Feature","geometry":{"type":"Point","coordinates":[10.689855612138222,49.20308037357236]},"properties":{"id":"177","land-id":"09571","name":"Merkendorf","population":3019,"area":26.12,"centroid_coordinates":[10.689855612138222,49.20308037357236]}},{"type":"Feature","geometry":{"type":"Point","coordinates":[10.802578269889556,49.212106412870334]},"properties":{"id":"178","land-id":"09571","name":"Mitteleschenbach","population":1693,"area":10.54,"centroid_coordinates":[10.802578269889556,49.212106412870334]}},{"type":"Feature","geometry":{"type":"Point","coordinates":[10.35693780874945,49.026104295908276]},"properties":{"id":"179","land-id":"09571","name":"M\u00f6nchsroth","population":1663,"area":11.9,"centroid_coordinates":[10.35693780874945,49.026104295908276]}},{"type":"Feature","geometry":{"type":"Point","coordinates":[10.808409046615356,49.28740727806981]},"properties":{"id":"180","land-id":"09571","name":"Neuendettelsau","population":8081,"area":33.86,"centroid_coordinates":[10.808409046615356,49.28740727806981]}},{"type":"Feature","geometry":{"type":"Point","coordinates":[10.229446665543687,49.378467163573504]},"properties":{"id":"181","land-id":"09571","name":"Neusitz","population":1996,"area":13.64,"centroid_coordinates":[10.229446665543687,49.378467163573504]}},{"type":"Feature","geometry":{"type":"Point","coordinates":[10.435481366526679,49.407801040422356]},"properties":{"id":"183","land-id":"09571","name":"Oberdachstetten","population":1613,"area":23.64,"centroid_coordinates":[10.435481366526679,49.407801040422356]}},{"type":"Feature","geometry":{"type":"Point","coordinates":[10.213705104266191,49.469761707182464]},"properties":{"id":"188","land-id":"09571","name":"Ohrenbach","population":566,"area":22.71,"centroid_coordinates":[10.213705104266191,49.469761707182464]}},{"type":"Feature","geometry":{"type":"Point","coordinates":[10.655239985275115,49.173035320035545]},"properties":{"id":"189","land-id":"09571","name":"Ornbau","population":1730,"area":15.13,"centroid_coordinates":[10.655239985275115,49.173035320035545]}},{"type":"Feature","geometry":{"type":"Point","coordinates":[10.723541227569596,49.32062971575768]},"properties":{"id":"190","land-id":"09571","name":"Petersaurach","population":5031,"area":41.82,"centroid_coordinates":[10.723541227569596,49.32062971575768]}},{"type":"Feature","geometry":{"type":"Point","coordinates":[10.555129764878373,49.052452778450636]},"properties":{"id":"192","land-id":"09571","name":"R\u00f6ckingen","population":742,"area":10.87,"centroid_coordinates":[10.555129764878373,49.052452778450636]}},{"type":"Feature","geometry":{"type":"Point","coordinates":[10.158269936095849,49.36963922234226]},"properties":{"id":"193","land-id":"09571","name":"Rothenburg ob der Tauber","population":11374,"area":41.74,"centroid_coordinates":[10.158269936095849,49.36963922234226]}},{"type":"Feature","geometry":{"type":"Point","coordinates":[10.578178855897422,49.41817737139352]},"properties":{"id":"194","land-id":"09571","name":"R\u00fcgland","population":1273,"area":20.96,"centroid_coordinates":[10.578178855897422,49.41817737139352]}},{"type":"Feature","geometry":{"type":"Point","coordinates":[10.654292566585553,49.28607990865981]},"properties":{"id":"196","land-id":"09571","name":"Sachsen b.Ansbach","population":3664,"area":20.91,"centroid_coordinates":[10.654292566585553,49.28607990865981]}},{"type":"Feature","geometry":{"type":"Point","coordinates":[10.269929822773527,49.29337495774029]},"properties":{"id":"198","land-id":"09571","name":"Schillingsf\u00fcrst","population":2799,"area":27.46,"centroid_coordinates":[10.269929822773527,49.29337495774029]}},{"type":"Feature","geometry":{"type":"Point","coordinates":[10.185541319673613,49.2031544215837]},"properties":{"id":"199","land-id":"09571","name":"Schnelldorf","population":3558,"area":51.41,"centroid_coordinates":[10.185541319673613,49.2031544215837]}},{"type":"Feature","geometry":{"type":"Point","coordinates":[10.302612061296855,49.11220562046208]},"properties":{"id":"200","land-id":"09571","name":"Schopfloch","population":2898,"area":15.29,"centroid_coordinates":[10.302612061296855,49.11220562046208]}},{"type":"Feature","geometry":{"type":"Point","coordinates":[10.210413045131956,49.42669978154776]},"properties":{"id":"205","land-id":"09571","name":"Steinsfeld","population":1245,"area":31.76,"centroid_coordinates":[10.210413045131956,49.42669978154776]}},{"type":"Feature","geometry":{"type":"Point","coordinates":[10.619009399266806,49.092303767835396]},"properties":{"id":"208","land-id":"09571","name":"Unterschwaningen","population":859,"area":18.55,"centroid_coordinates":[10.619009399266806,49.092303767835396]}},{"type":"Feature","geometry":{"type":"Point","coordinates":[10.608967733794247,49.040977437687815]},"properties":{"id":"214","land-id":"09571","name":"Wassertr\u00fcdingen","population":6318,"area":53.52,"centroid_coordinates":[10.608967733794247,49.040977437687815]}},{"type":"Feature","geometry":{"type":"Point","coordinates":[10.63022905081019,49.210816469447145]},"properties":{"id":"216","land-id":"09571","name":"Weidenbach","population":2445,"area":21.68,"centroid_coordinates":[10.63022905081019,49.210816469447145]}},{"type":"Feature","geometry":{"type":"Point","coordinates":[10.621111291246,49.358273027510705]},"properties":{"id":"217","land-id":"09571","name":"Weihenzell","population":3011,"area":45.17,"centroid_coordinates":[10.621111291246,49.358273027510705]}},{"type":"Feature","geometry":{"type":"Point","coordinates":[10.453224191578338,49.030519166862646]},"properties":{"id":"218","land-id":"09571","name":"Weiltingen","population":1413,"area":24.06,"centroid_coordinates":[10.453224191578338,49.030519166862646]}},{"type":"Feature","geometry":{"type":"Point","coordinates":[10.166242842623605,49.260089331079456]},"properties":{"id":"222","land-id":"09571","name":"Wettringen","population":991,"area":21.34,"centroid_coordinates":[10.166242842623605,49.260089331079456]}},{"type":"Feature","geometry":{"type":"Point","coordinates":[10.474522765712148,49.16880955773421]},"properties":{"id":"223","land-id":"09571","name":"Wieseth","population":1325,"area":20.57,"centroid_coordinates":[10.474522765712148,49.16880955773421]}},{"type":"Feature","geometry":{"type":"Point","coordinates":[10.39803392293697,49.01838307783439]},"properties":{"id":"224","land-id":"09571","name":"Wilburgstetten","population":2052,"area":25.27,"centroid_coordinates":[10.39803392293697,49.01838307783439]}},{"type":"Feature","geometry":{"type":"Point","coordinates":[10.293918323427155,49.400891120629325]},"properties":{"id":"225","land-id":"09571","name":"Windelsbach","population":1085,"area":38.43,"centroid_coordinates":[10.293918323427155,49.400891120629325]}},{"type":"Feature","geometry":{"type":"Point","coordinates":[10.843270387588113,49.252773651689836]},"properties":{"id":"226","land-id":"09571","name":"Windsbach","population":6102,"area":68.04,"centroid_coordinates":[10.843270387588113,49.252773651689836]}},{"type":"Feature","geometry":{"type":"Point","coordinates":[10.458612444729386,49.06683932006009]},"properties":{"id":"227","land-id":"09571","name":"Wittelshofen","population":1235,"area":24.16,"centroid_coordinates":[10.458612444729386,49.06683932006009]}},{"type":"Feature","geometry":{"type":"Point","coordinates":[10.229861782685557,49.244310395443186]},"properties":{"id":"228","land-id":"09571","name":"W\u00f6rnitz","population":1810,"area":24.45,"centroid_coordinates":[10.229861782685557,49.244310395443186]}},{"type":"Feature","geometry":{"type":"Point","coordinates":[10.733896724342838,49.221986117807496]},"properties":{"id":"229","land-id":"09571","name":"Wolframs-Eschenbach","population":3272,"area":25.49,"centroid_coordinates":[10.733896724342838,49.221986117807496]}},{"type":"Feature","geometry":{"type":"Point","coordinates":[10.89973766376833,49.70949443471401]},"properties":{"id":"111","land-id":"09572","name":"Adelsdorf","population":9112,"area":31.7,"centroid_coordinates":[10.89973766376833,49.70949443471401]}},{"type":"Feature","geometry":{"type":"Point","coordinates":[10.817545459507297,49.579850884672524]},"properties":{"id":"114","land-id":"09572","name":"Aurachtal","population":3092,"area":18.37,"centroid_coordinates":[10.817545459507297,49.579850884672524]}},{"type":"Feature","geometry":{"type":"Point","coordinates":[11.029704072646497,49.658262631920266]},"properties":{"id":"115","land-id":"09572","name":"Baiersdorf","population":7876,"area":11.79,"centroid_coordinates":[11.029704072646497,49.658262631920266]}},{"type":"Feature","geometry":{"type":"Point","coordinates":[11.015110274252706,49.62402187036268]},"properties":{"id":"119","land-id":"09572","name":"Bubenreuth","population":4525,"area":4.16,"centroid_coordinates":[11.015110274252706,49.62402187036268]}},{"type":"Feature","geometry":{"type":"Point","coordinates":[11.055490154993633,49.59219395152517]},"properties":{"id":"120","land-id":"09572","name":"Buckenhof","population":3161,"area":1.36,"centroid_coordinates":[11.055490154993633,49.59219395152517]}},{"type":"Feature","geometry":{"type":"Point","coordinates":[11.218127396449864,49.58339151346018]},"properties":{"id":"121","land-id":"09572","name":"Eckental","population":14562,"area":29.71,"centroid_coordinates":[11.218127396449864,49.58339151346018]}},{"type":"Feature","geometry":{"type":"Point","coordinates":[10.84893923467238,49.68424792622755]},"properties":{"id":"126","land-id":"09572","name":"Gremsdorf","population":1631,"area":12.93,"centroid_coordinates":[10.84893923467238,49.68424792622755]}},{"type":"Feature","geometry":{"type":"Point","coordinates":[10.875785696618605,49.62454392523299]},"properties":{"id":"127","land-id":"09572","name":"Gro\u00dfenseebach","population":2393,"area":7.12,"centroid_coordinates":[10.875785696618605,49.62454392523299]}},{"type":"Feature","geometry":{"type":"Point","coordinates":[10.942817428023885,49.688453967372254]},"properties":{"id":"130","land-id":"09572","name":"Hemhofen","population":5196,"area":6.74,"centroid_coordinates":[10.942817428023885,49.688453967372254]}},{"type":"Feature","geometry":{"type":"Point","coordinates":[11.16213332277248,49.543479254727636]},"properties":{"id":"131","land-id":"09572","name":"Heroldsberg","population":8283,"area":11.05,"centroid_coordinates":[11.16213332277248,49.543479254727636]}},{"type":"Feature","geometry":{"type":"Point","coordinates":[10.878719756287923,49.570622600452005]},"properties":{"id":"132","land-id":"09572","name":"Herzogenaurach","population":24317,"area":47.64,"centroid_coordinates":[10.878719756287923,49.570622600452005]}},{"type":"Feature","geometry":{"type":"Point","coordinates":[10.894226261144922,49.63846520348217]},"properties":{"id":"133","land-id":"09572","name":"He\u00dfdorf","population":3777,"area":24.8,"centroid_coordinates":[10.894226261144922,49.63846520348217]}},{"type":"Feature","geometry":{"type":"Point","coordinates":[10.833391051295807,49.71472492302487]},"properties":{"id":"135","land-id":"09572","name":"H\u00f6chstadt a.d.Aisch","population":13899,"area":70.92,"centroid_coordinates":[10.833391051295807,49.71472492302487]}},{"type":"Feature","geometry":{"type":"Point","coordinates":[11.13259906097889,49.559774544809024]},"properties":{"id":"137","land-id":"09572","name":"Kalchreuth","population":3008,"area":10.88,"centroid_coordinates":[11.13259906097889,49.559774544809024]}},{"type":"Feature","geometry":{"type":"Point","coordinates":[10.742733033040846,49.704276342963716]},"properties":{"id":"139","land-id":"09572","name":"Lonnerstadt","population":2043,"area":22.7,"centroid_coordinates":[10.742733033040846,49.704276342963716]}},{"type":"Feature","geometry":{"type":"Point","coordinates":[11.05539223109361,49.62292254602978]},"properties":{"id":"141","land-id":"09572","name":"Marloffstein","population":1548,"area":6.6,"centroid_coordinates":[11.05539223109361,49.62292254602978]}},{"type":"Feature","geometry":{"type":"Point","coordinates":[10.992528814939787,49.64048304175091]},"properties":{"id":"142","land-id":"09572","name":"M\u00f6hrendorf","population":4718,"area":13.2,"centroid_coordinates":[10.992528814939787,49.64048304175091]}},{"type":"Feature","geometry":{"type":"Point","coordinates":[10.760105111699124,49.75674947448277]},"properties":{"id":"143","land-id":"09572","name":"M\u00fchlhausen","population":1824,"area":16.61,"centroid_coordinates":[10.760105111699124,49.75674947448277]}},{"type":"Feature","geometry":{"type":"Point","coordinates":[10.769944549682199,49.59407800929124]},"properties":{"id":"147","land-id":"09572","name":"Oberreichenbach","population":1346,"area":4.83,"centroid_coordinates":[10.769944549682199,49.59407800929124]}},{"type":"Feature","geometry":{"type":"Point","coordinates":[10.918298956839084,49.66813847779123]},"properties":{"id":"149","land-id":"09572","name":"R\u00f6ttenbach","population":4662,"area":7.77,"centroid_coordinates":[10.918298956839084,49.66813847779123]}},{"type":"Feature","geometry":{"type":"Point","coordinates":[11.054539270546204,49.60855726699172]},"properties":{"id":"154","land-id":"09572","name":"Spardorf","population":2201,"area":3.19,"centroid_coordinates":[11.054539270546204,49.60855726699172]}},{"type":"Feature","geometry":{"type":"Point","coordinates":[11.084065859656599,49.59614578939879]},"properties":{"id":"158","land-id":"09572","name":"Uttenreuth","population":4814,"area":5.93,"centroid_coordinates":[11.084065859656599,49.59614578939879]}},{"type":"Feature","geometry":{"type":"Point","coordinates":[10.654367274385383,49.70091474591976]},"properties":{"id":"159","land-id":"09572","name":"Vestenbergsgreuth","population":1587,"area":31.8,"centroid_coordinates":[10.654367274385383,49.70091474591976]}},{"type":"Feature","geometry":{"type":"Point","coordinates":[10.71356231672473,49.74734892969069]},"properties":{"id":"160","land-id":"09572","name":"Wachenroth","population":2300,"area":23.15,"centroid_coordinates":[10.71356231672473,49.74734892969069]}},{"type":"Feature","geometry":{"type":"Point","coordinates":[10.815213845614014,49.62712325540984]},"properties":{"id":"164","land-id":"09572","name":"Weisendorf","population":6593,"area":36.76,"centroid_coordinates":[10.815213845614014,49.62712325540984]}},{"type":"Feature","geometry":{"type":"Point","coordinates":[10.853149285345003,49.42309277024124]},"properties":{"id":"111","land-id":"09573","name":"Ammerndorf","population":2007,"area":5.05,"centroid_coordinates":[10.853149285345003,49.42309277024124]}},{"type":"Feature","geometry":{"type":"Point","coordinates":[10.843411021601874,49.45400627548131]},"properties":{"id":"114","land-id":"09573","name":"Cadolzburg","population":11222,"area":45.35,"centroid_coordinates":[10.843411021601874,49.45400627548131]}},{"type":"Feature","geometry":{"type":"Point","coordinates":[10.789361650505777,49.40847322741484]},"properties":{"id":"115","land-id":"09573","name":"Gro\u00dfhabersdorf","population":4269,"area":35.41,"centroid_coordinates":[10.789361650505777,49.40847322741484]}},{"type":"Feature","geometry":{"type":"Point","coordinates":[10.78248774432495,49.489282690383156]},"properties":{"id":"120","land-id":"09573","name":"Langenzenn","population":10409,"area":46.25,"centroid_coordinates":[10.78248774432495,49.489282690383156]}},{"type":"Feature","geometry":{"type":"Point","coordinates":[10.968295065651256,49.42224248466299]},"properties":{"id":"122","land-id":"09573","name":"Oberasbach","population":17555,"area":12.05,"centroid_coordinates":[10.968295065651256,49.42224248466299]}},{"type":"Feature","geometry":{"type":"Point","coordinates":[10.913091585789845,49.52978607717577]},"properties":{"id":"123","land-id":"09573","name":"Obermichelbach","population":3243,"area":9.28,"centroid_coordinates":[10.913091585789845,49.52978607717577]}},{"type":"Feature","geometry":{"type":"Point","coordinates":[10.826782531650489,49.525493690286254]},"properties":{"id":"124","land-id":"09573","name":"Puschendorf","population":2189,"area":3.43,"centroid_coordinates":[10.826782531650489,49.525493690286254]}},{"type":"Feature","geometry":{"type":"Point","coordinates":[10.88506049531994,49.38578494020005]},"properties":{"id":"125","land-id":"09573","name":"Ro\u00dftal","population":9646,"area":44.32,"centroid_coordinates":[10.88506049531994,49.38578494020005]}},{"type":"Feature","geometry":{"type":"Point","coordinates":[10.882322872058706,49.48451462571582]},"properties":{"id":"126","land-id":"09573","name":"Seukendorf","population":3137,"area":8.47,"centroid_coordinates":[10.882322872058706,49.48451462571582]}},{"type":"Feature","geometry":{"type":"Point","coordinates":[10.980124355749155,49.39916154686806]},"properties":{"id":"127","land-id":"09573","name":"Stein","population":14692,"area":19.53,"centroid_coordinates":[10.980124355749155,49.39916154686806]}},{"type":"Feature","geometry":{"type":"Point","coordinates":[10.860304564358296,49.531116193933705]},"properties":{"id":"129","land-id":"09573","name":"Tuchenbach","population":1367,"area":6.43,"centroid_coordinates":[10.860304564358296,49.531116193933705]}},{"type":"Feature","geometry":{"type":"Point","coordinates":[10.875147744894385,49.510871222270495]},"properties":{"id":"130","land-id":"09573","name":"Veitsbronn","population":6347,"area":16.17,"centroid_coordinates":[10.875147744894385,49.510871222270495]}},{"type":"Feature","geometry":{"type":"Point","coordinates":[10.719219725795904,49.46447892335753]},"properties":{"id":"133","land-id":"09573","name":"Wilhermsdorf","population":5194,"area":26.72,"centroid_coordinates":[10.719219725795904,49.46447892335753]}},{"type":"Feature","geometry":{"type":"Point","coordinates":[10.925248285825198,49.43510342133695]},"properties":{"id":"134","land-id":"09573","name":"Zirndorf","population":26374,"area":28.78,"centroid_coordinates":[10.925248285825198,49.43510342133695]}},{"type":"Feature","geometry":{"type":"Point","coordinates":[11.531548386381726,49.430970860950815]},"properties":{"id":"111","land-id":"09574","name":"Alfeld","population":1109,"area":17.91,"centroid_coordinates":[11.531548386381726,49.430970860950815]}},{"type":"Feature","geometry":{"type":"Point","coordinates":[11.381309425744114,49.39351321032705]},"properties":{"id":"112","land-id":"09574","name":"Altdorf b.N\u00fcrnberg","population":15383,"area":48.62,"centroid_coordinates":[11.381309425744114,49.39351321032705]}},{"type":"Feature","geometry":{"type":"Point","coordinates":[11.328973647172761,49.33873106691305]},"properties":{"id":"117","land-id":"09574","name":"Burgthann","population":11454,"area":39.13,"centroid_coordinates":[11.328973647172761,49.33873106691305]}},{"type":"Feature","geometry":{"type":"Point","coordinates":[11.401926298518067,49.47261921085288]},"properties":{"id":"120","land-id":"09574","name":"Engelthal","population":1051,"area":13.64,"centroid_coordinates":[11.401926298518067,49.47261921085288]}},{"type":"Feature","geometry":{"type":"Point","coordinates":[11.219176489749005,49.380233359622615]},"properties":{"id":"123","land-id":"09574","name":"Feucht","population":13719,"area":9.88,"centroid_coordinates":[11.219176489749005,49.380233359622615]}},{"type":"Feature","geometry":{"type":"Point","coordinates":[11.49130651430982,49.46526582175437]},"properties":{"id":"128","land-id":"09574","name":"Happurg","population":3584,"area":42.62,"centroid_coordinates":[11.49130651430982,49.46526582175437]}},{"type":"Feature","geometry":{"type":"Point","coordinates":[11.519434521931426,49.59108665350577]},"properties":{"id":"129","land-id":"09574","name":"Hartenstein","population":1460,"area":24.8,"centroid_coordinates":[11.519434521931426,49.59108665350577]}},{"type":"Feature","geometry":{"type":"Point","coordinates":[11.392742091580969,49.49783964205099]},"properties":{"id":"131","land-id":"09574","name":"Henfenfeld","population":1738,"area":6.61,"centroid_coordinates":[11.392742091580969,49.49783964205099]}},{"type":"Feature","geometry":{"type":"Point","coordinates":[11.427443390257098,49.50633637538908]},"properties":{"id":"132","land-id":"09574","name":"Hersbruck","population":12457,"area":22.89,"centroid_coordinates":[11.427443390257098,49.50633637538908]}},{"type":"Feature","geometry":{"type":"Point","coordinates":[11.424379344113394,49.570569909920835]},"properties":{"id":"135","land-id":"09574","name":"Kirchensittenbach","population":2065,"area":43.21,"centroid_coordinates":[11.424379344113394,49.570569909920835]}},{"type":"Feature","geometry":{"type":"Point","coordinates":[11.270139387040025,49.5279639489643]},"properties":{"id":"138","land-id":"09574","name":"Lauf a.d.Pegnitz","population":26131,"area":59.73,"centroid_coordinates":[11.270139387040025,49.5279639489643]}},{"type":"Feature","geometry":{"type":"Point","coordinates":[11.335026156345739,49.45023699917422]},"properties":{"id":"139","land-id":"09574","name":"Leinburg","population":6684,"area":29.48,"centroid_coordinates":[11.335026156345739,49.45023699917422]}},{"type":"Feature","geometry":{"type":"Point","coordinates":[11.555543182123293,49.63160538327724]},"properties":{"id":"140","land-id":"09574","name":"Neuhaus a.d.Pegnitz","population":2680,"area":23.4,"centroid_coordinates":[11.555543182123293,49.63160538327724]}},{"type":"Feature","geometry":{"type":"Point","coordinates":[11.3425775299433,49.53416124244901]},"properties":{"id":"141","land-id":"09574","name":"Neunkirchen a.Sand","population":4675,"area":14.15,"centroid_coordinates":[11.3425775299433,49.53416124244901]}},{"type":"Feature","geometry":{"type":"Point","coordinates":[11.419427170864232,49.44120758426496]},"properties":{"id":"145","land-id":"09574","name":"Offenhausen","population":1577,"area":22.41,"centroid_coordinates":[11.419427170864232,49.44120758426496]}},{"type":"Feature","geometry":{"type":"Point","coordinates":[11.34543248882434,49.50287819839325]},"properties":{"id":"146","land-id":"09574","name":"Ottensoos","population":1931,"area":9.99,"centroid_coordinates":[11.34543248882434,49.50287819839325]}},{"type":"Feature","geometry":{"type":"Point","coordinates":[11.52589291886082,49.50495381752969]},"properties":{"id":"147","land-id":"09574","name":"Pommelsbrunn","population":5291,"area":50.05,"centroid_coordinates":[11.52589291886082,49.50495381752969]}},{"type":"Feature","geometry":{"type":"Point","coordinates":[11.374211480687132,49.51925847633848]},"properties":{"id":"150","land-id":"09574","name":"Reichenschwand","population":2412,"area":6.85,"centroid_coordinates":[11.374211480687132,49.51925847633848]}},{"type":"Feature","geometry":{"type":"Point","coordinates":[11.258185130557791,49.47589347809141]},"properties":{"id":"152","land-id":"09574","name":"R\u00f6thenbach a.d.Pegnitz","population":12519,"area":14.24,"centroid_coordinates":[11.258185130557791,49.47589347809141]}},{"type":"Feature","geometry":{"type":"Point","coordinates":[11.244343763008237,49.49733536839002]},"properties":{"id":"154","land-id":"09574","name":"R\u00fcckersdorf","population":4709,"area":3.6,"centroid_coordinates":[11.244343763008237,49.49733536839002]}},{"type":"Feature","geometry":{"type":"Point","coordinates":[11.345154193953062,49.581059663088325]},"properties":{"id":"155","land-id":"09574","name":"Schnaittach","population":8571,"area":49.29,"centroid_coordinates":[11.345154193953062,49.581059663088325]}},{"type":"Feature","geometry":{"type":"Point","coordinates":[11.202240142295809,49.47729350475493]},"properties":{"id":"156","land-id":"09574","name":"Schwaig b.N\u00fcrnberg","population":8771,"area":5.94,"centroid_coordinates":[11.202240142295809,49.47729350475493]}},{"type":"Feature","geometry":{"type":"Point","coordinates":[11.266736611210138,49.34991120735757]},"properties":{"id":"157","land-id":"09574","name":"Schwarzenbruck","population":8301,"area":22.27,"centroid_coordinates":[11.266736611210138,49.34991120735757]}},{"type":"Feature","geometry":{"type":"Point","coordinates":[11.34436101359022,49.62195532609994]},"properties":{"id":"158","land-id":"09574","name":"Simmelsdorf","population":3237,"area":40.9,"centroid_coordinates":[11.34436101359022,49.62195532609994]}},{"type":"Feature","geometry":{"type":"Point","coordinates":[11.485427020158726,49.62244591513135]},"properties":{"id":"160","land-id":"09574","name":"Velden","population":1728,"area":21.35,"centroid_coordinates":[11.485427020158726,49.62244591513135]}},{"type":"Feature","geometry":{"type":"Point","coordinates":[11.483157719802342,49.56008306125084]},"properties":{"id":"161","land-id":"09574","name":"Vorra","population":1644,"area":22.08,"centroid_coordinates":[11.483157719802342,49.56008306125084]}},{"type":"Feature","geometry":{"type":"Point","coordinates":[11.301702122900359,49.390971603326626]},"properties":{"id":"164","land-id":"09574","name":"Winkelhaid","population":4194,"area":6.52,"centroid_coordinates":[11.301702122900359,49.390971603326626]}},{"type":"Feature","geometry":{"type":"Point","coordinates":[10.424710008339312,49.516104851654944]},"properties":{"id":"112","land-id":"09575","name":"Bad Windsheim","population":12470,"area":78.15,"centroid_coordinates":[10.424710008339312,49.516104851654944]}},{"type":"Feature","geometry":{"type":"Point","coordinates":[10.540702132734953,49.63202176406235]},"properties":{"id":"113","land-id":"09575","name":"Baudenbach","population":1247,"area":22.16,"centroid_coordinates":[10.540702132734953,49.63202176406235]}},{"type":"Feature","geometry":{"type":"Point","coordinates":[10.315818275120446,49.46474138246675]},"properties":{"id":"115","land-id":"09575","name":"Burgbernheim","population":3435,"area":42.25,"centroid_coordinates":[10.315818275120446,49.46474138246675]}},{"type":"Feature","geometry":{"type":"Point","coordinates":[10.557571082895617,49.7301367486587]},"properties":{"id":"116","land-id":"09575","name":"Burghaslach","population":2668,"area":43.99,"centroid_coordinates":[10.557571082895617,49.7301367486587]}},{"type":"Feature","geometry":{"type":"Point","coordinates":[10.716489559411988,49.64427031583973]},"properties":{"id":"117","land-id":"09575","name":"Dachsbach","population":1818,"area":20.61,"centroid_coordinates":[10.716489559411988,49.64427031583973]}},{"type":"Feature","geometry":{"type":"Point","coordinates":[10.625620185942369,49.598476760614346]},"properties":{"id":"118","land-id":"09575","name":"Diespeck","population":3781,"area":21.04,"centroid_coordinates":[10.625620185942369,49.598476760614346]}},{"type":"Feature","geometry":{"type":"Point","coordinates":[10.539864336286813,49.54712380998286]},"properties":{"id":"119","land-id":"09575","name":"Dietersheim","population":2127,"area":31.14,"centroid_coordinates":[10.539864336286813,49.54712380998286]}},{"type":"Feature","geometry":{"type":"Point","coordinates":[10.728021125124,49.55178234276146]},"properties":{"id":"121","land-id":"09575","name":"Emskirchen","population":5859,"area":67.2,"centroid_coordinates":[10.728021125124,49.55178234276146]}},{"type":"Feature","geometry":{"type":"Point","coordinates":[10.308683984130308,49.518106678333076]},"properties":{"id":"122","land-id":"09575","name":"Ergersheim","population":1059,"area":30.03,"centroid_coordinates":[10.308683984130308,49.518106678333076]}},{"type":"Feature","geometry":{"type":"Point","coordinates":[10.267666953401752,49.466665743593474]},"properties":{"id":"124","land-id":"09575","name":"Gallmersgarten","population":805,"area":15.24,"centroid_coordinates":[10.267666953401752,49.466665743593474]}},{"type":"Feature","geometry":{"type":"Point","coordinates":[10.7102315403874,49.61626491461971]},"properties":{"id":"125","land-id":"09575","name":"Gerhardshofen","population":2551,"area":27.2,"centroid_coordinates":[10.7102315403874,49.61626491461971]}},{"type":"Feature","geometry":{"type":"Point","coordinates":[10.17950416039042,49.567570233824796]},"properties":{"id":"127","land-id":"09575","name":"Gollhofen","population":891,"area":17.06,"centroid_coordinates":[10.17950416039042,49.567570233824796]}},{"type":"Feature","geometry":{"type":"Point","coordinates":[10.637489444063444,49.624935287354425]},"properties":{"id":"128","land-id":"09575","name":"Gutenstetten","population":1325,"area":21.3,"centroid_coordinates":[10.637489444063444,49.624935287354425]}},{"type":"Feature","geometry":{"type":"Point","coordinates":[10.762888675606538,49.52857280254991]},"properties":{"id":"129","land-id":"09575","name":"Hagenb\u00fcchach","population":1646,"area":11.5,"centroid_coordinates":[10.762888675606538,49.52857280254991]}},{"type":"Feature","geometry":{"type":"Point","coordinates":[10.103535269424478,49.5662160179352]},"properties":{"id":"130","land-id":"09575","name":"Hemmersheim","population":653,"area":23.77,"centroid_coordinates":[10.103535269424478,49.5662160179352]}},{"type":"Feature","geometry":{"type":"Point","coordinates":[10.404753026246171,49.463156372022944]},"properties":{"id":"133","land-id":"09575","name":"Illesheim","population":950,"area":21.4,"centroid_coordinates":[10.404753026246171,49.463156372022944]}},{"type":"Feature","geometry":{"type":"Point","coordinates":[10.223472876080459,49.60688332544751]},"properties":{"id":"134","land-id":"09575","name":"Ippesheim","population":1063,"area":23.58,"centroid_coordinates":[10.223472876080459,49.60688332544751]}},{"type":"Feature","geometry":{"type":"Point","coordinates":[10.501543957545348,49.524365069400105]},"properties":{"id":"135","land-id":"09575","name":"Ipsheim","population":2167,"area":42.22,"centroid_coordinates":[10.501543957545348,49.524365069400105]}},{"type":"Feature","geometry":{"type":"Point","coordinates":[10.51458840380204,49.61059855574064]},"properties":{"id":"138","land-id":"09575","name":"Langenfeld","population":1059,"area":7.28,"centroid_coordinates":[10.51458840380204,49.61059855574064]}},{"type":"Feature","geometry":{"type":"Point","coordinates":[10.366123565912284,49.44223601609575]},"properties":{"id":"143","land-id":"09575","name":"Marktbergel","population":1642,"area":24.2,"centroid_coordinates":[10.366123565912284,49.44223601609575]}},{"type":"Feature","geometry":{"type":"Point","coordinates":[10.400772596620543,49.66211313028898]},"properties":{"id":"144","land-id":"09575","name":"Markt Bibart","population":1797,"area":30.0,"centroid_coordinates":[10.400772596620543,49.66211313028898]}},{"type":"Feature","geometry":{"type":"Point","coordinates":[10.62422067399391,49.50080404256516]},"properties":{"id":"145","land-id":"09575","name":"Markt Erlbach","population":5534,"area":60.83,"centroid_coordinates":[10.62422067399391,49.50080404256516]}},{"type":"Feature","geometry":{"type":"Point","coordinates":[10.331203291820362,49.570243966753935]},"properties":{"id":"146","land-id":"09575","name":"Markt Nordheim","population":1140,"area":39.23,"centroid_coordinates":[10.331203291820362,49.570243966753935]}},{"type":"Feature","geometry":{"type":"Point","coordinates":[10.548303761079573,49.68964270113181]},"properties":{"id":"147","land-id":"09575","name":"Markt Taschendorf","population":1061,"area":27.57,"centroid_coordinates":[10.548303761079573,49.68964270113181]}},{"type":"Feature","geometry":{"type":"Point","coordinates":[10.591250800043774,49.65695817211082]},"properties":{"id":"150","land-id":"09575","name":"M\u00fcnchsteinach","population":1449,"area":29.43,"centroid_coordinates":[10.591250800043774,49.65695817211082]}},{"type":"Feature","geometry":{"type":"Point","coordinates":[10.653186616432716,49.44897362344896]},"properties":{"id":"152","land-id":"09575","name":"Neuhof a.d.Zenn","population":2185,"area":30.84,"centroid_coordinates":[10.653186616432716,49.44897362344896]}},{"type":"Feature","geometry":{"type":"Point","coordinates":[10.575309471519722,49.573309959849794]},"properties":{"id":"153","land-id":"09575","name":"Neustadt a.d.Aisch","population":13195,"area":61.31,"centroid_coordinates":[10.575309471519722,49.573309959849794]}},{"type":"Feature","geometry":{"type":"Point","coordinates":[10.12772730431433,49.59700065455344]},"properties":{"id":"155","land-id":"09575","name":"Oberickelsheim","population":718,"area":18.25,"centroid_coordinates":[10.12772730431433,49.59700065455344]}},{"type":"Feature","geometry":{"type":"Point","coordinates":[10.488729905852711,49.45002169205071]},"properties":{"id":"156","land-id":"09575","name":"Obernzenn","population":2440,"area":39.65,"centroid_coordinates":[10.488729905852711,49.45002169205071]}},{"type":"Feature","geometry":{"type":"Point","coordinates":[10.43069744405191,49.7159351735284]},"properties":{"id":"157","land-id":"09575","name":"Oberscheinfeld","population":1064,"area":42.27,"centroid_coordinates":[10.43069744405191,49.7159351735284]}},{"type":"Feature","geometry":{"type":"Point","coordinates":[10.475064313116752,49.67203498865319]},"properties":{"id":"161","land-id":"09575","name":"Scheinfeld","population":4548,"area":45.12,"centroid_coordinates":[10.475064313116752,49.67203498865319]}},{"type":"Feature","geometry":{"type":"Point","coordinates":[10.131139160887233,49.51580859904218]},"properties":{"id":"163","land-id":"09575","name":"Simmershofen","population":952,"area":34.19,"centroid_coordinates":[10.131139160887233,49.51580859904218]}},{"type":"Feature","geometry":{"type":"Point","coordinates":[10.412802325182223,49.60695815002255]},"properties":{"id":"165","land-id":"09575","name":"Sugenheim","population":2338,"area":63.38,"centroid_coordinates":[10.412802325182223,49.60695815002255]}},{"type":"Feature","geometry":{"type":"Point","coordinates":[10.57949974822242,49.462988854994514]},"properties":{"id":"166","land-id":"09575","name":"Trautskirchen","population":1294,"area":19.82,"centroid_coordinates":[10.57949974822242,49.462988854994514]}},{"type":"Feature","geometry":{"type":"Point","coordinates":[10.700248742367416,49.66782827883557]},"properties":{"id":"167","land-id":"09575","name":"Uehlfeld","population":3100,"area":31.16,"centroid_coordinates":[10.700248742367416,49.66782827883557]}},{"type":"Feature","geometry":{"type":"Point","coordinates":[10.214559413347697,49.52306111388421]},"properties":{"id":"168","land-id":"09575","name":"Uffenheim","population":6412,"area":59.38,"centroid_coordinates":[10.214559413347697,49.52306111388421]}},{"type":"Feature","geometry":{"type":"Point","coordinates":[10.269764790719542,49.58636572427514]},"properties":{"id":"179","land-id":"09575","name":"Weigenheim","population":985,"area":32.6,"centroid_coordinates":[10.269764790719542,49.58636572427514]}},{"type":"Feature","geometry":{"type":"Point","coordinates":[10.737696646045636,49.5757725617789]},"properties":{"id":"181","land-id":"09575","name":"Wilhelmsdorf","population":1447,"area":7.82,"centroid_coordinates":[10.737696646045636,49.5757725617789]}},{"type":"Feature","geometry":{"type":"Point","coordinates":[10.932357026213998,49.23480121036781]},"properties":{"id":"111","land-id":"09576","name":"Abenberg","population":5569,"area":48.37,"centroid_coordinates":[10.932357026213998,49.23480121036781]}},{"type":"Feature","geometry":{"type":"Point","coordinates":[11.237440998102988,49.24307526491869]},"properties":{"id":"113","land-id":"09576","name":"Allersberg","population":8523,"area":59.76,"centroid_coordinates":[11.237440998102988,49.24307526491869]}},{"type":"Feature","geometry":{"type":"Point","coordinates":[11.02761748060477,49.266326607508226]},"properties":{"id":"117","land-id":"09576","name":"B\u00fcchenbach","population":5480,"area":30.75,"centroid_coordinates":[11.02761748060477,49.266326607508226]}},{"type":"Feature","geometry":{"type":"Point","coordinates":[11.025240247962346,49.19515737832283]},"properties":{"id":"121","land-id":"09576","name":"Georgensgm\u00fcnd","population":6910,"area":46.91,"centroid_coordinates":[11.025240247962346,49.19515737832283]}},{"type":"Feature","geometry":{"type":"Point","coordinates":[11.328306840940284,49.059671974501455]},"properties":{"id":"122","land-id":"09576","name":"Greding","population":7152,"area":103.77,"centroid_coordinates":[11.328306840940284,49.059671974501455]}},{"type":"Feature","geometry":{"type":"Point","coordinates":[11.121565461563764,49.13055901178486]},"properties":{"id":"126","land-id":"09576","name":"Heideck","population":4637,"area":58.53,"centroid_coordinates":[11.121565461563764,49.13055901178486]}},{"type":"Feature","geometry":{"type":"Point","coordinates":[11.228926971685205,49.17089146575895]},"properties":{"id":"127","land-id":"09576","name":"Hilpoltstein","population":13634,"area":89.71,"centroid_coordinates":[11.228926971685205,49.17089146575895]}},{"type":"Feature","geometry":{"type":"Point","coordinates":[10.952659604725635,49.29617689763315]},"properties":{"id":"128","land-id":"09576","name":"Kammerstein","population":3074,"area":37.04,"centroid_coordinates":[10.952659604725635,49.29617689763315]}},{"type":"Feature","geometry":{"type":"Point","coordinates":[11.138034653661183,49.30506237302239]},"properties":{"id":"132","land-id":"09576","name":"Schwanstetten","population":7190,"area":32.34,"centroid_coordinates":[11.138034653661183,49.30506237302239]}},{"type":"Feature","geometry":{"type":"Point","coordinates":[11.068801594129974,49.29826240052286]},"properties":{"id":"137","land-id":"09576","name":"Rednitzhembach","population":6988,"area":13.0,"centroid_coordinates":[11.068801594129974,49.29826240052286]}},{"type":"Feature","geometry":{"type":"Point","coordinates":[11.024426420761063,49.15310551037035]},"properties":{"id":"141","land-id":"09576","name":"R\u00f6ttenbach","population":3362,"area":21.62,"centroid_coordinates":[11.024426420761063,49.15310551037035]}},{"type":"Feature","geometry":{"type":"Point","coordinates":[10.928915487828153,49.34323021126234]},"properties":{"id":"142","land-id":"09576","name":"Rohr","population":3781,"area":46.55,"centroid_coordinates":[10.928915487828153,49.34323021126234]}},{"type":"Feature","geometry":{"type":"Point","coordinates":[11.116105094905272,49.233385352968256]},"properties":{"id":"143","land-id":"09576","name":"Roth","population":25389,"area":96.29,"centroid_coordinates":[11.116105094905272,49.233385352968256]}},{"type":"Feature","geometry":{"type":"Point","coordinates":[10.917290249964053,49.17630377261455]},"properties":{"id":"147","land-id":"09576","name":"Spalt","population":5198,"area":55.68,"centroid_coordinates":[10.917290249964053,49.17630377261455]}},{"type":"Feature","geometry":{"type":"Point","coordinates":[11.223814587505288,49.09757922949886]},"properties":{"id":"148","land-id":"09576","name":"Thalm\u00e4ssing","population":5328,"area":80.55,"centroid_coordinates":[11.223814587505288,49.09757922949886]}},{"type":"Feature","geometry":{"type":"Point","coordinates":[11.172198985093763,49.338743630166185]},"properties":{"id":"151","land-id":"09576","name":"Wendelstein","population":16469,"area":50.76,"centroid_coordinates":[11.172198985093763,49.338743630166185]}},{"type":"Feature","geometry":{"type":"Point","coordinates":[10.860947347529798,49.158210875036914]},"properties":{"id":"111","land-id":"09577","name":"Absberg","population":1414,"area":18.95,"centroid_coordinates":[10.860947347529798,49.158210875036914]}},{"type":"Feature","geometry":{"type":"Point","coordinates":[10.868748737506222,49.03912180448178]},"properties":{"id":"113","land-id":"09577","name":"Alesheim","population":901,"area":20.49,"centroid_coordinates":[10.868748737506222,49.03912180448178]}},{"type":"Feature","geometry":{"type":"Point","coordinates":[10.719079146170628,49.160590390949814]},"properties":{"id":"114","land-id":"09577","name":"Muhr a.See","population":2447,"area":10.96,"centroid_coordinates":[10.719079146170628,49.160590390949814]}},{"type":"Feature","geometry":{"type":"Point","coordinates":[11.116466975093271,49.07088722981901]},"properties":{"id":"115","land-id":"09577","name":"Bergen","population":1163,"area":19.9,"centroid_coordinates":[11.116466975093271,49.07088722981901]}},{"type":"Feature","geometry":{"type":"Point","coordinates":[11.090922078065345,49.03419125384822]},"properties":{"id":"120","land-id":"09577","name":"Burgsalach","population":1159,"area":19.3,"centroid_coordinates":[11.090922078065345,49.03419125384822]}},{"type":"Feature","geometry":{"type":"Point","coordinates":[10.778133361179146,49.057682933492615]},"properties":{"id":"122","land-id":"09577","name":"Dittenheim","population":1907,"area":29.32,"centroid_coordinates":[10.778133361179146,49.057682933492615]}},{"type":"Feature","geometry":{"type":"Point","coordinates":[10.932246609488924,49.07165630379525]},"properties":{"id":"125","land-id":"09577","name":"Ellingen","population":3897,"area":31.23,"centroid_coordinates":[10.932246609488924,49.07165630379525]}},{"type":"Feature","geometry":{"type":"Point","coordinates":[11.062948529516442,49.07608921220101]},"properties":{"id":"127","land-id":"09577","name":"Ettenstatt","population":876,"area":15.85,"centroid_coordinates":[11.062948529516442,49.07608921220101]}},{"type":"Feature","geometry":{"type":"Point","coordinates":[10.709990249824935,49.05567653586301]},"properties":{"id":"133","land-id":"09577","name":"Gnotzheim","population":815,"area":12.5,"centroid_coordinates":[10.709990249824935,49.05567653586301]}},{"type":"Feature","geometry":{"type":"Point","coordinates":[10.728388588275765,49.11091031222708]},"properties":{"id":"136","land-id":"09577","name":"Gunzenhausen","population":16630,"area":82.67,"centroid_coordinates":[10.728388588275765,49.11091031222708]}},{"type":"Feature","geometry":{"type":"Point","coordinates":[10.794389951566227,49.16504761945162]},"properties":{"id":"138","land-id":"09577","name":"Haundorf","population":2746,"area":51.27,"centroid_coordinates":[10.794389951566227,49.16504761945162]}},{"type":"Feature","geometry":{"type":"Point","coordinates":[10.744243082518977,48.99575154909642]},"properties":{"id":"140","land-id":"09577","name":"Heidenheim","population":2494,"area":52.2,"centroid_coordinates":[10.744243082518977,48.99575154909642]}},{"type":"Feature","geometry":{"type":"Point","coordinates":[11.00991753591903,49.07094221444353]},"properties":{"id":"141","land-id":"09577","name":"H\u00f6ttingen","population":1089,"area":19.25,"centroid_coordinates":[11.00991753591903,49.07094221444353]}},{"type":"Feature","geometry":{"type":"Point","coordinates":[10.916123608237987,48.89470039595997]},"properties":{"id":"148","land-id":"09577","name":"Langenaltheim","population":2239,"area":39.14,"centroid_coordinates":[10.916123608237987,48.89470039595997]}},{"type":"Feature","geometry":{"type":"Point","coordinates":[10.836559758979911,49.00691408648067]},"properties":{"id":"149","land-id":"09577","name":"Markt Berolzheim","population":1290,"area":14.51,"centroid_coordinates":[10.836559758979911,49.00691408648067]}},{"type":"Feature","geometry":{"type":"Point","coordinates":[10.803567642834132,49.02574585427347]},"properties":{"id":"150","land-id":"09577","name":"Meinheim","population":836,"area":16.35,"centroid_coordinates":[10.803567642834132,49.02574585427347]}},{"type":"Feature","geometry":{"type":"Point","coordinates":[11.154040617690827,49.043589496384115]},"properties":{"id":"151","land-id":"09577","name":"Nennslingen","population":1431,"area":21.93,"centroid_coordinates":[11.154040617690827,49.043589496384115]}},{"type":"Feature","geometry":{"type":"Point","coordinates":[11.003425124862337,48.93964391138289]},"properties":{"id":"158","land-id":"09577","name":"Pappenheim","population":3959,"area":64.26,"centroid_coordinates":[11.003425124862337,48.93964391138289]}},{"type":"Feature","geometry":{"type":"Point","coordinates":[10.860498202539034,49.11442546458751]},"properties":{"id":"159","land-id":"09577","name":"Pfofeld","population":1482,"area":23.91,"centroid_coordinates":[10.860498202539034,49.11442546458751]}},{"type":"Feature","geometry":{"type":"Point","coordinates":[10.985242924275857,49.11518993420325]},"properties":{"id":"161","land-id":"09577","name":"Pleinfeld","population":7385,"area":71.4,"centroid_coordinates":[10.985242924275857,49.11518993420325]}},{"type":"Feature","geometry":{"type":"Point","coordinates":[10.729618989403003,48.93323221820858]},"properties":{"id":"162","land-id":"09577","name":"Polsingen","population":1766,"area":33.91,"centroid_coordinates":[10.729618989403003,48.93323221820858]}},{"type":"Feature","geometry":{"type":"Point","coordinates":[11.116671815215792,48.99423939237889]},"properties":{"id":"163","land-id":"09577","name":"Raitenbuch","population":1229,"area":38.13,"centroid_coordinates":[11.116671815215792,48.99423939237889]}},{"type":"Feature","geometry":{"type":"Point","coordinates":[11.001330897276876,48.897533206016085]},"properties":{"id":"168","land-id":"09577","name":"Solnhofen","population":1703,"area":13.56,"centroid_coordinates":[11.001330897276876,48.897533206016085]}},{"type":"Feature","geometry":{"type":"Point","coordinates":[10.840257741556506,49.07995999154249]},"properties":{"id":"172","land-id":"09577","name":"Theilenhofen","population":1142,"area":20.31,"centroid_coordinates":[10.840257741556506,49.07995999154249]}},{"type":"Feature","geometry":{"type":"Point","coordinates":[10.870078058227975,48.9574991495225]},"properties":{"id":"173","land-id":"09577","name":"Treuchtlingen","population":13180,"area":103.37,"centroid_coordinates":[10.870078058227975,48.9574991495225]}},{"type":"Feature","geometry":{"type":"Point","coordinates":[10.987068049633844,49.015424722303784]},"properties":{"id":"177","land-id":"09577","name":"Wei\u00dfenburg i.Bay.","population":18384,"area":97.6,"centroid_coordinates":[10.987068049633844,49.015424722303784]}},{"type":"Feature","geometry":{"type":"Point","coordinates":[10.678305751157032,49.00239008249845]},"properties":{"id":"179","land-id":"09577","name":"Westheim","population":1142,"area":28.31,"centroid_coordinates":[10.678305751157032,49.00239008249845]}}]}