{"type":"FeatureCollection","features":[{"type":"Feature","geometry":{"type":"Point","coordinates":[10.518428988097508,47.82554576498557]},"properties":{"id":"111","land-id":"09777","name":"Aitrang","population":1969,"area":30.77}},{"type":"Feature","geometry":{"type":"Point","coordinates":[10.64169757904031,47.82134170516483]},"properties":{"id":"112","land-id":"09777","name":"Biessenhofen","population":4242,"area":27.02}},{"type":"Feature","geometry":{"type":"Point","coordinates":[10.544095981450681,47.95180912714222]},"properties":{"id":"114","land-id":"09777","name":"Baisweil","population":1362,"area":26.31}},{"type":"Feature","geometry":{"type":"Point","coordinates":[10.719846667269978,47.822046880977524]},"properties":{"id":"118","land-id":"09777","name":"Bidingen","population":1894,"area":36.33}},{"type":"Feature","geometry":{"type":"Point","coordinates":[10.739283602921288,48.028893225932016]},"properties":{"id":"121","land-id":"09777","name":"Buchloe","population":13799,"area":36.1}},{"type":"Feature","geometry":{"type":"Point","coordinates":[10.490779352884047,47.913529634819625]},"properties":{"id":"124","land-id":"09777","name":"Eggenthal","population":1403,"area":28.08}},{"type":"Feature","geometry":{"type":"Point","coordinates":[10.597738618943133,47.61022141914477]},"properties":{"id":"125","land-id":"09777","name":"Eisenberg","population":1114,"area":13.55}},{"type":"Feature","geometry":{"type":"Point","coordinates":[10.527699514904961,47.87222048405817]},"properties":{"id":"128","land-id":"09777","name":"Friesenried","population":1495,"area":22.14}},{"type":"Feature","geometry":{"type":"Point","coordinates":[10.663693222711542,47.58320489549776]},"properties":{"id":"129","land-id":"09777","name":"Füssen","population":15405,"area":43.49}},{"type":"Feature","geometry":{"type":"Point","coordinates":[10.679003034481969,47.94164813413359]},"properties":{"id":"130","land-id":"09777","name":"Germaringen","population":3837,"area":22.86}},{"type":"Feature","geometry":{"type":"Point","coordinates":[10.499057180845352,47.69687108122112]},"properties":{"id":"131","land-id":"09777","name":"Görisried","population":1324,"area":23.28}},{"type":"Feature","geometry":{"type":"Point","coordinates":[10.64412824344095,47.608115410067896]},"properties":{"id":"135","land-id":"09777","name":"Hopferau","population":1252,"area":13.12}},{"type":"Feature","geometry":{"type":"Point","coordinates":[10.437782666034833,47.821017215000744]},"properties":{"id":"138","land-id":"09777","name":"Günzach","population":1349,"area":23.43}},{"type":"Feature","geometry":{"type":"Point","coordinates":[10.56285311272443,47.90715094973924]},"properties":{"id":"139","land-id":"09777","name":"Irsee","population":1553,"area":17.4}},{"type":"Feature","geometry":{"type":"Point","coordinates":[10.701995148193069,47.988897557078126]},"properties":{"id":"140","land-id":"09777","name":"Jengen","population":2609,"area":33.7}},{"type":"Feature","geometry":{"type":"Point","coordinates":[10.756324189893853,47.90720173125652]},"properties":{"id":"141","land-id":"09777","name":"Kaltental","population":1714,"area":22.1}},{"type":"Feature","geometry":{"type":"Point","coordinates":[10.463839262931664,47.76650840924414]},"properties":{"id":"144","land-id":"09777","name":"Kraftisried","population":923,"area":16.23}},{"type":"Feature","geometry":{"type":"Point","coordinates":[10.75043732487764,48.08017581162224]},"properties":{"id":"145","land-id":"09777","name":"Lamerdingen","population":2209,"area":34.32}},{"type":"Feature","geometry":{"type":"Point","coordinates":[10.783546745672245,47.69195447190944]},"properties":{"id":"147","land-id":"09777","name":"Lechbruck am See","population":2701,"area":17.19}},{"type":"Feature","geometry":{"type":"Point","coordinates":[10.598176446921288,47.6964684798885]},"properties":{"id":"149","land-id":"09777","name":"Lengenwang","population":1509,"area":19.63}},{"type":"Feature","geometry":{"type":"Point","coordinates":[10.61917702281873,47.75744584207026]},"properties":{"id":"151","land-id":"09777","name":"Marktoberdorf","population":18621,"area":95.1}},{"type":"Feature","geometry":{"type":"Point","coordinates":[10.67150319789869,47.874126470747356]},"properties":{"id":"152","land-id":"09777","name":"Mauerstetten","population":3207,"area":16.43}},{"type":"Feature","geometry":{"type":"Point","coordinates":[10.504815269847871,47.61983208955278]},"properties":{"id":"153","land-id":"09777","name":"Nesselwang","population":3769,"area":29.47}},{"type":"Feature","geometry":{"type":"Point","coordinates":[10.439183702584598,47.865365186452415]},"properties":{"id":"154","land-id":"09777","name":"Obergünzburg","population":6347,"area":46.66}},{"type":"Feature","geometry":{"type":"Point","coordinates":[10.746543271961825,47.94882346245432]},"properties":{"id":"155","land-id":"09777","name":"Oberostendorf","population":1482,"area":21.05}},{"type":"Feature","geometry":{"type":"Point","coordinates":[10.742693884429736,47.86491152399628]},"properties":{"id":"157","land-id":"09777","name":"Osterzell","population":710,"area":10.79}},{"type":"Feature","geometry":{"type":"Point","coordinates":[10.605124188686256,47.936166638402185]},"properties":{"id":"158","land-id":"09777","name":"Pforzen","population":2415,"area":23.64}},{"type":"Feature","geometry":{"type":"Point","coordinates":[10.532668176307585,47.57061234693753]},"properties":{"id":"159","land-id":"09777","name":"Pfronten","population":7684,"area":62.24}},{"type":"Feature","geometry":{"type":"Point","coordinates":[10.708297018428127,47.624724836591696]},"properties":{"id":"163","land-id":"09777","name":"Rieden am Forggensee","population":1400,"area":13.16}},{"type":"Feature","geometry":{"type":"Point","coordinates":[10.648093647100673,47.953576705889496]},"properties":{"id":"164","land-id":"09777","name":"Rieden","population":1408,"area":8.44}},{"type":"Feature","geometry":{"type":"Point","coordinates":[10.40575301679297,47.900926191196106]},"properties":{"id":"165","land-id":"09777","name":"Ronsberg","population":1663,"area":16.53}},{"type":"Feature","geometry":{"type":"Point","coordinates":[10.706331986057704,47.66266537890737]},"properties":{"id":"166","land-id":"09777","name":"Roßhaupten","population":2245,"area":38.94}},{"type":"Feature","geometry":{"type":"Point","coordinates":[10.580343964901482,47.82257410249716]},"properties":{"id":"167","land-id":"09777","name":"Ruderatshofen","population":1740,"area":33.45}},{"type":"Feature","geometry":{"type":"Point","coordinates":[10.549475859006012,47.66135430795513]},"properties":{"id":"168","land-id":"09777","name":"Rückholz","population":983,"area":17.23}},{"type":"Feature","geometry":{"type":"Point","coordinates":[10.767516224079618,47.56721958739046]},"properties":{"id":"169","land-id":"09777","name":"Schwangau","population":3190,"area":75.98}},{"type":"Feature","geometry":{"type":"Point","coordinates":[10.615968270694951,47.65465840544462]},"properties":{"id":"170","land-id":"09777","name":"Seeg","population":3060,"area":49.96}},{"type":"Feature","geometry":{"type":"Point","coordinates":[10.701091526311355,47.72972712125486]},"properties":{"id":"171","land-id":"09777","name":"Stötten a.Auerberg","population":1988,"area":40.7}},{"type":"Feature","geometry":{"type":"Point","coordinates":[10.707908508700696,47.87999388950903]},"properties":{"id":"172","land-id":"09777","name":"Stöttwang","population":1906,"area":19.87}},{"type":"Feature","geometry":{"type":"Point","coordinates":[10.847330990337825,47.61124549843063]},"properties":{"id":"173","land-id":"09777","name":"Halblech","population":3366,"area":125.2}},{"type":"Feature","geometry":{"type":"Point","coordinates":[10.501228432633035,47.76367553023057]},"properties":{"id":"175","land-id":"09777","name":"Unterthingau","population":2818,"area":45.31}},{"type":"Feature","geometry":{"type":"Point","coordinates":[10.367270601438998,47.84554872795312]},"properties":{"id":"176","land-id":"09777","name":"Untrasried","population":1678,"area":25.74}},{"type":"Feature","geometry":{"type":"Point","coordinates":[10.787572773205786,47.98861271725739]},"properties":{"id":"177","land-id":"09777","name":"Waal","population":2363,"area":27.96}},{"type":"Feature","geometry":{"type":"Point","coordinates":[10.552896367801596,47.706712171447435]},"properties":{"id":"179","land-id":"09777","name":"Wald","population":1140,"area":17.85}},{"type":"Feature","geometry":{"type":"Point","coordinates":[10.707478981418415,47.92463650379442]},"properties":{"id":"182","land-id":"09777","name":"Westendorf","population":1948,"area":11.9}},{"type":"Feature","geometry":{"type":"Point","coordinates":[10.744806616125768,47.77795034910668]},"properties":{"id":"183","land-id":"09777","name":"Rettenbach a.Auerberg","population":909,"area":12.92}}]}