{"type":"FeatureCollection","features":[{"type":"Feature","geometry":{"type":"Point","coordinates":[10.63675984784408,48.84593420403426]},"properties":{"id":"111","land-id":"09779","name":"Alerheim","population":1696,"area":23.42}},{"type":"Feature","geometry":{"type":"Point","coordinates":[10.495693011778993,48.73559299803499]},"properties":{"id":"112","land-id":"09779","name":"Amerdingen","population":876,"area":19.03}},{"type":"Feature","geometry":{"type":"Point","coordinates":[10.822593523794735,48.68762283962137]},"properties":{"id":"115","land-id":"09779","name":"Asbach-Bäumenheim","population":4718,"area":11.88}},{"type":"Feature","geometry":{"type":"Point","coordinates":[10.616700225448316,48.99778068411488]},"properties":{"id":"117","land-id":"09779","name":"Auhausen","population":1010,"area":15.63}},{"type":"Feature","geometry":{"type":"Point","coordinates":[10.84176869812632,48.78344429677329]},"properties":{"id":"126","land-id":"09779","name":"Buchdorf","population":2003,"area":16.69}},{"type":"Feature","geometry":{"type":"Point","coordinates":[10.894530286154732,48.79320384650131]},"properties":{"id":"129","land-id":"09779","name":"Daiting","population":796,"area":25.48}},{"type":"Feature","geometry":{"type":"Point","coordinates":[10.571610280830201,48.86498444319012]},"properties":{"id":"130","land-id":"09779","name":"Deiningen","population":1830,"area":15.3}},{"type":"Feature","geometry":{"type":"Point","coordinates":[10.77221728609737,48.72390521768592]},"properties":{"id":"131","land-id":"09779","name":"Donauwörth","population":19939,"area":77.05}},{"type":"Feature","geometry":{"type":"Point","coordinates":[10.464327136231567,48.7959136029614]},"properties":{"id":"136","land-id":"09779","name":"Ederheim","population":1097,"area":16.57}},{"type":"Feature","geometry":{"type":"Point","coordinates":[10.544006513429956,48.95963407130668]},"properties":{"id":"138","land-id":"09779","name":"Ehingen a.Ries","population":751,"area":15.6}},{"type":"Feature","geometry":{"type":"Point","coordinates":[10.45482142054563,48.75721793202029]},"properties":{"id":"146","land-id":"09779","name":"Forheim","population":525,"area":23.25}},{"type":"Feature","geometry":{"type":"Point","coordinates":[10.474288612248218,48.97807489889376]},"properties":{"id":"147","land-id":"09779","name":"Fremdingen","population":2056,"area":50.02}},{"type":"Feature","geometry":{"type":"Point","coordinates":[10.77123051946529,48.83847715707696]},"properties":{"id":"148","land-id":"09779","name":"Fünfstetten","population":1343,"area":26.69}},{"type":"Feature","geometry":{"type":"Point","coordinates":[10.868687472180259,48.70944838205585]},"properties":{"id":"149","land-id":"09779","name":"Genderkingen","population":1195,"area":11.64}},{"type":"Feature","geometry":{"type":"Point","coordinates":[10.643478613604042,48.959903902946]},"properties":{"id":"154","land-id":"09779","name":"Hainsfarth","population":1425,"area":17.56}},{"type":"Feature","geometry":{"type":"Point","coordinates":[10.688457012063857,48.782083050206055]},"properties":{"id":"155","land-id":"09779","name":"Harburg (Schwaben)","population":5546,"area":73.17}},{"type":"Feature","geometry":{"type":"Point","coordinates":[10.521989111873262,48.77862737996378]},"properties":{"id":"162","land-id":"09779","name":"Hohenaltheim","population":552,"area":17.79}},{"type":"Feature","geometry":{"type":"Point","coordinates":[10.953354909544954,48.61698630651721]},"properties":{"id":"163","land-id":"09779","name":"Holzheim","population":1137,"area":20.25}},{"type":"Feature","geometry":{"type":"Point","coordinates":[10.70757442796179,48.83287055826809]},"properties":{"id":"167","land-id":"09779","name":"Huisheim","population":1618,"area":22.78}},{"type":"Feature","geometry":{"type":"Point","coordinates":[10.808311145139243,48.77016773953267]},"properties":{"id":"169","land-id":"09779","name":"Kaisheim","population":3944,"area":41.69}},{"type":"Feature","geometry":{"type":"Point","coordinates":[10.508776411772061,48.926872622060216]},"properties":{"id":"176","land-id":"09779","name":"Maihingen","population":1254,"area":14.2}},{"type":"Feature","geometry":{"type":"Point","coordinates":[10.467297827118026,48.92885103783926]},"properties":{"id":"177","land-id":"09779","name":"Marktoffingen","population":1289,"area":13.59}},{"type":"Feature","geometry":{"type":"Point","coordinates":[10.945670874849025,48.76059538363258]},"properties":{"id":"178","land-id":"09779","name":"Marxheim","population":2600,"area":46.54}},{"type":"Feature","geometry":{"type":"Point","coordinates":[10.664278774181808,48.937793480881766]},"properties":{"id":"180","land-id":"09779","name":"Megesheim","population":812,"area":12.51}},{"type":"Feature","geometry":{"type":"Point","coordinates":[10.791819210195845,48.6515095560381]},"properties":{"id":"181","land-id":"09779","name":"Mertingen","population":3891,"area":38.4}},{"type":"Feature","geometry":{"type":"Point","coordinates":[10.59570650045476,48.76469450733706]},"properties":{"id":"184","land-id":"09779","name":"Mönchsdeggingen","population":1444,"area":32.03}},{"type":"Feature","geometry":{"type":"Point","coordinates":[10.587490839922,48.80974346547371]},"properties":{"id":"185","land-id":"09779","name":"Möttingen","population":2687,"area":31.82}},{"type":"Feature","geometry":{"type":"Point","coordinates":[10.863078071913977,48.847845451670565]},"properties":{"id":"186","land-id":"09779","name":"Monheim","population":5474,"area":69.23}},{"type":"Feature","geometry":{"type":"Point","coordinates":[10.905836616529738,48.61939085764013]},"properties":{"id":"187","land-id":"09779","name":"Münster","population":1289,"area":17.7}},{"type":"Feature","geometry":{"type":"Point","coordinates":[10.631309109755271,48.91503499824054]},"properties":{"id":"188","land-id":"09779","name":"Munningen","population":1714,"area":22.71}},{"type":"Feature","geometry":{"type":"Point","coordinates":[10.92074928589725,48.72221134307654]},"properties":{"id":"192","land-id":"09779","name":"Niederschönenfeld","population":1413,"area":14.35}},{"type":"Feature","geometry":{"type":"Point","coordinates":[10.511163122439205,48.85745346193783]},"properties":{"id":"194","land-id":"09779","name":"Nördlingen","population":20408,"area":68.03}},{"type":"Feature","geometry":{"type":"Point","coordinates":[10.860737062586193,48.667479834753635]},"properties":{"id":"196","land-id":"09779","name":"Oberndorf a.Lech","population":2649,"area":19.33}},{"type":"Feature","geometry":{"type":"Point","coordinates":[10.578999295199795,48.956832637728034]},"properties":{"id":"197","land-id":"09779","name":"Oettingen i.Bay.","population":5057,"area":34.24}},{"type":"Feature","geometry":{"type":"Point","coordinates":[10.799908506050468,48.87599878062285]},"properties":{"id":"198","land-id":"09779","name":"Otting","population":799,"area":13.36}},{"type":"Feature","geometry":{"type":"Point","coordinates":[10.952054455640072,48.668803392413324]},"properties":{"id":"201","land-id":"09779","name":"Rain","population":9143,"area":77.13}},{"type":"Feature","geometry":{"type":"Point","coordinates":[10.52228111797138,48.82853963354454]},"properties":{"id":"203","land-id":"09779","name":"Reimlingen","population":1353,"area":9.49}},{"type":"Feature","geometry":{"type":"Point","coordinates":[10.947763570857857,48.846775957571225]},"properties":{"id":"206","land-id":"09779","name":"Rögling","population":623,"area":10.69}},{"type":"Feature","geometry":{"type":"Point","coordinates":[10.963917710568014,48.82280236031389]},"properties":{"id":"217","land-id":"09779","name":"Tagmersheim","population":1059,"area":16.0}},{"type":"Feature","geometry":{"type":"Point","coordinates":[10.689533426999075,48.68452503305141]},"properties":{"id":"218","land-id":"09779","name":"Tapfheim","population":4207,"area":44.34}},{"type":"Feature","geometry":{"type":"Point","coordinates":[10.474385459674847,48.890859999995484]},"properties":{"id":"224","land-id":"09779","name":"Wallerstein","population":3377,"area":19.45}},{"type":"Feature","geometry":{"type":"Point","coordinates":[10.621632992346589,48.88387544784261]},"properties":{"id":"226","land-id":"09779","name":"Wechingen","population":1401,"area":24.01}},{"type":"Feature","geometry":{"type":"Point","coordinates":[10.709126057906436,48.87799183267976]},"properties":{"id":"228","land-id":"09779","name":"Wemding","population":5779,"area":31.62}},{"type":"Feature","geometry":{"type":"Point","coordinates":[10.779892521597063,48.91148626036972]},"properties":{"id":"231","land-id":"09779","name":"Wolferstadt","population":1093,"area":30.61}}]}