{"type":"FeatureCollection","features":[{"type":"Feature","geometry":{"type":"Point","coordinates":[9.676149878496393,47.57442539049521]},"properties":{"id":"116","land-id":"09776","name":"Lindau (Bodensee)","population":25898,"area":0.02,"centroid_coordinates":[9.676149878496393,47.57442539049521]}},{"type":"Feature","geometry":{"type":"Point","coordinates":[9.606620221935524,47.58429987455615]},"properties":{"id":"120","land-id":"09776","name":"Nonnenhorn","population":1758,"area":0.01,"centroid_coordinates":[9.606620221935524,47.58429987455615]}},{"type":"Feature","geometry":{"type":"Point","coordinates":[9.638753313742033,47.571892253910136]},"properties":{"id":"128","land-id":"09776","name":"Wasserburg (Bodensee)","population":3832,"area":0.0,"centroid_coordinates":[9.638753313742033,47.571892253910136]}},{"type":"Feature","geometry":{"type":"Point","coordinates":[9.724556803007319,47.594265799746424]},"properties":{"id":"130","land-id":"09776","name":"Wei\u00dfensberg","population":2734,"area":0.46,"centroid_coordinates":[9.724556803007319,47.594265799746424]}}]}