{"type":"FeatureCollection","features":[{"type":"Feature","geometry":{"type":"Point","coordinates":[10.400699131540017,48.19871084225844]},"properties":{"id":"111","land-id":"09774","name":"Aletshausen","population":1216,"area":17.66}},{"type":"Feature","geometry":{"type":"Point","coordinates":[10.489556522620015,48.2352717027363]},"properties":{"id":"115","land-id":"09774","name":"Balzhausen","population":1236,"area":14.58}},{"type":"Feature","geometry":{"type":"Point","coordinates":[10.442643841859166,48.24690142908443]},"properties":{"id":"116","land-id":"09774","name":"Ursberg","population":3236,"area":25.37}},{"type":"Feature","geometry":{"type":"Point","coordinates":[10.303993365682217,48.23845458240741]},"properties":{"id":"117","land-id":"09774","name":"Breitenthal","population":1254,"area":13.36}},{"type":"Feature","geometry":{"type":"Point","coordinates":[10.24864636753045,48.425392703240355]},"properties":{"id":"118","land-id":"09774","name":"Bubesheim","population":1651,"area":6.92}},{"type":"Feature","geometry":{"type":"Point","coordinates":[10.201553315228766,48.3985243461117]},"properties":{"id":"119","land-id":"09774","name":"Bibertal","population":4886,"area":27.28}},{"type":"Feature","geometry":{"type":"Point","coordinates":[10.383156537664537,48.42886112024041]},"properties":{"id":"121","land-id":"09774","name":"Burgau","population":10630,"area":26.0}},{"type":"Feature","geometry":{"type":"Point","coordinates":[10.45971013781429,48.346883925681404]},"properties":{"id":"122","land-id":"09774","name":"Burtenbach","population":3579,"area":37.58}},{"type":"Feature","geometry":{"type":"Point","coordinates":[10.326690162336002,48.26380294730405]},"properties":{"id":"124","land-id":"09774","name":"Deisenhausen","population":1414,"area":11.68}},{"type":"Feature","geometry":{"type":"Point","coordinates":[10.427236775968442,48.467211525962966]},"properties":{"id":"127","land-id":"09774","name":"Dürrlauingen","population":1528,"area":12.24}},{"type":"Feature","geometry":{"type":"Point","coordinates":[10.31115706807775,48.20706009095822]},"properties":{"id":"129","land-id":"09774","name":"Ebershausen","population":630,"area":9.1}},{"type":"Feature","geometry":{"type":"Point","coordinates":[10.30486441728201,48.32771852400822]},"properties":{"id":"133","land-id":"09774","name":"Ellzee","population":1229,"area":14.76}},{"type":"Feature","geometry":{"type":"Point","coordinates":[10.280222344895986,48.466174811985894]},"properties":{"id":"135","land-id":"09774","name":"Günzburg","population":21708,"area":55.41}},{"type":"Feature","geometry":{"type":"Point","coordinates":[10.408193024025827,48.50103996907448]},"properties":{"id":"136","land-id":"09774","name":"Gundremmingen","population":1378,"area":10.86}},{"type":"Feature","geometry":{"type":"Point","coordinates":[10.45751662316954,48.44784295910793]},"properties":{"id":"140","land-id":"09774","name":"Haldenwang","population":2139,"area":18.0}},{"type":"Feature","geometry":{"type":"Point","coordinates":[10.282090459383582,48.3753726853677]},"properties":{"id":"143","land-id":"09774","name":"Ichenhausen","population":9229,"area":34.28}},{"type":"Feature","geometry":{"type":"Point","coordinates":[10.462379703887024,48.39160442422812]},"properties":{"id":"144","land-id":"09774","name":"Jettingen-Scheppach","population":7008,"area":54.1}},{"type":"Feature","geometry":{"type":"Point","coordinates":[10.36748082069907,48.37336349048619]},"properties":{"id":"145","land-id":"09774","name":"Kammeltal","population":3346,"area":41.6}},{"type":"Feature","geometry":{"type":"Point","coordinates":[10.285955444670712,48.40688055229898]},"properties":{"id":"148","land-id":"09774","name":"Kötz","population":3349,"area":20.56}},{"type":"Feature","geometry":{"type":"Point","coordinates":[10.379188634764198,48.244861498892774]},"properties":{"id":"150","land-id":"09774","name":"Krumbach (Schwaben)","population":14185,"area":44.61}},{"type":"Feature","geometry":{"type":"Point","coordinates":[10.516261916716083,48.434624213649364]},"properties":{"id":"151","land-id":"09774","name":"Landensberg","population":636,"area":7.9}},{"type":"Feature","geometry":{"type":"Point","coordinates":[10.20442300630248,48.45158897971062]},"properties":{"id":"155","land-id":"09774","name":"Leipheim","population":7498,"area":32.98}},{"type":"Feature","geometry":{"type":"Point","coordinates":[10.455381078556284,48.31356862836925]},"properties":{"id":"160","land-id":"09774","name":"Münsterhausen","population":2011,"area":18.5}},{"type":"Feature","geometry":{"type":"Point","coordinates":[10.376630438689864,48.30405112094163]},"properties":{"id":"162","land-id":"09774","name":"Neuburg a.d.Kammel","population":3283,"area":37.86}},{"type":"Feature","geometry":{"type":"Point","coordinates":[10.539802638523003,48.23267778009975]},"properties":{"id":"166","land-id":"09774","name":"Aichen","population":1175,"area":17.7}},{"type":"Feature","geometry":{"type":"Point","coordinates":[10.36417406076973,48.47863291551093]},"properties":{"id":"171","land-id":"09774","name":"Offingen","population":4400,"area":14.95}},{"type":"Feature","geometry":{"type":"Point","coordinates":[10.357804183451874,48.45550039231311]},"properties":{"id":"174","land-id":"09774","name":"Rettenbach","population":1710,"area":12.69}},{"type":"Feature","geometry":{"type":"Point","coordinates":[10.459404672736154,48.426343401330556]},"properties":{"id":"178","land-id":"09774","name":"Röfingen","population":1189,"area":6.67}},{"type":"Feature","geometry":{"type":"Point","coordinates":[10.478789159264812,48.2774379557456]},"properties":{"id":"185","land-id":"09774","name":"Thannhausen","population":6413,"area":20.07}},{"type":"Feature","geometry":{"type":"Point","coordinates":[10.3103883275376,48.29291664517587]},"properties":{"id":"189","land-id":"09774","name":"Wiesenbach","population":1034,"area":11.49}},{"type":"Feature","geometry":{"type":"Point","coordinates":[10.290089597875514,48.349238845349305]},"properties":{"id":"191","land-id":"09774","name":"Waldstetten","population":1269,"area":11.12}},{"type":"Feature","geometry":{"type":"Point","coordinates":[10.349929435179167,48.18625170669361]},"properties":{"id":"192","land-id":"09774","name":"Waltenhausen","population":737,"area":13.38}},{"type":"Feature","geometry":{"type":"Point","coordinates":[10.498854907861778,48.46595702605354]},"properties":{"id":"196","land-id":"09774","name":"Winterbach","population":781,"area":14.84}},{"type":"Feature","geometry":{"type":"Point","coordinates":[10.54621462644234,48.28493175430006]},"properties":{"id":"198","land-id":"09774","name":"Ziemetshausen","population":3187,"area":42.86}}]}