{"type":"FeatureCollection","features":[{"type":"Feature","geometry":{"type":"Point","coordinates":[10.718321007631843,48.42545465951296]},"properties":{"id":"111","land-id":"09772","name":"Adelsried","population":2604,"area":9.66,"centroid_coordinates":[10.718321007631843,48.42545465951296]}},{"type":"Feature","geometry":{"type":"Point","coordinates":[10.815443754410017,48.61511756913372]},"properties":{"id":"114","land-id":"09772","name":"Allmannshofen","population":978,"area":10.33,"centroid_coordinates":[10.815443754410017,48.61511756913372]}},{"type":"Feature","geometry":{"type":"Point","coordinates":[10.583207323165112,48.462360244502754]},"properties":{"id":"115","land-id":"09772","name":"Altenm\u00fcnster","population":4723,"area":41.09,"centroid_coordinates":[10.583207323165112,48.462360244502754]}},{"type":"Feature","geometry":{"type":"Point","coordinates":[10.766592887632715,48.40718571495932]},"properties":{"id":"117","land-id":"09772","name":"Aystetten","population":3066,"area":9.2,"centroid_coordinates":[10.766592887632715,48.40718571495932]}},{"type":"Feature","geometry":{"type":"Point","coordinates":[10.785836431767086,48.50895141215246]},"properties":{"id":"121","land-id":"09772","name":"Biberbach","population":3560,"area":36.86,"centroid_coordinates":[10.785836431767086,48.50895141215246]}},{"type":"Feature","geometry":{"type":"Point","coordinates":[10.789455686215089,48.27301503259244]},"properties":{"id":"125","land-id":"09772","name":"Bobingen","population":17857,"area":50.16,"centroid_coordinates":[10.789455686215089,48.27301503259244]}},{"type":"Feature","geometry":{"type":"Point","coordinates":[10.71180189805375,48.44255770276342]},"properties":{"id":"126","land-id":"09772","name":"Bonstetten","population":1602,"area":6.8,"centroid_coordinates":[10.71180189805375,48.44255770276342]}},{"type":"Feature","geometry":{"type":"Point","coordinates":[10.763232494215424,48.3519328253074]},"properties":{"id":"130","land-id":"09772","name":"Diedorf","population":10729,"area":33.31,"centroid_coordinates":[10.763232494215424,48.3519328253074]}},{"type":"Feature","geometry":{"type":"Point","coordinates":[10.585498612992941,48.34141510643617]},"properties":{"id":"131","land-id":"09772","name":"Dinkelscherben","population":6750,"area":67.74,"centroid_coordinates":[10.585498612992941,48.34141510643617]}},{"type":"Feature","geometry":{"type":"Point","coordinates":[10.792301356728398,48.590347811946145]},"properties":{"id":"134","land-id":"09772","name":"Ehingen","population":1151,"area":9.65,"centroid_coordinates":[10.792301356728398,48.590347811946145]}},{"type":"Feature","geometry":{"type":"Point","coordinates":[10.864154943787153,48.61373783137503]},"properties":{"id":"136","land-id":"09772","name":"Ellgau","population":1182,"area":13.91,"centroid_coordinates":[10.864154943787153,48.61373783137503]}},{"type":"Feature","geometry":{"type":"Point","coordinates":[10.674620159251814,48.481663952406045]},"properties":{"id":"137","land-id":"09772","name":"Emersacker","population":1502,"area":11.64,"centroid_coordinates":[10.674620159251814,48.481663952406045]}},{"type":"Feature","geometry":{"type":"Point","coordinates":[10.650926335448782,48.283263108050235]},"properties":{"id":"141","land-id":"09772","name":"Fischach","population":5010,"area":30.14,"centroid_coordinates":[10.650926335448782,48.283263108050235]}},{"type":"Feature","geometry":{"type":"Point","coordinates":[10.813201785102608,48.456652280584414]},"properties":{"id":"145","land-id":"09772","name":"Gablingen","population":4815,"area":26.66,"centroid_coordinates":[10.813201785102608,48.456652280584414]}},{"type":"Feature","geometry":{"type":"Point","coordinates":[10.822706737803612,48.4297865483868]},"properties":{"id":"147","land-id":"09772","name":"Gersthofen","population":23393,"area":34.03,"centroid_coordinates":[10.822706737803612,48.4297865483868]}},{"type":"Feature","geometry":{"type":"Point","coordinates":[10.714619164943874,48.30342344356177]},"properties":{"id":"148","land-id":"09772","name":"Gessertshausen","population":4442,"area":41.36,"centroid_coordinates":[10.714619164943874,48.30342344356177]}},{"type":"Feature","geometry":{"type":"Point","coordinates":[10.835466069217937,48.191352367859444]},"properties":{"id":"149","land-id":"09772","name":"Graben","population":4022,"area":14.5,"centroid_coordinates":[10.835466069217937,48.191352367859444]}},{"type":"Feature","geometry":{"type":"Point","coordinates":[10.746831464057298,48.23133485822419]},"properties":{"id":"151","land-id":"09772","name":"Gro\u00dfaitingen","population":5286,"area":39.15,"centroid_coordinates":[10.746831464057298,48.23133485822419]}},{"type":"Feature","geometry":{"type":"Point","coordinates":[10.726951979171984,48.46251388914752]},"properties":{"id":"156","land-id":"09772","name":"Heretsried","population":1037,"area":17.29,"centroid_coordinates":[10.726951979171984,48.46251388914752]}},{"type":"Feature","geometry":{"type":"Point","coordinates":[10.713609635842705,48.153789112617574]},"properties":{"id":"157","land-id":"09772","name":"Hiltenfingen","population":1626,"area":14.54,"centroid_coordinates":[10.713609635842705,48.153789112617574]}},{"type":"Feature","geometry":{"type":"Point","coordinates":[10.68553682357559,48.39731758726119]},"properties":{"id":"159","land-id":"09772","name":"Horgau","population":2952,"area":26.44,"centroid_coordinates":[10.68553682357559,48.39731758726119]}},{"type":"Feature","geometry":{"type":"Point","coordinates":[10.860838886703865,48.21137998532912]},"properties":{"id":"160","land-id":"09772","name":"Kleinaitingen","population":1333,"area":15.6,"centroid_coordinates":[10.860838886703865,48.21137998532912]}},{"type":"Feature","geometry":{"type":"Point","coordinates":[10.836330045941565,48.15457945444512]},"properties":{"id":"162","land-id":"09772","name":"Klosterlechfeld","population":2980,"area":2.39,"centroid_coordinates":[10.836330045941565,48.15457945444512]}},{"type":"Feature","geometry":{"type":"Point","coordinates":[10.885399111994332,48.260815525178145]},"properties":{"id":"163","land-id":"09772","name":"K\u00f6nigsbrunn","population":27939,"area":18.5,"centroid_coordinates":[10.885399111994332,48.260815525178145]}},{"type":"Feature","geometry":{"type":"Point","coordinates":[10.801585524579606,48.56832837946982]},"properties":{"id":"166","land-id":"09772","name":"K\u00fchlenthal","population":861,"area":7.11,"centroid_coordinates":[10.801585524579606,48.56832837946982]}},{"type":"Feature","geometry":{"type":"Point","coordinates":[10.692465081570518,48.355935142293255]},"properties":{"id":"167","land-id":"09772","name":"Kutzenhausen","population":2692,"area":27.88,"centroid_coordinates":[10.692465081570518,48.355935142293255]}},{"type":"Feature","geometry":{"type":"Point","coordinates":[10.602998339856622,48.259897084089275]},"properties":{"id":"168","land-id":"09772","name":"Langenneufnach","population":1901,"area":12.84,"centroid_coordinates":[10.602998339856622,48.259897084089275]}},{"type":"Feature","geometry":{"type":"Point","coordinates":[10.748606675741419,48.125954347256936]},"properties":{"id":"170","land-id":"09772","name":"Langerringen","population":4180,"area":42.02,"centroid_coordinates":[10.748606675741419,48.125954347256936]}},{"type":"Feature","geometry":{"type":"Point","coordinates":[10.837041621685007,48.48291911406232]},"properties":{"id":"171","land-id":"09772","name":"Langweid a.Lech","population":8780,"area":23.52,"centroid_coordinates":[10.837041621685007,48.48291911406232]}},{"type":"Feature","geometry":{"type":"Point","coordinates":[10.833588721118755,48.54478603838488]},"properties":{"id":"177","land-id":"09772","name":"Meitingen","population":12249,"area":29.78,"centroid_coordinates":[10.833588721118755,48.54478603838488]}},{"type":"Feature","geometry":{"type":"Point","coordinates":[10.630330174841667,48.226000684988044]},"properties":{"id":"178","land-id":"09772","name":"Mickhausen","population":1384,"area":15.91,"centroid_coordinates":[10.630330174841667,48.226000684988044]}},{"type":"Feature","geometry":{"type":"Point","coordinates":[10.596775737379572,48.18155947515335]},"properties":{"id":"179","land-id":"09772","name":"Mittelneufnach","population":1065,"area":16.82,"centroid_coordinates":[10.596775737379572,48.18155947515335]}},{"type":"Feature","geometry":{"type":"Point","coordinates":[10.80972488445425,48.39341092140599]},"properties":{"id":"184","land-id":"09772","name":"Neus\u00e4\u00df","population":22670,"area":25.2,"centroid_coordinates":[10.80972488445425,48.39341092140599]}},{"type":"Feature","geometry":{"type":"Point","coordinates":[10.8399748584554,48.56954483815993]},"properties":{"id":"185","land-id":"09772","name":"Nordendorf","population":2602,"area":6.3,"centroid_coordinates":[10.8399748584554,48.56954483815993]}},{"type":"Feature","geometry":{"type":"Point","coordinates":[10.869073552372571,48.231327233532696]},"properties":{"id":"186","land-id":"09772","name":"Oberottmarshausen","population":1774,"area":8.66,"centroid_coordinates":[10.869073552372571,48.231327233532696]}},{"type":"Feature","geometry":{"type":"Point","coordinates":[10.64551792245464,48.19048628738722]},"properties":{"id":"197","land-id":"09772","name":"Scherstetten","population":1095,"area":15.7,"centroid_coordinates":[10.64551792245464,48.19048628738722]}},{"type":"Feature","geometry":{"type":"Point","coordinates":[10.728179264072512,48.19559888792892]},"properties":{"id":"200","land-id":"09772","name":"Schwabm\u00fcnchen","population":15213,"area":55.55,"centroid_coordinates":[10.728179264072512,48.19559888792892]}},{"type":"Feature","geometry":{"type":"Point","coordinates":[10.83105458501747,48.35953757200293]},"properties":{"id":"202","land-id":"09772","name":"Stadtbergen","population":15625,"area":11.47,"centroid_coordinates":[10.83105458501747,48.35953757200293]}},{"type":"Feature","geometry":{"type":"Point","coordinates":[10.915398902755326,48.561976699476304]},"properties":{"id":"207","land-id":"09772","name":"Thierhaupten","population":4086,"area":39.28,"centroid_coordinates":[10.915398902755326,48.561976699476304]}},{"type":"Feature","geometry":{"type":"Point","coordinates":[10.824293315215684,48.16712041300199]},"properties":{"id":"209","land-id":"09772","name":"Untermeitingen","population":7907,"area":16.07,"centroid_coordinates":[10.824293315215684,48.16712041300199]}},{"type":"Feature","geometry":{"type":"Point","coordinates":[10.63991464336378,48.32242994190405]},"properties":{"id":"211","land-id":"09772","name":"Ustersbach","population":1245,"area":11.08,"centroid_coordinates":[10.63991464336378,48.32242994190405]}},{"type":"Feature","geometry":{"type":"Point","coordinates":[10.587293725692627,48.228864700518905]},"properties":{"id":"214","land-id":"09772","name":"Walkertshofen","population":1172,"area":12.66,"centroid_coordinates":[10.587293725692627,48.228864700518905]}},{"type":"Feature","geometry":{"type":"Point","coordinates":[10.804107883597652,48.249009580649115]},"properties":{"id":"215","land-id":"09772","name":"Wehringen","population":3136,"area":14.07,"centroid_coordinates":[10.804107883597652,48.249009580649115]}},{"type":"Feature","geometry":{"type":"Point","coordinates":[10.653504025272092,48.453835114407525]},"properties":{"id":"216","land-id":"09772","name":"Welden","population":3814,"area":17.96,"centroid_coordinates":[10.653504025272092,48.453835114407525]}},{"type":"Feature","geometry":{"type":"Point","coordinates":[10.8399748584554,48.56954483815993]},"properties":{"id":"217","land-id":"09772","name":"Westendorf","population":1706,"area":6.3,"centroid_coordinates":[10.8399748584554,48.56954483815993]}},{"type":"Feature","geometry":{"type":"Point","coordinates":[10.596340687266222,48.406100203642424]},"properties":{"id":"223","land-id":"09772","name":"Zusmarshausen","population":6642,"area":68.62,"centroid_coordinates":[10.596340687266222,48.406100203642424]}}]}