{"type":"FeatureCollection","features":[{"type":"Feature","geometry":{"type":"Point","coordinates":[11.128243261544524,48.35662939400296]},"properties":{"id":"111","land-id":"09771","name":"Adelzhausen","population":1838,"area":16.92,"centroid_coordinates":[11.128243261544524,48.35662939400296]}},{"type":"Feature","geometry":{"type":"Point","coordinates":[10.963719480098897,48.44906396097372]},"properties":{"id":"112","land-id":"09771","name":"Affing","population":5571,"area":44.8,"centroid_coordinates":[10.963719480098897,48.44906396097372]}},{"type":"Feature","geometry":{"type":"Point","coordinates":[11.1236376067936,48.445411097941495]},"properties":{"id":"113","land-id":"09771","name":"Aichach","population":21881,"area":92.78,"centroid_coordinates":[11.1236376067936,48.445411097941495]}},{"type":"Feature","geometry":{"type":"Point","coordinates":[10.980815660176026,48.50742785141341]},"properties":{"id":"114","land-id":"09771","name":"Aindling","population":4655,"area":31.34,"centroid_coordinates":[10.980815660176026,48.50742785141341]}},{"type":"Feature","geometry":{"type":"Point","coordinates":[11.06679534991313,48.3872203341349]},"properties":{"id":"122","land-id":"09771","name":"Dasing","population":5751,"area":40.84,"centroid_coordinates":[11.06679534991313,48.3872203341349]}},{"type":"Feature","geometry":{"type":"Point","coordinates":[11.109236626848057,48.331758018662136]},"properties":{"id":"129","land-id":"09771","name":"Eurasburg","population":1852,"area":23.9,"centroid_coordinates":[11.109236626848057,48.331758018662136]}},{"type":"Feature","geometry":{"type":"Point","coordinates":[11.00345846595015,48.36228353784175]},"properties":{"id":"130","land-id":"09771","name":"Friedberg","population":29930,"area":81.23,"centroid_coordinates":[11.00345846595015,48.36228353784175]}},{"type":"Feature","geometry":{"type":"Point","coordinates":[11.061006270028553,48.48668513286071]},"properties":{"id":"140","land-id":"09771","name":"Hollenbach","population":2485,"area":26.14,"centroid_coordinates":[11.061006270028553,48.48668513286071]}},{"type":"Feature","geometry":{"type":"Point","coordinates":[11.102783832911937,48.5230912058647]},"properties":{"id":"141","land-id":"09771","name":"Inchenhofen","population":2722,"area":27.51,"centroid_coordinates":[11.102783832911937,48.5230912058647]}},{"type":"Feature","geometry":{"type":"Point","coordinates":[10.980946919720191,48.30453117896912]},"properties":{"id":"142","land-id":"09771","name":"Kissing","population":11737,"area":23.08,"centroid_coordinates":[10.980946919720191,48.30453117896912]}},{"type":"Feature","geometry":{"type":"Point","coordinates":[11.180977932334846,48.505936792685674]},"properties":{"id":"144","land-id":"09771","name":"K\u00fchbach","population":4200,"area":37.51,"centroid_coordinates":[11.180977932334846,48.505936792685674]}},{"type":"Feature","geometry":{"type":"Point","coordinates":[10.982875839330259,48.244030431726486]},"properties":{"id":"145","land-id":"09771","name":"Merching","population":3250,"area":24.8,"centroid_coordinates":[10.982875839330259,48.244030431726486]}},{"type":"Feature","geometry":{"type":"Point","coordinates":[11.002878844300616,48.26659213680504]},"properties":{"id":"146","land-id":"09771","name":"Mering","population":15194,"area":26.77,"centroid_coordinates":[11.002878844300616,48.26659213680504]}},{"type":"Feature","geometry":{"type":"Point","coordinates":[11.047327590554005,48.42436085207048]},"properties":{"id":"149","land-id":"09771","name":"Obergriesbach","population":1995,"area":10.31,"centroid_coordinates":[11.047327590554005,48.42436085207048]}},{"type":"Feature","geometry":{"type":"Point","coordinates":[11.016405206223329,48.52368480635957]},"properties":{"id":"155","land-id":"09771","name":"Petersdorf","population":1746,"area":19.57,"centroid_coordinates":[11.016405206223329,48.52368480635957]}},{"type":"Feature","geometry":{"type":"Point","coordinates":[11.06776834515865,48.57300778196782]},"properties":{"id":"156","land-id":"09771","name":"P\u00f6ttmes","population":7005,"area":82.66,"centroid_coordinates":[11.06776834515865,48.57300778196782]}},{"type":"Feature","geometry":{"type":"Point","coordinates":[10.917441464150892,48.484571354589065]},"properties":{"id":"158","land-id":"09771","name":"Rehling","population":2639,"area":26.28,"centroid_coordinates":[10.917441464150892,48.484571354589065]}},{"type":"Feature","geometry":{"type":"Point","coordinates":[11.074399168312828,48.28982635036624]},"properties":{"id":"160","land-id":"09771","name":"Ried","population":3225,"area":29.22,"centroid_coordinates":[11.074399168312828,48.28982635036624]}},{"type":"Feature","geometry":{"type":"Point","coordinates":[11.244316500504505,48.45586973865387]},"properties":{"id":"162","land-id":"09771","name":"Schiltberg","population":1941,"area":29.79,"centroid_coordinates":[11.244316500504505,48.45586973865387]}},{"type":"Feature","geometry":{"type":"Point","coordinates":[10.946712083605508,48.2271267705155]},"properties":{"id":"163","land-id":"09771","name":"Schmiechen","population":1362,"area":13.55,"centroid_coordinates":[10.946712083605508,48.2271267705155]}},{"type":"Feature","geometry":{"type":"Point","coordinates":[11.163452616337137,48.39122108138838]},"properties":{"id":"165","land-id":"09771","name":"Sielenbach","population":1860,"area":17.86,"centroid_coordinates":[11.163452616337137,48.39122108138838]}},{"type":"Feature","geometry":{"type":"Point","coordinates":[11.021105176725834,48.2131130712738]},"properties":{"id":"168","land-id":"09771","name":"Steindorf","population":971,"area":16.16,"centroid_coordinates":[11.021105176725834,48.2131130712738]}},{"type":"Feature","geometry":{"type":"Point","coordinates":[10.903240239912645,48.518722620759156]},"properties":{"id":"169","land-id":"09771","name":"Todtenweis","population":1436,"area":20.23,"centroid_coordinates":[10.903240239912645,48.518722620759156]}},{"type":"Feature","geometry":{"type":"Point","coordinates":[10.961045341183269,48.591059988820376]},"properties":{"id":"176","land-id":"09771","name":"Baar (Schwaben)","population":1279,"area":0.0,"centroid_coordinates":[10.961045341183269,48.591059988820376]}},{"type":"Feature","geometry":{"type":"Point","coordinates":[10.718321007631843,48.42545465951296]},"properties":{"id":"111","land-id":"09772","name":"Adelsried","population":2604,"area":9.66,"centroid_coordinates":[10.718321007631843,48.42545465951296]}},{"type":"Feature","geometry":{"type":"Point","coordinates":[10.815443754410017,48.61511756913372]},"properties":{"id":"114","land-id":"09772","name":"Allmannshofen","population":978,"area":10.33,"centroid_coordinates":[10.815443754410017,48.61511756913372]}},{"type":"Feature","geometry":{"type":"Point","coordinates":[10.583207323165112,48.462360244502754]},"properties":{"id":"115","land-id":"09772","name":"Altenm\u00fcnster","population":4723,"area":41.09,"centroid_coordinates":[10.583207323165112,48.462360244502754]}},{"type":"Feature","geometry":{"type":"Point","coordinates":[10.766592887632715,48.40718571495932]},"properties":{"id":"117","land-id":"09772","name":"Aystetten","population":3066,"area":9.2,"centroid_coordinates":[10.766592887632715,48.40718571495932]}},{"type":"Feature","geometry":{"type":"Point","coordinates":[10.785836431767086,48.50895141215246]},"properties":{"id":"121","land-id":"09772","name":"Biberbach","population":3560,"area":36.86,"centroid_coordinates":[10.785836431767086,48.50895141215246]}},{"type":"Feature","geometry":{"type":"Point","coordinates":[10.789455686215089,48.27301503259244]},"properties":{"id":"125","land-id":"09772","name":"Bobingen","population":17857,"area":50.16,"centroid_coordinates":[10.789455686215089,48.27301503259244]}},{"type":"Feature","geometry":{"type":"Point","coordinates":[10.71180189805375,48.44255770276342]},"properties":{"id":"126","land-id":"09772","name":"Bonstetten","population":1602,"area":6.8,"centroid_coordinates":[10.71180189805375,48.44255770276342]}},{"type":"Feature","geometry":{"type":"Point","coordinates":[10.763232494215424,48.3519328253074]},"properties":{"id":"130","land-id":"09772","name":"Diedorf","population":10729,"area":33.31,"centroid_coordinates":[10.763232494215424,48.3519328253074]}},{"type":"Feature","geometry":{"type":"Point","coordinates":[10.585498612992941,48.34141510643617]},"properties":{"id":"131","land-id":"09772","name":"Dinkelscherben","population":6750,"area":67.74,"centroid_coordinates":[10.585498612992941,48.34141510643617]}},{"type":"Feature","geometry":{"type":"Point","coordinates":[10.792301356728398,48.590347811946145]},"properties":{"id":"134","land-id":"09772","name":"Ehingen","population":1151,"area":9.65,"centroid_coordinates":[10.792301356728398,48.590347811946145]}},{"type":"Feature","geometry":{"type":"Point","coordinates":[10.864154943787153,48.61373783137503]},"properties":{"id":"136","land-id":"09772","name":"Ellgau","population":1182,"area":13.91,"centroid_coordinates":[10.864154943787153,48.61373783137503]}},{"type":"Feature","geometry":{"type":"Point","coordinates":[10.674620159251814,48.481663952406045]},"properties":{"id":"137","land-id":"09772","name":"Emersacker","population":1502,"area":11.64,"centroid_coordinates":[10.674620159251814,48.481663952406045]}},{"type":"Feature","geometry":{"type":"Point","coordinates":[10.650926335448782,48.283263108050235]},"properties":{"id":"141","land-id":"09772","name":"Fischach","population":5010,"area":30.14,"centroid_coordinates":[10.650926335448782,48.283263108050235]}},{"type":"Feature","geometry":{"type":"Point","coordinates":[10.813201785102608,48.456652280584414]},"properties":{"id":"145","land-id":"09772","name":"Gablingen","population":4815,"area":26.66,"centroid_coordinates":[10.813201785102608,48.456652280584414]}},{"type":"Feature","geometry":{"type":"Point","coordinates":[10.822706737803612,48.4297865483868]},"properties":{"id":"147","land-id":"09772","name":"Gersthofen","population":23393,"area":34.03,"centroid_coordinates":[10.822706737803612,48.4297865483868]}},{"type":"Feature","geometry":{"type":"Point","coordinates":[10.714619164943874,48.30342344356177]},"properties":{"id":"148","land-id":"09772","name":"Gessertshausen","population":4442,"area":41.36,"centroid_coordinates":[10.714619164943874,48.30342344356177]}},{"type":"Feature","geometry":{"type":"Point","coordinates":[10.835466069217937,48.191352367859444]},"properties":{"id":"149","land-id":"09772","name":"Graben","population":4022,"area":14.5,"centroid_coordinates":[10.835466069217937,48.191352367859444]}},{"type":"Feature","geometry":{"type":"Point","coordinates":[10.746831464057298,48.23133485822419]},"properties":{"id":"151","land-id":"09772","name":"Gro\u00dfaitingen","population":5286,"area":39.15,"centroid_coordinates":[10.746831464057298,48.23133485822419]}},{"type":"Feature","geometry":{"type":"Point","coordinates":[10.726951979171984,48.46251388914752]},"properties":{"id":"156","land-id":"09772","name":"Heretsried","population":1037,"area":17.29,"centroid_coordinates":[10.726951979171984,48.46251388914752]}},{"type":"Feature","geometry":{"type":"Point","coordinates":[10.713609635842705,48.153789112617574]},"properties":{"id":"157","land-id":"09772","name":"Hiltenfingen","population":1626,"area":14.54,"centroid_coordinates":[10.713609635842705,48.153789112617574]}},{"type":"Feature","geometry":{"type":"Point","coordinates":[10.68553682357559,48.39731758726119]},"properties":{"id":"159","land-id":"09772","name":"Horgau","population":2952,"area":26.44,"centroid_coordinates":[10.68553682357559,48.39731758726119]}},{"type":"Feature","geometry":{"type":"Point","coordinates":[10.860838886703865,48.21137998532912]},"properties":{"id":"160","land-id":"09772","name":"Kleinaitingen","population":1333,"area":15.6,"centroid_coordinates":[10.860838886703865,48.21137998532912]}},{"type":"Feature","geometry":{"type":"Point","coordinates":[10.836330045941565,48.15457945444512]},"properties":{"id":"162","land-id":"09772","name":"Klosterlechfeld","population":2980,"area":2.39,"centroid_coordinates":[10.836330045941565,48.15457945444512]}},{"type":"Feature","geometry":{"type":"Point","coordinates":[10.885399111994332,48.260815525178145]},"properties":{"id":"163","land-id":"09772","name":"K\u00f6nigsbrunn","population":27939,"area":18.5,"centroid_coordinates":[10.885399111994332,48.260815525178145]}},{"type":"Feature","geometry":{"type":"Point","coordinates":[10.801585524579606,48.56832837946982]},"properties":{"id":"166","land-id":"09772","name":"K\u00fchlenthal","population":861,"area":7.11,"centroid_coordinates":[10.801585524579606,48.56832837946982]}},{"type":"Feature","geometry":{"type":"Point","coordinates":[10.692465081570518,48.355935142293255]},"properties":{"id":"167","land-id":"09772","name":"Kutzenhausen","population":2692,"area":27.88,"centroid_coordinates":[10.692465081570518,48.355935142293255]}},{"type":"Feature","geometry":{"type":"Point","coordinates":[10.602998339856622,48.259897084089275]},"properties":{"id":"168","land-id":"09772","name":"Langenneufnach","population":1901,"area":12.84,"centroid_coordinates":[10.602998339856622,48.259897084089275]}},{"type":"Feature","geometry":{"type":"Point","coordinates":[10.748606675741419,48.125954347256936]},"properties":{"id":"170","land-id":"09772","name":"Langerringen","population":4180,"area":42.02,"centroid_coordinates":[10.748606675741419,48.125954347256936]}},{"type":"Feature","geometry":{"type":"Point","coordinates":[10.837041621685007,48.48291911406232]},"properties":{"id":"171","land-id":"09772","name":"Langweid a.Lech","population":8780,"area":23.52,"centroid_coordinates":[10.837041621685007,48.48291911406232]}},{"type":"Feature","geometry":{"type":"Point","coordinates":[10.833588721118755,48.54478603838488]},"properties":{"id":"177","land-id":"09772","name":"Meitingen","population":12249,"area":29.78,"centroid_coordinates":[10.833588721118755,48.54478603838488]}},{"type":"Feature","geometry":{"type":"Point","coordinates":[10.630330174841667,48.226000684988044]},"properties":{"id":"178","land-id":"09772","name":"Mickhausen","population":1384,"area":15.91,"centroid_coordinates":[10.630330174841667,48.226000684988044]}},{"type":"Feature","geometry":{"type":"Point","coordinates":[10.596775737379572,48.18155947515335]},"properties":{"id":"179","land-id":"09772","name":"Mittelneufnach","population":1065,"area":16.82,"centroid_coordinates":[10.596775737379572,48.18155947515335]}},{"type":"Feature","geometry":{"type":"Point","coordinates":[10.80972488445425,48.39341092140599]},"properties":{"id":"184","land-id":"09772","name":"Neus\u00e4\u00df","population":22670,"area":25.2,"centroid_coordinates":[10.80972488445425,48.39341092140599]}},{"type":"Feature","geometry":{"type":"Point","coordinates":[10.8399748584554,48.56954483815993]},"properties":{"id":"185","land-id":"09772","name":"Nordendorf","population":2602,"area":6.3,"centroid_coordinates":[10.8399748584554,48.56954483815993]}},{"type":"Feature","geometry":{"type":"Point","coordinates":[10.869073552372571,48.231327233532696]},"properties":{"id":"186","land-id":"09772","name":"Oberottmarshausen","population":1774,"area":8.66,"centroid_coordinates":[10.869073552372571,48.231327233532696]}},{"type":"Feature","geometry":{"type":"Point","coordinates":[10.64551792245464,48.19048628738722]},"properties":{"id":"197","land-id":"09772","name":"Scherstetten","population":1095,"area":15.7,"centroid_coordinates":[10.64551792245464,48.19048628738722]}},{"type":"Feature","geometry":{"type":"Point","coordinates":[10.728179264072512,48.19559888792892]},"properties":{"id":"200","land-id":"09772","name":"Schwabm\u00fcnchen","population":15213,"area":55.55,"centroid_coordinates":[10.728179264072512,48.19559888792892]}},{"type":"Feature","geometry":{"type":"Point","coordinates":[10.83105458501747,48.35953757200293]},"properties":{"id":"202","land-id":"09772","name":"Stadtbergen","population":15625,"area":11.47,"centroid_coordinates":[10.83105458501747,48.35953757200293]}},{"type":"Feature","geometry":{"type":"Point","coordinates":[10.915398902755326,48.561976699476304]},"properties":{"id":"207","land-id":"09772","name":"Thierhaupten","population":4086,"area":39.28,"centroid_coordinates":[10.915398902755326,48.561976699476304]}},{"type":"Feature","geometry":{"type":"Point","coordinates":[10.824293315215684,48.16712041300199]},"properties":{"id":"209","land-id":"09772","name":"Untermeitingen","population":7907,"area":16.07,"centroid_coordinates":[10.824293315215684,48.16712041300199]}},{"type":"Feature","geometry":{"type":"Point","coordinates":[10.63991464336378,48.32242994190405]},"properties":{"id":"211","land-id":"09772","name":"Ustersbach","population":1245,"area":11.08,"centroid_coordinates":[10.63991464336378,48.32242994190405]}},{"type":"Feature","geometry":{"type":"Point","coordinates":[10.587293725692627,48.228864700518905]},"properties":{"id":"214","land-id":"09772","name":"Walkertshofen","population":1172,"area":12.66,"centroid_coordinates":[10.587293725692627,48.228864700518905]}},{"type":"Feature","geometry":{"type":"Point","coordinates":[10.804107883597652,48.249009580649115]},"properties":{"id":"215","land-id":"09772","name":"Wehringen","population":3136,"area":14.07,"centroid_coordinates":[10.804107883597652,48.249009580649115]}},{"type":"Feature","geometry":{"type":"Point","coordinates":[10.653504025272092,48.453835114407525]},"properties":{"id":"216","land-id":"09772","name":"Welden","population":3814,"area":17.96,"centroid_coordinates":[10.653504025272092,48.453835114407525]}},{"type":"Feature","geometry":{"type":"Point","coordinates":[10.8399748584554,48.56954483815993]},"properties":{"id":"217","land-id":"09772","name":"Westendorf","population":1706,"area":6.3,"centroid_coordinates":[10.8399748584554,48.56954483815993]}},{"type":"Feature","geometry":{"type":"Point","coordinates":[10.596340687266222,48.406100203642424]},"properties":{"id":"223","land-id":"09772","name":"Zusmarshausen","population":6642,"area":68.62,"centroid_coordinates":[10.596340687266222,48.406100203642424]}},{"type":"Feature","geometry":{"type":"Point","coordinates":[10.450163945661252,48.508338309753526]},"properties":{"id":"111","land-id":"09773","name":"Aislingen","population":1329,"area":19.22,"centroid_coordinates":[10.450163945661252,48.508338309753526]}},{"type":"Feature","geometry":{"type":"Point","coordinates":[10.335004826794155,48.634662307276486]},"properties":{"id":"112","land-id":"09773","name":"Bachhagel","population":2306,"area":19.8,"centroid_coordinates":[10.335004826794155,48.634662307276486]}},{"type":"Feature","geometry":{"type":"Point","coordinates":[10.321355582335459,48.53749285048044]},"properties":{"id":"113","land-id":"09773","name":"B\u00e4chingen a.d.Brenz","population":1354,"area":7.34,"centroid_coordinates":[10.321355582335459,48.53749285048044]}},{"type":"Feature","geometry":{"type":"Point","coordinates":[10.63391199626471,48.56753333546393]},"properties":{"id":"116","land-id":"09773","name":"Binswangen","population":1351,"area":11.98,"centroid_coordinates":[10.63391199626471,48.56753333546393]}},{"type":"Feature","geometry":{"type":"Point","coordinates":[10.579636232606084,48.71878391876459]},"properties":{"id":"117","land-id":"09773","name":"Bissingen","population":3574,"area":64.22,"centroid_coordinates":[10.579636232606084,48.71878391876459]}},{"type":"Feature","geometry":{"type":"Point","coordinates":[10.614367630254192,48.646372445892254]},"properties":{"id":"119","land-id":"09773","name":"Blindheim","population":1785,"area":26.36,"centroid_coordinates":[10.614367630254192,48.646372445892254]}},{"type":"Feature","geometry":{"type":"Point","coordinates":[10.719287830727652,48.610690796304695]},"properties":{"id":"122","land-id":"09773","name":"Buttenwiesen","population":6040,"area":59.5,"centroid_coordinates":[10.719287830727652,48.610690796304695]}},{"type":"Feature","geometry":{"type":"Point","coordinates":[10.531274231850105,48.57486412831883]},"properties":{"id":"125","land-id":"09773","name":"Dillingen a.d.Donau","population":19792,"area":75.54,"centroid_coordinates":[10.531274231850105,48.57486412831883]}},{"type":"Feature","geometry":{"type":"Point","coordinates":[10.488036882684044,48.50136312025379]},"properties":{"id":"133","land-id":"09773","name":"Gl\u00f6tt","population":1110,"area":10.98,"centroid_coordinates":[10.488036882684044,48.50136312025379]}},{"type":"Feature","geometry":{"type":"Point","coordinates":[10.353652785344073,48.525619743776346]},"properties":{"id":"136","land-id":"09773","name":"Gundelfingen a.d.Donau","population":7743,"area":53.93,"centroid_coordinates":[10.353652785344073,48.525619743776346]}},{"type":"Feature","geometry":{"type":"Point","coordinates":[10.362423421716947,48.606553791458325]},"properties":{"id":"137","land-id":"09773","name":"Haunsheim","population":1620,"area":17.78,"centroid_coordinates":[10.362423421716947,48.606553791458325]}},{"type":"Feature","geometry":{"type":"Point","coordinates":[10.574656949231745,48.624341495929364]},"properties":{"id":"139","land-id":"09773","name":"H\u00f6chst\u00e4dt a.d.Donau","population":6956,"area":37.41,"centroid_coordinates":[10.574656949231745,48.624341495929364]}},{"type":"Feature","geometry":{"type":"Point","coordinates":[10.53736677619499,48.50953443499232]},"properties":{"id":"140","land-id":"09773","name":"Holzheim","population":3770,"area":40.84,"centroid_coordinates":[10.53736677619499,48.50953443499232]}},{"type":"Feature","geometry":{"type":"Point","coordinates":[10.707714162278336,48.51148374019696]},"properties":{"id":"143","land-id":"09773","name":"Laugna","population":1552,"area":27.57,"centroid_coordinates":[10.707714162278336,48.51148374019696]}},{"type":"Feature","geometry":{"type":"Point","coordinates":[10.427702568187255,48.56270136826231]},"properties":{"id":"144","land-id":"09773","name":"Lauingen (Donau)","population":11482,"area":44.4,"centroid_coordinates":[10.427702568187255,48.56270136826231]}},{"type":"Feature","geometry":{"type":"Point","coordinates":[10.539149842352359,48.66986020005474]},"properties":{"id":"146","land-id":"09773","name":"Lutzingen","population":957,"area":24.94,"centroid_coordinates":[10.539149842352359,48.66986020005474]}},{"type":"Feature","geometry":{"type":"Point","coordinates":[10.45152130757476,48.6422677310984]},"properties":{"id":"147","land-id":"09773","name":"M\u00f6dingen","population":1418,"area":23.02,"centroid_coordinates":[10.45152130757476,48.6422677310984]}},{"type":"Feature","geometry":{"type":"Point","coordinates":[10.498806662614577,48.65232201092064]},"properties":{"id":"150","land-id":"09773","name":"Finningen","population":1854,"area":27.84,"centroid_coordinates":[10.498806662614577,48.65232201092064]}},{"type":"Feature","geometry":{"type":"Point","coordinates":[10.326299951546146,48.57831233559483]},"properties":{"id":"153","land-id":"09773","name":"Medlingen","population":984,"area":17.08,"centroid_coordinates":[10.326299951546146,48.57831233559483]}},{"type":"Feature","geometry":{"type":"Point","coordinates":[10.657264791963941,48.645003633365185]},"properties":{"id":"164","land-id":"09773","name":"Schwenningen","population":1416,"area":25.07,"centroid_coordinates":[10.657264791963941,48.645003633365185]}},{"type":"Feature","geometry":{"type":"Point","coordinates":[10.28872673349079,48.65879096147379]},"properties":{"id":"170","land-id":"09773","name":"Syrgenstein","population":3865,"area":16.64,"centroid_coordinates":[10.28872673349079,48.65879096147379]}},{"type":"Feature","geometry":{"type":"Point","coordinates":[10.599628269966153,48.51381035994808]},"properties":{"id":"179","land-id":"09773","name":"Villenbach","population":1272,"area":17.77,"centroid_coordinates":[10.599628269966153,48.51381035994808]}},{"type":"Feature","geometry":{"type":"Point","coordinates":[10.706921181446432,48.55477193148911]},"properties":{"id":"182","land-id":"09773","name":"Wertingen","population":9331,"area":51.79,"centroid_coordinates":[10.706921181446432,48.55477193148911]}},{"type":"Feature","geometry":{"type":"Point","coordinates":[10.425054621323438,48.61378427739893]},"properties":{"id":"183","land-id":"09773","name":"Wittislingen","population":2517,"area":17.37,"centroid_coordinates":[10.425054621323438,48.61378427739893]}},{"type":"Feature","geometry":{"type":"Point","coordinates":[10.398559125389164,48.66132688780262]},"properties":{"id":"186","land-id":"09773","name":"Ziertheim","population":1111,"area":20.81,"centroid_coordinates":[10.398559125389164,48.66132688780262]}},{"type":"Feature","geometry":{"type":"Point","coordinates":[10.312159514415132,48.67867589223038]},"properties":{"id":"187","land-id":"09773","name":"Z\u00f6schingen","population":774,"area":14.61,"centroid_coordinates":[10.312159514415132,48.67867589223038]}},{"type":"Feature","geometry":{"type":"Point","coordinates":[10.633613232789733,48.52540035842114]},"properties":{"id":"188","land-id":"09773","name":"Zusamaltheim","population":1280,"area":17.98,"centroid_coordinates":[10.633613232789733,48.52540035842114]}},{"type":"Feature","geometry":{"type":"Point","coordinates":[10.400699131540017,48.19871084225844]},"properties":{"id":"111","land-id":"09774","name":"Aletshausen","population":1216,"area":17.66,"centroid_coordinates":[10.400699131540017,48.19871084225844]}},{"type":"Feature","geometry":{"type":"Point","coordinates":[10.489556522620015,48.2352717027363]},"properties":{"id":"115","land-id":"09774","name":"Balzhausen","population":1236,"area":14.58,"centroid_coordinates":[10.489556522620015,48.2352717027363]}},{"type":"Feature","geometry":{"type":"Point","coordinates":[10.442643841859166,48.24690142908443]},"properties":{"id":"116","land-id":"09774","name":"Ursberg","population":3236,"area":25.37,"centroid_coordinates":[10.442643841859166,48.24690142908443]}},{"type":"Feature","geometry":{"type":"Point","coordinates":[10.303993365682217,48.23845458240741]},"properties":{"id":"117","land-id":"09774","name":"Breitenthal","population":1254,"area":13.36,"centroid_coordinates":[10.303993365682217,48.23845458240741]}},{"type":"Feature","geometry":{"type":"Point","coordinates":[10.24864636753045,48.425392703240355]},"properties":{"id":"118","land-id":"09774","name":"Bubesheim","population":1651,"area":6.92,"centroid_coordinates":[10.24864636753045,48.425392703240355]}},{"type":"Feature","geometry":{"type":"Point","coordinates":[10.201553315228766,48.3985243461117]},"properties":{"id":"119","land-id":"09774","name":"Bibertal","population":4886,"area":27.28,"centroid_coordinates":[10.201553315228766,48.3985243461117]}},{"type":"Feature","geometry":{"type":"Point","coordinates":[10.383156537664537,48.42886112024041]},"properties":{"id":"121","land-id":"09774","name":"Burgau","population":10630,"area":26.0,"centroid_coordinates":[10.383156537664537,48.42886112024041]}},{"type":"Feature","geometry":{"type":"Point","coordinates":[10.45971013781429,48.346883925681404]},"properties":{"id":"122","land-id":"09774","name":"Burtenbach","population":3579,"area":37.58,"centroid_coordinates":[10.45971013781429,48.346883925681404]}},{"type":"Feature","geometry":{"type":"Point","coordinates":[10.326690162336002,48.26380294730405]},"properties":{"id":"124","land-id":"09774","name":"Deisenhausen","population":1414,"area":11.68,"centroid_coordinates":[10.326690162336002,48.26380294730405]}},{"type":"Feature","geometry":{"type":"Point","coordinates":[10.427236775968442,48.467211525962966]},"properties":{"id":"127","land-id":"09774","name":"D\u00fcrrlauingen","population":1528,"area":12.24,"centroid_coordinates":[10.427236775968442,48.467211525962966]}},{"type":"Feature","geometry":{"type":"Point","coordinates":[10.31115706807775,48.20706009095822]},"properties":{"id":"129","land-id":"09774","name":"Ebershausen","population":630,"area":9.1,"centroid_coordinates":[10.31115706807775,48.20706009095822]}},{"type":"Feature","geometry":{"type":"Point","coordinates":[10.30486441728201,48.32771852400822]},"properties":{"id":"133","land-id":"09774","name":"Ellzee","population":1229,"area":14.76,"centroid_coordinates":[10.30486441728201,48.32771852400822]}},{"type":"Feature","geometry":{"type":"Point","coordinates":[10.280222344895986,48.466174811985894]},"properties":{"id":"135","land-id":"09774","name":"G\u00fcnzburg","population":21708,"area":55.41,"centroid_coordinates":[10.280222344895986,48.466174811985894]}},{"type":"Feature","geometry":{"type":"Point","coordinates":[10.408193024025827,48.50103996907448]},"properties":{"id":"136","land-id":"09774","name":"Gundremmingen","population":1378,"area":10.86,"centroid_coordinates":[10.408193024025827,48.50103996907448]}},{"type":"Feature","geometry":{"type":"Point","coordinates":[10.45751662316954,48.44784295910793]},"properties":{"id":"140","land-id":"09774","name":"Haldenwang","population":2139,"area":18.0,"centroid_coordinates":[10.45751662316954,48.44784295910793]}},{"type":"Feature","geometry":{"type":"Point","coordinates":[10.282090459383582,48.3753726853677]},"properties":{"id":"143","land-id":"09774","name":"Ichenhausen","population":9229,"area":34.28,"centroid_coordinates":[10.282090459383582,48.3753726853677]}},{"type":"Feature","geometry":{"type":"Point","coordinates":[10.462379703887024,48.39160442422812]},"properties":{"id":"144","land-id":"09774","name":"Jettingen-Scheppach","population":7008,"area":54.1,"centroid_coordinates":[10.462379703887024,48.39160442422812]}},{"type":"Feature","geometry":{"type":"Point","coordinates":[10.36748082069907,48.37336349048619]},"properties":{"id":"145","land-id":"09774","name":"Kammeltal","population":3346,"area":41.6,"centroid_coordinates":[10.36748082069907,48.37336349048619]}},{"type":"Feature","geometry":{"type":"Point","coordinates":[10.285955444670712,48.40688055229898]},"properties":{"id":"148","land-id":"09774","name":"K\u00f6tz","population":3349,"area":20.56,"centroid_coordinates":[10.285955444670712,48.40688055229898]}},{"type":"Feature","geometry":{"type":"Point","coordinates":[10.379188634764198,48.244861498892774]},"properties":{"id":"150","land-id":"09774","name":"Krumbach (Schwaben)","population":14185,"area":44.61,"centroid_coordinates":[10.379188634764198,48.244861498892774]}},{"type":"Feature","geometry":{"type":"Point","coordinates":[10.516261916716083,48.434624213649364]},"properties":{"id":"151","land-id":"09774","name":"Landensberg","population":636,"area":7.9,"centroid_coordinates":[10.516261916716083,48.434624213649364]}},{"type":"Feature","geometry":{"type":"Point","coordinates":[10.20442300630248,48.45158897971062]},"properties":{"id":"155","land-id":"09774","name":"Leipheim","population":7498,"area":32.98,"centroid_coordinates":[10.20442300630248,48.45158897971062]}},{"type":"Feature","geometry":{"type":"Point","coordinates":[10.455381078556284,48.31356862836925]},"properties":{"id":"160","land-id":"09774","name":"M\u00fcnsterhausen","population":2011,"area":18.5,"centroid_coordinates":[10.455381078556284,48.31356862836925]}},{"type":"Feature","geometry":{"type":"Point","coordinates":[10.376630438689864,48.30405112094163]},"properties":{"id":"162","land-id":"09774","name":"Neuburg a.d.Kammel","population":3283,"area":37.86,"centroid_coordinates":[10.376630438689864,48.30405112094163]}},{"type":"Feature","geometry":{"type":"Point","coordinates":[10.539802638523003,48.23267778009975]},"properties":{"id":"166","land-id":"09774","name":"Aichen","population":1175,"area":17.7,"centroid_coordinates":[10.539802638523003,48.23267778009975]}},{"type":"Feature","geometry":{"type":"Point","coordinates":[10.36417406076973,48.47863291551093]},"properties":{"id":"171","land-id":"09774","name":"Offingen","population":4400,"area":14.95,"centroid_coordinates":[10.36417406076973,48.47863291551093]}},{"type":"Feature","geometry":{"type":"Point","coordinates":[10.357804183451874,48.45550039231311]},"properties":{"id":"174","land-id":"09774","name":"Rettenbach","population":1710,"area":12.69,"centroid_coordinates":[10.357804183451874,48.45550039231311]}},{"type":"Feature","geometry":{"type":"Point","coordinates":[10.459404672736154,48.426343401330556]},"properties":{"id":"178","land-id":"09774","name":"R\u00f6fingen","population":1189,"area":6.67,"centroid_coordinates":[10.459404672736154,48.426343401330556]}},{"type":"Feature","geometry":{"type":"Point","coordinates":[10.478789159264812,48.2774379557456]},"properties":{"id":"185","land-id":"09774","name":"Thannhausen","population":6413,"area":20.07,"centroid_coordinates":[10.478789159264812,48.2774379557456]}},{"type":"Feature","geometry":{"type":"Point","coordinates":[10.3103883275376,48.29291664517587]},"properties":{"id":"189","land-id":"09774","name":"Wiesenbach","population":1034,"area":11.49,"centroid_coordinates":[10.3103883275376,48.29291664517587]}},{"type":"Feature","geometry":{"type":"Point","coordinates":[10.290089597875514,48.349238845349305]},"properties":{"id":"191","land-id":"09774","name":"Waldstetten","population":1269,"area":11.12,"centroid_coordinates":[10.290089597875514,48.349238845349305]}},{"type":"Feature","geometry":{"type":"Point","coordinates":[10.349929435179167,48.18625170669361]},"properties":{"id":"192","land-id":"09774","name":"Waltenhausen","population":737,"area":13.38,"centroid_coordinates":[10.349929435179167,48.18625170669361]}},{"type":"Feature","geometry":{"type":"Point","coordinates":[10.498854907861778,48.46595702605354]},"properties":{"id":"196","land-id":"09774","name":"Winterbach","population":781,"area":14.84,"centroid_coordinates":[10.498854907861778,48.46595702605354]}},{"type":"Feature","geometry":{"type":"Point","coordinates":[10.54621462644234,48.28493175430006]},"properties":{"id":"198","land-id":"09774","name":"Ziemetshausen","population":3187,"area":42.86,"centroid_coordinates":[10.54621462644234,48.28493175430006]}},{"type":"Feature","geometry":{"type":"Point","coordinates":[10.13058244868062,48.16802058159475]},"properties":{"id":"111","land-id":"09775","name":"Altenstadt","population":5397,"area":31.3,"centroid_coordinates":[10.13058244868062,48.16802058159475]}},{"type":"Feature","geometry":{"type":"Point","coordinates":[10.096520656782303,48.25845221329974]},"properties":{"id":"115","land-id":"09775","name":"Bellenberg","population":4666,"area":5.13,"centroid_coordinates":[10.096520656782303,48.25845221329974]}},{"type":"Feature","geometry":{"type":"Point","coordinates":[10.196308491943531,48.230482892829365]},"properties":{"id":"118","land-id":"09775","name":"Buch","population":4310,"area":40.07,"centroid_coordinates":[10.196308491943531,48.230482892829365]}},{"type":"Feature","geometry":{"type":"Point","coordinates":[10.11064099565731,48.3791839450199]},"properties":{"id":"126","land-id":"09775","name":"Holzheim","population":2009,"area":7.61,"centroid_coordinates":[10.11064099565731,48.3791839450199]}},{"type":"Feature","geometry":{"type":"Point","coordinates":[10.115208850999107,48.227320198016294]},"properties":{"id":"129","land-id":"09775","name":"Illertissen","population":18342,"area":36.35,"centroid_coordinates":[10.115208850999107,48.227320198016294]}},{"type":"Feature","geometry":{"type":"Point","coordinates":[10.136767325421719,48.12898748611543]},"properties":{"id":"132","land-id":"09775","name":"Kellm\u00fcnz a.d.Iller","population":1559,"area":8.54,"centroid_coordinates":[10.136767325421719,48.12898748611543]}},{"type":"Feature","geometry":{"type":"Point","coordinates":[10.138701543695626,48.424232840846535]},"properties":{"id":"134","land-id":"09775","name":"Nersingen","population":9825,"area":24.24,"centroid_coordinates":[10.138701543695626,48.424232840846535]}},{"type":"Feature","geometry":{"type":"Point","coordinates":[10.052587067105998,48.38063307084551]},"properties":{"id":"135","land-id":"09775","name":"Neu-Ulm","population":62200,"area":80.95,"centroid_coordinates":[10.052587067105998,48.38063307084551]}},{"type":"Feature","geometry":{"type":"Point","coordinates":[10.08416189404104,48.44874654810916]},"properties":{"id":"139","land-id":"09775","name":"Elchingen","population":9882,"area":24.85,"centroid_coordinates":[10.08416189404104,48.44874654810916]}},{"type":"Feature","geometry":{"type":"Point","coordinates":[10.196201851664624,48.170814734388635]},"properties":{"id":"141","land-id":"09775","name":"Oberroth","population":995,"area":9.92,"centroid_coordinates":[10.196201851664624,48.170814734388635]}},{"type":"Feature","geometry":{"type":"Point","coordinates":[10.17808611953999,48.14020180213039]},"properties":{"id":"142","land-id":"09775","name":"Osterberg","population":921,"area":13.81,"centroid_coordinates":[10.17808611953999,48.14020180213039]}},{"type":"Feature","geometry":{"type":"Point","coordinates":[10.161742296636032,48.36112979589352]},"properties":{"id":"143","land-id":"09775","name":"Pfaffenhofen a.d.Roth","population":7310,"area":42.65,"centroid_coordinates":[10.161742296636032,48.36112979589352]}},{"type":"Feature","geometry":{"type":"Point","coordinates":[10.22658749496061,48.279986855826586]},"properties":{"id":"149","land-id":"09775","name":"Roggenburg","population":2698,"area":27.55,"centroid_coordinates":[10.22658749496061,48.279986855826586]}},{"type":"Feature","geometry":{"type":"Point","coordinates":[10.068924862468037,48.322482333695156]},"properties":{"id":"152","land-id":"09775","name":"Senden","population":23591,"area":25.17,"centroid_coordinates":[10.068924862468037,48.322482333695156]}},{"type":"Feature","geometry":{"type":"Point","coordinates":[10.18915887561117,48.196222229229164]},"properties":{"id":"161","land-id":"09775","name":"Unterroth","population":1079,"area":15.35,"centroid_coordinates":[10.18915887561117,48.196222229229164]}},{"type":"Feature","geometry":{"type":"Point","coordinates":[10.091146453025706,48.28986243286741]},"properties":{"id":"162","land-id":"09775","name":"V\u00f6hringen","population":13997,"area":23.67,"centroid_coordinates":[10.091146453025706,48.28986243286741]}},{"type":"Feature","geometry":{"type":"Point","coordinates":[10.173616131162957,48.304535833978264]},"properties":{"id":"164","land-id":"09775","name":"Wei\u00dfenhorn","population":14181,"area":53.65,"centroid_coordinates":[10.173616131162957,48.304535833978264]}},{"type":"Feature","geometry":{"type":"Point","coordinates":[9.676149878496393,47.57442539049521]},"properties":{"id":"116","land-id":"09776","name":"Lindau (Bodensee)","population":25898,"area":0.02,"centroid_coordinates":[9.676149878496393,47.57442539049521]}},{"type":"Feature","geometry":{"type":"Point","coordinates":[9.606620221935524,47.58429987455615]},"properties":{"id":"120","land-id":"09776","name":"Nonnenhorn","population":1758,"area":0.01,"centroid_coordinates":[9.606620221935524,47.58429987455615]}},{"type":"Feature","geometry":{"type":"Point","coordinates":[9.638753313742033,47.571892253910136]},"properties":{"id":"128","land-id":"09776","name":"Wasserburg (Bodensee)","population":3832,"area":0.0,"centroid_coordinates":[9.638753313742033,47.571892253910136]}},{"type":"Feature","geometry":{"type":"Point","coordinates":[9.724556803007319,47.594265799746424]},"properties":{"id":"130","land-id":"09776","name":"Wei\u00dfensberg","population":2734,"area":0.46,"centroid_coordinates":[9.724556803007319,47.594265799746424]}},{"type":"Feature","geometry":{"type":"Point","coordinates":[10.518428988097508,47.82554576498557]},"properties":{"id":"111","land-id":"09777","name":"Aitrang","population":1969,"area":30.77,"centroid_coordinates":[10.518428988097508,47.82554576498557]}},{"type":"Feature","geometry":{"type":"Point","coordinates":[10.64169757904031,47.82134170516483]},"properties":{"id":"112","land-id":"09777","name":"Biessenhofen","population":4242,"area":27.02,"centroid_coordinates":[10.64169757904031,47.82134170516483]}},{"type":"Feature","geometry":{"type":"Point","coordinates":[10.544095981450681,47.95180912714222]},"properties":{"id":"114","land-id":"09777","name":"Baisweil","population":1362,"area":26.31,"centroid_coordinates":[10.544095981450681,47.95180912714222]}},{"type":"Feature","geometry":{"type":"Point","coordinates":[10.719846667269978,47.822046880977524]},"properties":{"id":"118","land-id":"09777","name":"Bidingen","population":1894,"area":36.33,"centroid_coordinates":[10.719846667269978,47.822046880977524]}},{"type":"Feature","geometry":{"type":"Point","coordinates":[10.739283602921288,48.028893225932016]},"properties":{"id":"121","land-id":"09777","name":"Buchloe","population":13799,"area":36.1,"centroid_coordinates":[10.739283602921288,48.028893225932016]}},{"type":"Feature","geometry":{"type":"Point","coordinates":[10.490779352884047,47.913529634819625]},"properties":{"id":"124","land-id":"09777","name":"Eggenthal","population":1403,"area":28.08,"centroid_coordinates":[10.490779352884047,47.913529634819625]}},{"type":"Feature","geometry":{"type":"Point","coordinates":[10.597738618943133,47.61022141914477]},"properties":{"id":"125","land-id":"09777","name":"Eisenberg","population":1114,"area":13.55,"centroid_coordinates":[10.597738618943133,47.61022141914477]}},{"type":"Feature","geometry":{"type":"Point","coordinates":[10.527699514904961,47.87222048405817]},"properties":{"id":"128","land-id":"09777","name":"Friesenried","population":1495,"area":22.14,"centroid_coordinates":[10.527699514904961,47.87222048405817]}},{"type":"Feature","geometry":{"type":"Point","coordinates":[10.663693222711542,47.58320489549776]},"properties":{"id":"129","land-id":"09777","name":"F\u00fcssen","population":15405,"area":43.49,"centroid_coordinates":[10.663693222711542,47.58320489549776]}},{"type":"Feature","geometry":{"type":"Point","coordinates":[10.679003034481969,47.94164813413359]},"properties":{"id":"130","land-id":"09777","name":"Germaringen","population":3837,"area":22.86,"centroid_coordinates":[10.679003034481969,47.94164813413359]}},{"type":"Feature","geometry":{"type":"Point","coordinates":[10.499057180845352,47.69687108122112]},"properties":{"id":"131","land-id":"09777","name":"G\u00f6risried","population":1324,"area":23.28,"centroid_coordinates":[10.499057180845352,47.69687108122112]}},{"type":"Feature","geometry":{"type":"Point","coordinates":[10.64412824344095,47.608115410067896]},"properties":{"id":"135","land-id":"09777","name":"Hopferau","population":1252,"area":13.12,"centroid_coordinates":[10.64412824344095,47.608115410067896]}},{"type":"Feature","geometry":{"type":"Point","coordinates":[10.437782666034833,47.821017215000744]},"properties":{"id":"138","land-id":"09777","name":"G\u00fcnzach","population":1349,"area":23.43,"centroid_coordinates":[10.437782666034833,47.821017215000744]}},{"type":"Feature","geometry":{"type":"Point","coordinates":[10.56285311272443,47.90715094973924]},"properties":{"id":"139","land-id":"09777","name":"Irsee","population":1553,"area":17.4,"centroid_coordinates":[10.56285311272443,47.90715094973924]}},{"type":"Feature","geometry":{"type":"Point","coordinates":[10.701995148193069,47.988897557078126]},"properties":{"id":"140","land-id":"09777","name":"Jengen","population":2609,"area":33.7,"centroid_coordinates":[10.701995148193069,47.988897557078126]}},{"type":"Feature","geometry":{"type":"Point","coordinates":[10.756324189893853,47.90720173125652]},"properties":{"id":"141","land-id":"09777","name":"Kaltental","population":1714,"area":22.1,"centroid_coordinates":[10.756324189893853,47.90720173125652]}},{"type":"Feature","geometry":{"type":"Point","coordinates":[10.463839262931664,47.76650840924414]},"properties":{"id":"144","land-id":"09777","name":"Kraftisried","population":923,"area":16.23,"centroid_coordinates":[10.463839262931664,47.76650840924414]}},{"type":"Feature","geometry":{"type":"Point","coordinates":[10.75043732487764,48.08017581162224]},"properties":{"id":"145","land-id":"09777","name":"Lamerdingen","population":2209,"area":34.32,"centroid_coordinates":[10.75043732487764,48.08017581162224]}},{"type":"Feature","geometry":{"type":"Point","coordinates":[10.783546745672245,47.69195447190944]},"properties":{"id":"147","land-id":"09777","name":"Lechbruck am See","population":2701,"area":17.19,"centroid_coordinates":[10.783546745672245,47.69195447190944]}},{"type":"Feature","geometry":{"type":"Point","coordinates":[10.598176446921288,47.6964684798885]},"properties":{"id":"149","land-id":"09777","name":"Lengenwang","population":1509,"area":19.63,"centroid_coordinates":[10.598176446921288,47.6964684798885]}},{"type":"Feature","geometry":{"type":"Point","coordinates":[10.61917702281873,47.75744584207026]},"properties":{"id":"151","land-id":"09777","name":"Marktoberdorf","population":18621,"area":95.1,"centroid_coordinates":[10.61917702281873,47.75744584207026]}},{"type":"Feature","geometry":{"type":"Point","coordinates":[10.67150319789869,47.874126470747356]},"properties":{"id":"152","land-id":"09777","name":"Mauerstetten","population":3207,"area":16.43,"centroid_coordinates":[10.67150319789869,47.874126470747356]}},{"type":"Feature","geometry":{"type":"Point","coordinates":[10.504815269847871,47.61983208955278]},"properties":{"id":"153","land-id":"09777","name":"Nesselwang","population":3769,"area":29.47,"centroid_coordinates":[10.504815269847871,47.61983208955278]}},{"type":"Feature","geometry":{"type":"Point","coordinates":[10.439183702584598,47.865365186452415]},"properties":{"id":"154","land-id":"09777","name":"Oberg\u00fcnzburg","population":6347,"area":46.66,"centroid_coordinates":[10.439183702584598,47.865365186452415]}},{"type":"Feature","geometry":{"type":"Point","coordinates":[10.746543271961825,47.94882346245432]},"properties":{"id":"155","land-id":"09777","name":"Oberostendorf","population":1482,"area":21.05,"centroid_coordinates":[10.746543271961825,47.94882346245432]}},{"type":"Feature","geometry":{"type":"Point","coordinates":[10.742693884429736,47.86491152399628]},"properties":{"id":"157","land-id":"09777","name":"Osterzell","population":710,"area":10.79,"centroid_coordinates":[10.742693884429736,47.86491152399628]}},{"type":"Feature","geometry":{"type":"Point","coordinates":[10.605124188686256,47.936166638402185]},"properties":{"id":"158","land-id":"09777","name":"Pforzen","population":2415,"area":23.64,"centroid_coordinates":[10.605124188686256,47.936166638402185]}},{"type":"Feature","geometry":{"type":"Point","coordinates":[10.532668176307585,47.57061234693753]},"properties":{"id":"159","land-id":"09777","name":"Pfronten","population":7684,"area":62.24,"centroid_coordinates":[10.532668176307585,47.57061234693753]}},{"type":"Feature","geometry":{"type":"Point","coordinates":[10.708297018428127,47.624724836591696]},"properties":{"id":"163","land-id":"09777","name":"Rieden am Forggensee","population":1400,"area":13.16,"centroid_coordinates":[10.708297018428127,47.624724836591696]}},{"type":"Feature","geometry":{"type":"Point","coordinates":[10.648093647100673,47.953576705889496]},"properties":{"id":"164","land-id":"09777","name":"Rieden","population":1408,"area":8.44,"centroid_coordinates":[10.648093647100673,47.953576705889496]}},{"type":"Feature","geometry":{"type":"Point","coordinates":[10.40575301679297,47.900926191196106]},"properties":{"id":"165","land-id":"09777","name":"Ronsberg","population":1663,"area":16.53,"centroid_coordinates":[10.40575301679297,47.900926191196106]}},{"type":"Feature","geometry":{"type":"Point","coordinates":[10.706331986057704,47.66266537890737]},"properties":{"id":"166","land-id":"09777","name":"Ro\u00dfhaupten","population":2245,"area":38.94,"centroid_coordinates":[10.706331986057704,47.66266537890737]}},{"type":"Feature","geometry":{"type":"Point","coordinates":[10.580343964901482,47.82257410249716]},"properties":{"id":"167","land-id":"09777","name":"Ruderatshofen","population":1740,"area":33.45,"centroid_coordinates":[10.580343964901482,47.82257410249716]}},{"type":"Feature","geometry":{"type":"Point","coordinates":[10.549475859006012,47.66135430795513]},"properties":{"id":"168","land-id":"09777","name":"R\u00fcckholz","population":983,"area":17.23,"centroid_coordinates":[10.549475859006012,47.66135430795513]}},{"type":"Feature","geometry":{"type":"Point","coordinates":[10.767516224079618,47.56721958739046]},"properties":{"id":"169","land-id":"09777","name":"Schwangau","population":3190,"area":75.98,"centroid_coordinates":[10.767516224079618,47.56721958739046]}},{"type":"Feature","geometry":{"type":"Point","coordinates":[10.615968270694951,47.65465840544462]},"properties":{"id":"170","land-id":"09777","name":"Seeg","population":3060,"area":49.96,"centroid_coordinates":[10.615968270694951,47.65465840544462]}},{"type":"Feature","geometry":{"type":"Point","coordinates":[10.701091526311355,47.72972712125486]},"properties":{"id":"171","land-id":"09777","name":"St\u00f6tten a.Auerberg","population":1988,"area":40.7,"centroid_coordinates":[10.701091526311355,47.72972712125486]}},{"type":"Feature","geometry":{"type":"Point","coordinates":[10.707908508700696,47.87999388950903]},"properties":{"id":"172","land-id":"09777","name":"St\u00f6ttwang","population":1906,"area":19.87,"centroid_coordinates":[10.707908508700696,47.87999388950903]}},{"type":"Feature","geometry":{"type":"Point","coordinates":[10.847330990337825,47.61124549843063]},"properties":{"id":"173","land-id":"09777","name":"Halblech","population":3366,"area":125.2,"centroid_coordinates":[10.847330990337825,47.61124549843063]}},{"type":"Feature","geometry":{"type":"Point","coordinates":[10.501228432633035,47.76367553023057]},"properties":{"id":"175","land-id":"09777","name":"Unterthingau","population":2818,"area":45.31,"centroid_coordinates":[10.501228432633035,47.76367553023057]}},{"type":"Feature","geometry":{"type":"Point","coordinates":[10.367270601438998,47.84554872795312]},"properties":{"id":"176","land-id":"09777","name":"Untrasried","population":1678,"area":25.74,"centroid_coordinates":[10.367270601438998,47.84554872795312]}},{"type":"Feature","geometry":{"type":"Point","coordinates":[10.787572773205786,47.98861271725739]},"properties":{"id":"177","land-id":"09777","name":"Waal","population":2363,"area":27.96,"centroid_coordinates":[10.787572773205786,47.98861271725739]}},{"type":"Feature","geometry":{"type":"Point","coordinates":[10.552896367801596,47.706712171447435]},"properties":{"id":"179","land-id":"09777","name":"Wald","population":1140,"area":17.85,"centroid_coordinates":[10.552896367801596,47.706712171447435]}},{"type":"Feature","geometry":{"type":"Point","coordinates":[10.707478981418415,47.92463650379442]},"properties":{"id":"182","land-id":"09777","name":"Westendorf","population":1948,"area":11.9,"centroid_coordinates":[10.707478981418415,47.92463650379442]}},{"type":"Feature","geometry":{"type":"Point","coordinates":[10.744806616125768,47.77795034910668]},"properties":{"id":"183","land-id":"09777","name":"Rettenbach a.Auerberg","population":909,"area":12.92,"centroid_coordinates":[10.744806616125768,47.77795034910668]}},{"type":"Feature","geometry":{"type":"Point","coordinates":[10.688914736815736,48.070568443985955]},"properties":{"id":"111","land-id":"09778","name":"Amberg","population":1516,"area":10.96,"centroid_coordinates":[10.688914736815736,48.070568443985955]}},{"type":"Feature","geometry":{"type":"Point","coordinates":[10.473052431535145,47.99999865308366]},"properties":{"id":"113","land-id":"09778","name":"Apfeltrach","population":966,"area":14.97,"centroid_coordinates":[10.473052431535145,47.99999865308366]}},{"type":"Feature","geometry":{"type":"Point","coordinates":[10.246727900168981,48.13864543756689]},"properties":{"id":"115","land-id":"09778","name":"Babenhausen","population":5615,"area":27.19,"centroid_coordinates":[10.246727900168981,48.13864543756689]}},{"type":"Feature","geometry":{"type":"Point","coordinates":[10.599752318505605,48.00078144367939]},"properties":{"id":"116","land-id":"09778","name":"Bad W\u00f6rishofen","population":16568,"area":57.82,"centroid_coordinates":[10.599752318505605,48.00078144367939]}},{"type":"Feature","geometry":{"type":"Point","coordinates":[10.226196987435594,47.96406023813387]},"properties":{"id":"118","land-id":"09778","name":"Benningen","population":2092,"area":11.1,"centroid_coordinates":[10.226196987435594,47.96406023813387]}},{"type":"Feature","geometry":{"type":"Point","coordinates":[10.312498445936255,47.885005045333784]},"properties":{"id":"119","land-id":"09778","name":"B\u00f6hen","population":758,"area":20.51,"centroid_coordinates":[10.312498445936255,47.885005045333784]}},{"type":"Feature","geometry":{"type":"Point","coordinates":[10.20733145727487,48.08586357530724]},"properties":{"id":"120","land-id":"09778","name":"Boos","population":2339,"area":17.57,"centroid_coordinates":[10.20733145727487,48.08586357530724]}},{"type":"Feature","geometry":{"type":"Point","coordinates":[10.386608814228367,48.1342153933237]},"properties":{"id":"121","land-id":"09778","name":"Breitenbrunn","population":2295,"area":41.84,"centroid_coordinates":[10.386608814228367,48.1342153933237]}},{"type":"Feature","geometry":{"type":"Point","coordinates":[10.13107944036899,47.9878651918061]},"properties":{"id":"123","land-id":"09778","name":"Buxheim","population":3023,"area":10.25,"centroid_coordinates":[10.13107944036899,47.9878651918061]}},{"type":"Feature","geometry":{"type":"Point","coordinates":[10.513053027451214,47.99415452159232]},"properties":{"id":"127","land-id":"09778","name":"Dirlewang","population":2256,"area":23.2,"centroid_coordinates":[10.513053027451214,47.99415452159232]}},{"type":"Feature","geometry":{"type":"Point","coordinates":[10.272591677635841,48.08858737426945]},"properties":{"id":"130","land-id":"09778","name":"Egg a.d.G\u00fcnz","population":1184,"area":20.72,"centroid_coordinates":[10.272591677635841,48.08858737426945]}},{"type":"Feature","geometry":{"type":"Point","coordinates":[10.529006535486515,48.18323713719241]},"properties":{"id":"134","land-id":"09778","name":"Eppishausen","population":1925,"area":39.41,"centroid_coordinates":[10.529006535486515,48.18323713719241]}},{"type":"Feature","geometry":{"type":"Point","coordinates":[10.34574891831473,48.04995719793576]},"properties":{"id":"136","land-id":"09778","name":"Erkheim","population":3148,"area":32.11,"centroid_coordinates":[10.34574891831473,48.04995719793576]}},{"type":"Feature","geometry":{"type":"Point","coordinates":[10.659591996414049,48.12591911720458]},"properties":{"id":"137","land-id":"09778","name":"Ettringen","population":3398,"area":41.39,"centroid_coordinates":[10.659591996414049,48.12591911720458]}},{"type":"Feature","geometry":{"type":"Point","coordinates":[10.152520570406503,48.073745236052694]},"properties":{"id":"139","land-id":"09778","name":"Fellheim","population":1143,"area":5.05,"centroid_coordinates":[10.152520570406503,48.073745236052694]}},{"type":"Feature","geometry":{"type":"Point","coordinates":[10.22984937837362,47.873081401907776]},"properties":{"id":"144","land-id":"09778","name":"Bad Gr\u00f6nenbach","population":5560,"area":42.2,"centroid_coordinates":[10.22984937837362,47.873081401907776]}},{"type":"Feature","geometry":{"type":"Point","coordinates":[10.267986643287866,47.97297841352199]},"properties":{"id":"149","land-id":"09778","name":"Hawangen","population":1241,"area":14.53,"centroid_coordinates":[10.267986643287866,47.97297841352199]}},{"type":"Feature","geometry":{"type":"Point","coordinates":[10.161316325840165,48.03982586293006]},"properties":{"id":"150","land-id":"09778","name":"Heimertingen","population":1825,"area":13.75,"centroid_coordinates":[10.161316325840165,48.03982586293006]}},{"type":"Feature","geometry":{"type":"Point","coordinates":[10.247002507064154,48.02512678055934]},"properties":{"id":"151","land-id":"09778","name":"Holzg\u00fcnz","population":1346,"area":12.12,"centroid_coordinates":[10.247002507064154,48.02512678055934]}},{"type":"Feature","geometry":{"type":"Point","coordinates":[10.32102777131717,48.15289756936125]},"properties":{"id":"157","land-id":"09778","name":"Kirchhaslach","population":1296,"area":32.04,"centroid_coordinates":[10.32102777131717,48.15289756936125]}},{"type":"Feature","geometry":{"type":"Point","coordinates":[10.461895308013268,48.18158183620138]},"properties":{"id":"158","land-id":"09778","name":"Kirchheim i.Schw.","population":2506,"area":31.95,"centroid_coordinates":[10.461895308013268,48.18158183620138]}},{"type":"Feature","geometry":{"type":"Point","coordinates":[10.150627752045686,47.90283093456853]},"properties":{"id":"161","land-id":"09778","name":"Kronburg","population":1768,"area":20.22,"centroid_coordinates":[10.150627752045686,47.90283093456853]}},{"type":"Feature","geometry":{"type":"Point","coordinates":[10.24218828212331,47.94121090442893]},"properties":{"id":"162","land-id":"09778","name":"Lachen","population":1693,"area":13.27,"centroid_coordinates":[10.24218828212331,47.94121090442893]}},{"type":"Feature","geometry":{"type":"Point","coordinates":[10.285264728967016,48.065285192666636]},"properties":{"id":"163","land-id":"09778","name":"Lauben","population":1414,"area":18.42,"centroid_coordinates":[10.285264728967016,48.065285192666636]}},{"type":"Feature","geometry":{"type":"Point","coordinates":[10.10683749640342,47.88719860218603]},"properties":{"id":"164","land-id":"09778","name":"Lautrach","population":1256,"area":8.05,"centroid_coordinates":[10.10683749640342,47.88719860218603]}},{"type":"Feature","geometry":{"type":"Point","coordinates":[10.142704411356851,47.85609317705824]},"properties":{"id":"165","land-id":"09778","name":"Legau","population":3223,"area":36.34,"centroid_coordinates":[10.142704411356851,47.85609317705824]}},{"type":"Feature","geometry":{"type":"Point","coordinates":[10.399766746343122,47.954666967284396]},"properties":{"id":"168","land-id":"09778","name":"Markt Rettenbach","population":3978,"area":51.42,"centroid_coordinates":[10.399766746343122,47.954666967284396]}},{"type":"Feature","geometry":{"type":"Point","coordinates":[10.593985206710126,48.14743230611093]},"properties":{"id":"169","land-id":"09778","name":"Markt Wald","population":2148,"area":30.83,"centroid_coordinates":[10.593985206710126,48.14743230611093]}},{"type":"Feature","geometry":{"type":"Point","coordinates":[10.22325683051616,47.99131180040715]},"properties":{"id":"171","land-id":"09778","name":"Memmingerberg","population":3041,"area":6.09,"centroid_coordinates":[10.22325683051616,47.99131180040715]}},{"type":"Feature","geometry":{"type":"Point","coordinates":[10.49574046892833,48.05464197262906]},"properties":{"id":"173","land-id":"09778","name":"Mindelheim","population":15552,"area":56.43,"centroid_coordinates":[10.49574046892833,48.05464197262906]}},{"type":"Feature","geometry":{"type":"Point","coordinates":[10.200594432615135,48.05724623512245]},"properties":{"id":"177","land-id":"09778","name":"Niederrieden","population":1531,"area":13.94,"centroid_coordinates":[10.200594432615135,48.05724623512245]}},{"type":"Feature","geometry":{"type":"Point","coordinates":[10.405622657812504,48.049475934621]},"properties":{"id":"180","land-id":"09778","name":"Kammlach","population":1827,"area":26.65,"centroid_coordinates":[10.405622657812504,48.049475934621]}},{"type":"Feature","geometry":{"type":"Point","coordinates":[10.413504471731612,48.09081337568302]},"properties":{"id":"183","land-id":"09778","name":"Oberrieden","population":1186,"area":20.83,"centroid_coordinates":[10.413504471731612,48.09081337568302]}},{"type":"Feature","geometry":{"type":"Point","coordinates":[10.310084004967486,48.1141610379572]},"properties":{"id":"184","land-id":"09778","name":"Obersch\u00f6negg","population":1037,"area":18.29,"centroid_coordinates":[10.310084004967486,48.1141610379572]}},{"type":"Feature","geometry":{"type":"Point","coordinates":[10.325634564837268,47.93223409734449]},"properties":{"id":"186","land-id":"09778","name":"Ottobeuren","population":8215,"area":55.94,"centroid_coordinates":[10.325634564837268,47.93223409734449]}},{"type":"Feature","geometry":{"type":"Point","coordinates":[10.444757213250893,48.12274775505357]},"properties":{"id":"187","land-id":"09778","name":"Pfaffenhausen","population":2668,"area":21.15,"centroid_coordinates":[10.444757213250893,48.12274775505357]}},{"type":"Feature","geometry":{"type":"Point","coordinates":[10.166311281927083,48.10247790848047]},"properties":{"id":"188","land-id":"09778","name":"Ple\u00df","population":886,"area":15.39,"centroid_coordinates":[10.166311281927083,48.10247790848047]}},{"type":"Feature","geometry":{"type":"Point","coordinates":[10.485117566055353,48.126051953509695]},"properties":{"id":"190","land-id":"09778","name":"Salgen","population":1460,"area":23.25,"centroid_coordinates":[10.485117566055353,48.126051953509695]}},{"type":"Feature","geometry":{"type":"Point","coordinates":[10.359652817859534,47.99974851633336]},"properties":{"id":"196","land-id":"09778","name":"Sontheim","population":2705,"area":26.52,"centroid_coordinates":[10.359652817859534,47.99974851633336]}},{"type":"Feature","geometry":{"type":"Point","coordinates":[10.434004702095638,48.00983608869749]},"properties":{"id":"199","land-id":"09778","name":"Stetten","population":1462,"area":15.69,"centroid_coordinates":[10.434004702095638,48.00983608869749]}},{"type":"Feature","geometry":{"type":"Point","coordinates":[10.217330421440023,48.00345357137131]},"properties":{"id":"202","land-id":"09778","name":"Trunkelsberg","population":1722,"area":1.94,"centroid_coordinates":[10.217330421440023,48.00345357137131]}},{"type":"Feature","geometry":{"type":"Point","coordinates":[10.635754361938272,48.061487006603976]},"properties":{"id":"203","land-id":"09778","name":"T\u00fcrkheim","population":7193,"area":31.51,"centroid_coordinates":[10.635754361938272,48.061487006603976]}},{"type":"Feature","geometry":{"type":"Point","coordinates":[10.555875108644488,48.10627575702317]},"properties":{"id":"204","land-id":"09778","name":"Tussenhausen","population":3047,"area":41.76,"centroid_coordinates":[10.555875108644488,48.10627575702317]}},{"type":"Feature","geometry":{"type":"Point","coordinates":[10.263263333422666,48.001033328736995]},"properties":{"id":"205","land-id":"09778","name":"Ungerhausen","population":1087,"area":7.0,"centroid_coordinates":[10.263263333422666,48.001033328736995]}},{"type":"Feature","geometry":{"type":"Point","coordinates":[10.47602534466123,47.9514955553583]},"properties":{"id":"207","land-id":"09778","name":"Unteregg","population":1399,"area":23.7,"centroid_coordinates":[10.47602534466123,47.9514955553583]}},{"type":"Feature","geometry":{"type":"Point","coordinates":[10.582483666081922,48.06369009051099]},"properties":{"id":"209","land-id":"09778","name":"Rammingen","population":1570,"area":19.25,"centroid_coordinates":[10.582483666081922,48.06369009051099]}},{"type":"Feature","geometry":{"type":"Point","coordinates":[10.297893524853254,48.02383538910928]},"properties":{"id":"214","land-id":"09778","name":"Westerheim","population":2265,"area":21.11,"centroid_coordinates":[10.297893524853254,48.02383538910928]}},{"type":"Feature","geometry":{"type":"Point","coordinates":[10.671982009115386,48.035112725438744]},"properties":{"id":"216","land-id":"09778","name":"Wiedergeltingen","population":1449,"area":11.6,"centroid_coordinates":[10.671982009115386,48.035112725438744]}},{"type":"Feature","geometry":{"type":"Point","coordinates":[10.215877796517885,48.11987429010906]},"properties":{"id":"217","land-id":"09778","name":"Winterrieden","population":945,"area":9.81,"centroid_coordinates":[10.215877796517885,48.11987429010906]}},{"type":"Feature","geometry":{"type":"Point","coordinates":[10.258695700153837,47.90311362574146]},"properties":{"id":"218","land-id":"09778","name":"Wolfertschwenden","population":2110,"area":14.48,"centroid_coordinates":[10.258695700153837,47.90311362574146]}},{"type":"Feature","geometry":{"type":"Point","coordinates":[10.197617034374526,47.92434581130849]},"properties":{"id":"219","land-id":"09778","name":"Woringen","population":2059,"area":17.41,"centroid_coordinates":[10.197617034374526,47.92434581130849]}},{"type":"Feature","geometry":{"type":"Point","coordinates":[10.26543785875181,48.19079643176389]},"properties":{"id":"221","land-id":"09778","name":"Kettershausen","population":1823,"area":26.72,"centroid_coordinates":[10.26543785875181,48.19079643176389]}},{"type":"Feature","geometry":{"type":"Point","coordinates":[10.63675984784408,48.84593420403426]},"properties":{"id":"111","land-id":"09779","name":"Alerheim","population":1696,"area":23.42,"centroid_coordinates":[10.63675984784408,48.84593420403426]}},{"type":"Feature","geometry":{"type":"Point","coordinates":[10.495693011778993,48.73559299803499]},"properties":{"id":"112","land-id":"09779","name":"Amerdingen","population":876,"area":19.03,"centroid_coordinates":[10.495693011778993,48.73559299803499]}},{"type":"Feature","geometry":{"type":"Point","coordinates":[10.822593523794735,48.68762283962137]},"properties":{"id":"115","land-id":"09779","name":"Asbach-B\u00e4umenheim","population":4718,"area":11.88,"centroid_coordinates":[10.822593523794735,48.68762283962137]}},{"type":"Feature","geometry":{"type":"Point","coordinates":[10.616700225448316,48.99778068411488]},"properties":{"id":"117","land-id":"09779","name":"Auhausen","population":1010,"area":15.63,"centroid_coordinates":[10.616700225448316,48.99778068411488]}},{"type":"Feature","geometry":{"type":"Point","coordinates":[10.84176869812632,48.78344429677329]},"properties":{"id":"126","land-id":"09779","name":"Buchdorf","population":2003,"area":16.69,"centroid_coordinates":[10.84176869812632,48.78344429677329]}},{"type":"Feature","geometry":{"type":"Point","coordinates":[10.894530286154732,48.79320384650131]},"properties":{"id":"129","land-id":"09779","name":"Daiting","population":796,"area":25.48,"centroid_coordinates":[10.894530286154732,48.79320384650131]}},{"type":"Feature","geometry":{"type":"Point","coordinates":[10.571610280830201,48.86498444319012]},"properties":{"id":"130","land-id":"09779","name":"Deiningen","population":1830,"area":15.3,"centroid_coordinates":[10.571610280830201,48.86498444319012]}},{"type":"Feature","geometry":{"type":"Point","coordinates":[10.77221728609737,48.72390521768592]},"properties":{"id":"131","land-id":"09779","name":"Donauw\u00f6rth","population":19939,"area":77.05,"centroid_coordinates":[10.77221728609737,48.72390521768592]}},{"type":"Feature","geometry":{"type":"Point","coordinates":[10.464327136231567,48.7959136029614]},"properties":{"id":"136","land-id":"09779","name":"Ederheim","population":1097,"area":16.57,"centroid_coordinates":[10.464327136231567,48.7959136029614]}},{"type":"Feature","geometry":{"type":"Point","coordinates":[10.544006513429956,48.95963407130668]},"properties":{"id":"138","land-id":"09779","name":"Ehingen a.Ries","population":751,"area":15.6,"centroid_coordinates":[10.544006513429956,48.95963407130668]}},{"type":"Feature","geometry":{"type":"Point","coordinates":[10.45482142054563,48.75721793202029]},"properties":{"id":"146","land-id":"09779","name":"Forheim","population":525,"area":23.25,"centroid_coordinates":[10.45482142054563,48.75721793202029]}},{"type":"Feature","geometry":{"type":"Point","coordinates":[10.474288612248218,48.97807489889376]},"properties":{"id":"147","land-id":"09779","name":"Fremdingen","population":2056,"area":50.02,"centroid_coordinates":[10.474288612248218,48.97807489889376]}},{"type":"Feature","geometry":{"type":"Point","coordinates":[10.77123051946529,48.83847715707696]},"properties":{"id":"148","land-id":"09779","name":"F\u00fcnfstetten","population":1343,"area":26.69,"centroid_coordinates":[10.77123051946529,48.83847715707696]}},{"type":"Feature","geometry":{"type":"Point","coordinates":[10.868687472180259,48.70944838205585]},"properties":{"id":"149","land-id":"09779","name":"Genderkingen","population":1195,"area":11.64,"centroid_coordinates":[10.868687472180259,48.70944838205585]}},{"type":"Feature","geometry":{"type":"Point","coordinates":[10.643478613604042,48.959903902946]},"properties":{"id":"154","land-id":"09779","name":"Hainsfarth","population":1425,"area":17.56,"centroid_coordinates":[10.643478613604042,48.959903902946]}},{"type":"Feature","geometry":{"type":"Point","coordinates":[10.688457012063857,48.782083050206055]},"properties":{"id":"155","land-id":"09779","name":"Harburg (Schwaben)","population":5546,"area":73.17,"centroid_coordinates":[10.688457012063857,48.782083050206055]}},{"type":"Feature","geometry":{"type":"Point","coordinates":[10.521989111873262,48.77862737996378]},"properties":{"id":"162","land-id":"09779","name":"Hohenaltheim","population":552,"area":17.79,"centroid_coordinates":[10.521989111873262,48.77862737996378]}},{"type":"Feature","geometry":{"type":"Point","coordinates":[10.953354909544954,48.61698630651721]},"properties":{"id":"163","land-id":"09779","name":"Holzheim","population":1137,"area":20.25,"centroid_coordinates":[10.953354909544954,48.61698630651721]}},{"type":"Feature","geometry":{"type":"Point","coordinates":[10.70757442796179,48.83287055826809]},"properties":{"id":"167","land-id":"09779","name":"Huisheim","population":1618,"area":22.78,"centroid_coordinates":[10.70757442796179,48.83287055826809]}},{"type":"Feature","geometry":{"type":"Point","coordinates":[10.808311145139243,48.77016773953267]},"properties":{"id":"169","land-id":"09779","name":"Kaisheim","population":3944,"area":41.69,"centroid_coordinates":[10.808311145139243,48.77016773953267]}},{"type":"Feature","geometry":{"type":"Point","coordinates":[10.508776411772061,48.926872622060216]},"properties":{"id":"176","land-id":"09779","name":"Maihingen","population":1254,"area":14.2,"centroid_coordinates":[10.508776411772061,48.926872622060216]}},{"type":"Feature","geometry":{"type":"Point","coordinates":[10.467297827118026,48.92885103783926]},"properties":{"id":"177","land-id":"09779","name":"Marktoffingen","population":1289,"area":13.59,"centroid_coordinates":[10.467297827118026,48.92885103783926]}},{"type":"Feature","geometry":{"type":"Point","coordinates":[10.945670874849025,48.76059538363258]},"properties":{"id":"178","land-id":"09779","name":"Marxheim","population":2600,"area":46.54,"centroid_coordinates":[10.945670874849025,48.76059538363258]}},{"type":"Feature","geometry":{"type":"Point","coordinates":[10.664278774181808,48.937793480881766]},"properties":{"id":"180","land-id":"09779","name":"Megesheim","population":812,"area":12.51,"centroid_coordinates":[10.664278774181808,48.937793480881766]}},{"type":"Feature","geometry":{"type":"Point","coordinates":[10.791819210195845,48.6515095560381]},"properties":{"id":"181","land-id":"09779","name":"Mertingen","population":3891,"area":38.4,"centroid_coordinates":[10.791819210195845,48.6515095560381]}},{"type":"Feature","geometry":{"type":"Point","coordinates":[10.59570650045476,48.76469450733706]},"properties":{"id":"184","land-id":"09779","name":"M\u00f6nchsdeggingen","population":1444,"area":32.03,"centroid_coordinates":[10.59570650045476,48.76469450733706]}},{"type":"Feature","geometry":{"type":"Point","coordinates":[10.587490839922,48.80974346547371]},"properties":{"id":"185","land-id":"09779","name":"M\u00f6ttingen","population":2687,"area":31.82,"centroid_coordinates":[10.587490839922,48.80974346547371]}},{"type":"Feature","geometry":{"type":"Point","coordinates":[10.863078071913977,48.847845451670565]},"properties":{"id":"186","land-id":"09779","name":"Monheim","population":5474,"area":69.23,"centroid_coordinates":[10.863078071913977,48.847845451670565]}},{"type":"Feature","geometry":{"type":"Point","coordinates":[10.905836616529738,48.61939085764013]},"properties":{"id":"187","land-id":"09779","name":"M\u00fcnster","population":1289,"area":17.7,"centroid_coordinates":[10.905836616529738,48.61939085764013]}},{"type":"Feature","geometry":{"type":"Point","coordinates":[10.631309109755271,48.91503499824054]},"properties":{"id":"188","land-id":"09779","name":"Munningen","population":1714,"area":22.71,"centroid_coordinates":[10.631309109755271,48.91503499824054]}},{"type":"Feature","geometry":{"type":"Point","coordinates":[10.92074928589725,48.72221134307654]},"properties":{"id":"192","land-id":"09779","name":"Niedersch\u00f6nenfeld","population":1413,"area":14.35,"centroid_coordinates":[10.92074928589725,48.72221134307654]}},{"type":"Feature","geometry":{"type":"Point","coordinates":[10.511163122439205,48.85745346193783]},"properties":{"id":"194","land-id":"09779","name":"N\u00f6rdlingen","population":20408,"area":68.03,"centroid_coordinates":[10.511163122439205,48.85745346193783]}},{"type":"Feature","geometry":{"type":"Point","coordinates":[10.860737062586193,48.667479834753635]},"properties":{"id":"196","land-id":"09779","name":"Oberndorf a.Lech","population":2649,"area":19.33,"centroid_coordinates":[10.860737062586193,48.667479834753635]}},{"type":"Feature","geometry":{"type":"Point","coordinates":[10.578999295199795,48.956832637728034]},"properties":{"id":"197","land-id":"09779","name":"Oettingen i.Bay.","population":5057,"area":34.24,"centroid_coordinates":[10.578999295199795,48.956832637728034]}},{"type":"Feature","geometry":{"type":"Point","coordinates":[10.799908506050468,48.87599878062285]},"properties":{"id":"198","land-id":"09779","name":"Otting","population":799,"area":13.36,"centroid_coordinates":[10.799908506050468,48.87599878062285]}},{"type":"Feature","geometry":{"type":"Point","coordinates":[10.952054455640072,48.668803392413324]},"properties":{"id":"201","land-id":"09779","name":"Rain","population":9143,"area":77.13,"centroid_coordinates":[10.952054455640072,48.668803392413324]}},{"type":"Feature","geometry":{"type":"Point","coordinates":[10.52228111797138,48.82853963354454]},"properties":{"id":"203","land-id":"09779","name":"Reimlingen","population":1353,"area":9.49,"centroid_coordinates":[10.52228111797138,48.82853963354454]}},{"type":"Feature","geometry":{"type":"Point","coordinates":[10.947763570857857,48.846775957571225]},"properties":{"id":"206","land-id":"09779","name":"R\u00f6gling","population":623,"area":10.69,"centroid_coordinates":[10.947763570857857,48.846775957571225]}},{"type":"Feature","geometry":{"type":"Point","coordinates":[10.963917710568014,48.82280236031389]},"properties":{"id":"217","land-id":"09779","name":"Tagmersheim","population":1059,"area":16.0,"centroid_coordinates":[10.963917710568014,48.82280236031389]}},{"type":"Feature","geometry":{"type":"Point","coordinates":[10.689533426999075,48.68452503305141]},"properties":{"id":"218","land-id":"09779","name":"Tapfheim","population":4207,"area":44.34,"centroid_coordinates":[10.689533426999075,48.68452503305141]}},{"type":"Feature","geometry":{"type":"Point","coordinates":[10.474385459674847,48.890859999995484]},"properties":{"id":"224","land-id":"09779","name":"Wallerstein","population":3377,"area":19.45,"centroid_coordinates":[10.474385459674847,48.890859999995484]}},{"type":"Feature","geometry":{"type":"Point","coordinates":[10.621632992346589,48.88387544784261]},"properties":{"id":"226","land-id":"09779","name":"Wechingen","population":1401,"area":24.01,"centroid_coordinates":[10.621632992346589,48.88387544784261]}},{"type":"Feature","geometry":{"type":"Point","coordinates":[10.709126057906436,48.87799183267976]},"properties":{"id":"228","land-id":"09779","name":"Wemding","population":5779,"area":31.62,"centroid_coordinates":[10.709126057906436,48.87799183267976]}},{"type":"Feature","geometry":{"type":"Point","coordinates":[10.779892521597063,48.91148626036972]},"properties":{"id":"231","land-id":"09779","name":"Wolferstadt","population":1093,"area":30.61,"centroid_coordinates":[10.779892521597063,48.91148626036972]}},{"type":"Feature","geometry":{"type":"Point","coordinates":[10.17733005319532,47.79076117413964]},"properties":{"id":"112","land-id":"09780","name":"Altusried","population":10257,"area":91.63,"centroid_coordinates":[10.17733005319532,47.79076117413964]}},{"type":"Feature","geometry":{"type":"Point","coordinates":[10.114755287454559,47.4355687206639]},"properties":{"id":"113","land-id":"09780","name":"Balderschwang","population":222,"area":41.72,"centroid_coordinates":[10.114755287454559,47.4355687206639]}},{"type":"Feature","geometry":{"type":"Point","coordinates":[10.408240602374839,47.73362440168352]},"properties":{"id":"114","land-id":"09780","name":"Betzigau","population":2867,"area":29.25,"centroid_coordinates":[10.408240602374839,47.73362440168352]}},{"type":"Feature","geometry":{"type":"Point","coordinates":[10.185840305848366,47.502466720056916]},"properties":{"id":"115","land-id":"09780","name":"Blaichach","population":5452,"area":50.13,"centroid_coordinates":[10.185840305848366,47.502466720056916]}},{"type":"Feature","geometry":{"type":"Point","coordinates":[10.213997325984547,47.46091476367731]},"properties":{"id":"116","land-id":"09780","name":"Bolsterlang","population":994,"area":20.32,"centroid_coordinates":[10.213997325984547,47.46091476367731]}},{"type":"Feature","geometry":{"type":"Point","coordinates":[10.195171453214785,47.70745445951846]},"properties":{"id":"117","land-id":"09780","name":"Buchenberg","population":4089,"area":58.15,"centroid_coordinates":[10.195171453214785,47.70745445951846]}},{"type":"Feature","geometry":{"type":"Point","coordinates":[10.299213152669028,47.54486386073029]},"properties":{"id":"118","land-id":"09780","name":"Burgberg i.Allg\u00e4u","population":3017,"area":15.94,"centroid_coordinates":[10.299213152669028,47.54486386073029]}},{"type":"Feature","geometry":{"type":"Point","coordinates":[10.283049129275287,47.82892499859694]},"properties":{"id":"119","land-id":"09780","name":"Dietmannsried","population":8467,"area":53.66,"centroid_coordinates":[10.283049129275287,47.82892499859694]}},{"type":"Feature","geometry":{"type":"Point","coordinates":[10.381158796813498,47.696146269780144]},"properties":{"id":"120","land-id":"09780","name":"Durach","population":6957,"area":20.76,"centroid_coordinates":[10.381158796813498,47.696146269780144]}},{"type":"Feature","geometry":{"type":"Point","coordinates":[10.26753424249372,47.451399060501046]},"properties":{"id":"121","land-id":"09780","name":"Fischen i.Allg\u00e4u","population":2963,"area":13.59,"centroid_coordinates":[10.26753424249372,47.451399060501046]}},{"type":"Feature","geometry":{"type":"Point","coordinates":[10.358843848872459,47.79109445259215]},"properties":{"id":"122","land-id":"09780","name":"Haldenwang","population":3781,"area":26.59,"centroid_coordinates":[10.358843848872459,47.79109445259215]}},{"type":"Feature","geometry":{"type":"Point","coordinates":[10.401716860290362,47.46686676554]},"properties":{"id":"123","land-id":"09780","name":"Bad Hindelang","population":5046,"area":137.07,"centroid_coordinates":[10.401716860290362,47.46686676554]}},{"type":"Feature","geometry":{"type":"Point","coordinates":[10.195247702987183,47.57422957910629]},"properties":{"id":"124","land-id":"09780","name":"Immenstadt i.Allg\u00e4u","population":14031,"area":81.28,"centroid_coordinates":[10.195247702987183,47.57422957910629]}},{"type":"Feature","geometry":{"type":"Point","coordinates":[10.309129820828423,47.78021569629309]},"properties":{"id":"125","land-id":"09780","name":"Lauben","population":3469,"area":8.43,"centroid_coordinates":[10.309129820828423,47.78021569629309]}},{"type":"Feature","geometry":{"type":"Point","coordinates":[10.111300940285782,47.598421175470584]},"properties":{"id":"127","land-id":"09780","name":"Missen-Wilhams","population":1566,"area":34.9,"centroid_coordinates":[10.111300940285782,47.598421175470584]}},{"type":"Feature","geometry":{"type":"Point","coordinates":[10.439261404335397,47.648633595355385]},"properties":{"id":"128","land-id":"09780","name":"Oy-Mittelberg","population":4598,"area":60.22,"centroid_coordinates":[10.439261404335397,47.648633595355385]}},{"type":"Feature","geometry":{"type":"Point","coordinates":[10.193913730165233,47.43369604040835]},"properties":{"id":"131","land-id":"09780","name":"Obermaiselstein","population":970,"area":25.05,"centroid_coordinates":[10.193913730165233,47.43369604040835]}},{"type":"Feature","geometry":{"type":"Point","coordinates":[10.058074359464745,47.528130395114076]},"properties":{"id":"132","land-id":"09780","name":"Oberstaufen","population":7243,"area":125.91,"centroid_coordinates":[10.058074359464745,47.528130395114076]}},{"type":"Feature","geometry":{"type":"Point","coordinates":[10.268003531665975,47.36873016175024]},"properties":{"id":"133","land-id":"09780","name":"Oberstdorf","population":9319,"area":229.69,"centroid_coordinates":[10.268003531665975,47.36873016175024]}},{"type":"Feature","geometry":{"type":"Point","coordinates":[10.23743857573943,47.4973247815551]},"properties":{"id":"134","land-id":"09780","name":"Ofterschwang","population":1925,"area":19.52,"centroid_coordinates":[10.23743857573943,47.4973247815551]}},{"type":"Feature","geometry":{"type":"Point","coordinates":[10.319110009165115,47.58644707252504]},"properties":{"id":"137","land-id":"09780","name":"Rettenberg","population":4471,"area":60.16,"centroid_coordinates":[10.319110009165115,47.58644707252504]}},{"type":"Feature","geometry":{"type":"Point","coordinates":[10.31395000674177,47.50474286781513]},"properties":{"id":"139","land-id":"09780","name":"Sonthofen","population":21709,"area":46.45,"centroid_coordinates":[10.31395000674177,47.50474286781513]}},{"type":"Feature","geometry":{"type":"Point","coordinates":[10.355603794375964,47.65945785208842]},"properties":{"id":"140","land-id":"09780","name":"Sulzberg","population":5006,"area":40.87,"centroid_coordinates":[10.355603794375964,47.65945785208842]}},{"type":"Feature","geometry":{"type":"Point","coordinates":[10.265436906163897,47.64847120708456]},"properties":{"id":"143","land-id":"09780","name":"Waltenhofen","population":9807,"area":59.74,"centroid_coordinates":[10.265436906163897,47.64847120708456]}},{"type":"Feature","geometry":{"type":"Point","coordinates":[10.148417939942437,47.653678215531464]},"properties":{"id":"144","land-id":"09780","name":"Weitnau","population":5300,"area":65.24,"centroid_coordinates":[10.148417939942437,47.653678215531464]}},{"type":"Feature","geometry":{"type":"Point","coordinates":[10.411919040524863,47.58405032580303]},"properties":{"id":"145","land-id":"09780","name":"Wertach","population":2687,"area":45.65,"centroid_coordinates":[10.411919040524863,47.58405032580303]}},{"type":"Feature","geometry":{"type":"Point","coordinates":[10.214545294594593,47.743946362168984]},"properties":{"id":"146","land-id":"09780","name":"Wiggensbach","population":4931,"area":31.81,"centroid_coordinates":[10.214545294594593,47.743946362168984]}},{"type":"Feature","geometry":{"type":"Point","coordinates":[10.415339775941789,47.77573983982431]},"properties":{"id":"147","land-id":"09780","name":"Wildpoldsried","population":2558,"area":21.37,"centroid_coordinates":[10.415339775941789,47.77573983982431]}}]}