{"type":"FeatureCollection","features":[{"type":"Feature","geometry":{"type":"Point","coordinates":[11.128243261544524,48.35662939400296]},"properties":{"id":"111","land-id":"09771","name":"Adelzhausen","population":1838,"population_man":983,"population_woman":855,"area":16.92}},{"type":"Feature","geometry":{"type":"Point","coordinates":[10.963719480098897,48.44906396097372]},"properties":{"id":"112","land-id":"09771","name":"Affing","population":5571,"population_man":2791,"population_woman":2780,"area":44.8}},{"type":"Feature","geometry":{"type":"Point","coordinates":[11.1236376067936,48.445411097941495]},"properties":{"id":"113","land-id":"09771","name":"Aichach","population":21881,"population_man":10645,"population_woman":11236,"area":92.78}},{"type":"Feature","geometry":{"type":"Point","coordinates":[10.980815660176026,48.50742785141341]},"properties":{"id":"114","land-id":"09771","name":"Aindling","population":4655,"population_man":2348,"population_woman":2307,"area":31.34}},{"type":"Feature","geometry":{"type":"Point","coordinates":[11.06679534991313,48.3872203341349]},"properties":{"id":"122","land-id":"09771","name":"Dasing","population":5751,"population_man":2947,"population_woman":2804,"area":40.84}},{"type":"Feature","geometry":{"type":"Point","coordinates":[11.109236626848057,48.331758018662136]},"properties":{"id":"129","land-id":"09771","name":"Eurasburg","population":1852,"population_man":959,"population_woman":893,"area":23.9}},{"type":"Feature","geometry":{"type":"Point","coordinates":[11.00345846595015,48.36228353784175]},"properties":{"id":"130","land-id":"09771","name":"Friedberg","population":29930,"population_man":14649,"population_woman":15281,"area":81.23}},{"type":"Feature","geometry":{"type":"Point","coordinates":[11.061006270028553,48.48668513286071]},"properties":{"id":"140","land-id":"09771","name":"Hollenbach","population":2485,"population_man":1299,"population_woman":1186,"area":26.14}},{"type":"Feature","geometry":{"type":"Point","coordinates":[11.102783832911937,48.5230912058647]},"properties":{"id":"141","land-id":"09771","name":"Inchenhofen","population":2722,"population_man":1400,"population_woman":1322,"area":27.51}},{"type":"Feature","geometry":{"type":"Point","coordinates":[10.980946919720191,48.30453117896912]},"properties":{"id":"142","land-id":"09771","name":"Kissing","population":11737,"population_man":5947,"population_woman":5790,"area":23.08}},{"type":"Feature","geometry":{"type":"Point","coordinates":[11.180977932334846,48.505936792685674]},"properties":{"id":"144","land-id":"09771","name":"K\u00fchbach","population":4200,"population_man":2092,"population_woman":2108,"area":37.51}},{"type":"Feature","geometry":{"type":"Point","coordinates":[10.982875839330259,48.244030431726486]},"properties":{"id":"145","land-id":"09771","name":"Merching","population":3250,"population_man":1618,"population_woman":1632,"area":24.8}},{"type":"Feature","geometry":{"type":"Point","coordinates":[11.002878844300616,48.26659213680504]},"properties":{"id":"146","land-id":"09771","name":"Mering","population":15194,"population_man":7406,"population_woman":7788,"area":26.77}},{"type":"Feature","geometry":{"type":"Point","coordinates":[11.047327590554005,48.42436085207048]},"properties":{"id":"149","land-id":"09771","name":"Obergriesbach","population":1995,"population_man":1012,"population_woman":983,"area":10.31}},{"type":"Feature","geometry":{"type":"Point","coordinates":[11.016405206223329,48.52368480635957]},"properties":{"id":"155","land-id":"09771","name":"Petersdorf","population":1746,"population_man":905,"population_woman":841,"area":19.57}},{"type":"Feature","geometry":{"type":"Point","coordinates":[11.06776834515865,48.57300778196782]},"properties":{"id":"156","land-id":"09771","name":"P\u00f6ttmes","population":7005,"population_man":3607,"population_woman":3398,"area":82.66}},{"type":"Feature","geometry":{"type":"Point","coordinates":[10.917441464150892,48.484571354589065]},"properties":{"id":"158","land-id":"09771","name":"Rehling","population":2639,"population_man":1344,"population_woman":1295,"area":26.28}},{"type":"Feature","geometry":{"type":"Point","coordinates":[11.074399168312828,48.28982635036624]},"properties":{"id":"160","land-id":"09771","name":"Ried","population":3225,"population_man":1622,"population_woman":1603,"area":29.22}},{"type":"Feature","geometry":{"type":"Point","coordinates":[11.244316500504505,48.45586973865387]},"properties":{"id":"162","land-id":"09771","name":"Schiltberg","population":1941,"population_man":976,"population_woman":965,"area":29.79}},{"type":"Feature","geometry":{"type":"Point","coordinates":[10.946712083605508,48.2271267705155]},"properties":{"id":"163","land-id":"09771","name":"Schmiechen","population":1362,"population_man":688,"population_woman":674,"area":13.55}},{"type":"Feature","geometry":{"type":"Point","coordinates":[11.163452616337137,48.39122108138838]},"properties":{"id":"165","land-id":"09771","name":"Sielenbach","population":1860,"population_man":933,"population_woman":927,"area":17.86}},{"type":"Feature","geometry":{"type":"Point","coordinates":[11.021105176725834,48.2131130712738]},"properties":{"id":"168","land-id":"09771","name":"Steindorf","population":971,"population_man":509,"population_woman":462,"area":16.16}},{"type":"Feature","geometry":{"type":"Point","coordinates":[10.903240239912645,48.518722620759156]},"properties":{"id":"169","land-id":"09771","name":"Todtenweis","population":1436,"population_man":725,"population_woman":711,"area":20.23}},{"type":"Feature","geometry":{"type":"Point","coordinates":[10.961045341183269,48.591059988820376]},"properties":{"id":"176","land-id":"09771","name":"Baar (Schwaben)","population":1279,"population_man":658,"population_woman":621,"area":0.0}},{"type":"Feature","geometry":{"type":"Point","coordinates":[10.718321007631843,48.42545465951296]},"properties":{"id":"111","land-id":"09772","name":"Adelsried","population":2604,"population_man":1300,"population_woman":1304,"area":9.66}},{"type":"Feature","geometry":{"type":"Point","coordinates":[10.815443754410017,48.61511756913372]},"properties":{"id":"114","land-id":"09772","name":"Allmannshofen","population":978,"population_man":505,"population_woman":473,"area":10.33}},{"type":"Feature","geometry":{"type":"Point","coordinates":[10.583207323165112,48.462360244502754]},"properties":{"id":"115","land-id":"09772","name":"Altenm\u00fcnster","population":4723,"population_man":2344,"population_woman":2379,"area":41.09}},{"type":"Feature","geometry":{"type":"Point","coordinates":[10.766592887632715,48.40718571495932]},"properties":{"id":"117","land-id":"09772","name":"Aystetten","population":3066,"population_man":1523,"population_woman":1543,"area":9.2}},{"type":"Feature","geometry":{"type":"Point","coordinates":[10.785836431767086,48.50895141215246]},"properties":{"id":"121","land-id":"09772","name":"Biberbach","population":3560,"population_man":1777,"population_woman":1783,"area":36.86}},{"type":"Feature","geometry":{"type":"Point","coordinates":[10.789455686215089,48.27301503259244]},"properties":{"id":"125","land-id":"09772","name":"Bobingen","population":17857,"population_man":8831,"population_woman":9026,"area":50.16}},{"type":"Feature","geometry":{"type":"Point","coordinates":[10.71180189805375,48.44255770276342]},"properties":{"id":"126","land-id":"09772","name":"Bonstetten","population":1602,"population_man":791,"population_woman":811,"area":6.8}},{"type":"Feature","geometry":{"type":"Point","coordinates":[10.763232494215424,48.3519328253074]},"properties":{"id":"130","land-id":"09772","name":"Diedorf","population":10729,"population_man":5208,"population_woman":5521,"area":33.31}},{"type":"Feature","geometry":{"type":"Point","coordinates":[10.585498612992941,48.34141510643617]},"properties":{"id":"131","land-id":"09772","name":"Dinkelscherben","population":6750,"population_man":3486,"population_woman":3264,"area":67.74}},{"type":"Feature","geometry":{"type":"Point","coordinates":[10.792301356728398,48.590347811946145]},"properties":{"id":"134","land-id":"09772","name":"Ehingen","population":1151,"population_man":565,"population_woman":586,"area":9.65}},{"type":"Feature","geometry":{"type":"Point","coordinates":[10.864154943787153,48.61373783137503]},"properties":{"id":"136","land-id":"09772","name":"Ellgau","population":1182,"population_man":617,"population_woman":565,"area":13.91}},{"type":"Feature","geometry":{"type":"Point","coordinates":[10.674620159251814,48.481663952406045]},"properties":{"id":"137","land-id":"09772","name":"Emersacker","population":1502,"population_man":731,"population_woman":771,"area":11.64}},{"type":"Feature","geometry":{"type":"Point","coordinates":[10.650926335448782,48.283263108050235]},"properties":{"id":"141","land-id":"09772","name":"Fischach","population":5010,"population_man":2536,"population_woman":2474,"area":30.14}},{"type":"Feature","geometry":{"type":"Point","coordinates":[10.813201785102608,48.456652280584414]},"properties":{"id":"145","land-id":"09772","name":"Gablingen","population":4815,"population_man":2580,"population_woman":2235,"area":26.66}},{"type":"Feature","geometry":{"type":"Point","coordinates":[10.822706737803612,48.4297865483868]},"properties":{"id":"147","land-id":"09772","name":"Gersthofen","population":23393,"population_man":11566,"population_woman":11827,"area":34.03}},{"type":"Feature","geometry":{"type":"Point","coordinates":[10.714619164943874,48.30342344356177]},"properties":{"id":"148","land-id":"09772","name":"Gessertshausen","population":4442,"population_man":2189,"population_woman":2253,"area":41.36}},{"type":"Feature","geometry":{"type":"Point","coordinates":[10.835466069217937,48.191352367859444]},"properties":{"id":"149","land-id":"09772","name":"Graben","population":4022,"population_man":2041,"population_woman":1981,"area":14.5}},{"type":"Feature","geometry":{"type":"Point","coordinates":[10.746831464057298,48.23133485822419]},"properties":{"id":"151","land-id":"09772","name":"Gro\u00dfaitingen","population":5286,"population_man":2620,"population_woman":2666,"area":39.15}},{"type":"Feature","geometry":{"type":"Point","coordinates":[10.726951979171984,48.46251388914752]},"properties":{"id":"156","land-id":"09772","name":"Heretsried","population":1037,"population_man":525,"population_woman":512,"area":17.29}},{"type":"Feature","geometry":{"type":"Point","coordinates":[10.713609635842705,48.153789112617574]},"properties":{"id":"157","land-id":"09772","name":"Hiltenfingen","population":1626,"population_man":823,"population_woman":803,"area":14.54}},{"type":"Feature","geometry":{"type":"Point","coordinates":[10.68553682357559,48.39731758726119]},"properties":{"id":"159","land-id":"09772","name":"Horgau","population":2952,"population_man":1457,"population_woman":1495,"area":26.44}},{"type":"Feature","geometry":{"type":"Point","coordinates":[10.860838886703865,48.21137998532912]},"properties":{"id":"160","land-id":"09772","name":"Kleinaitingen","population":1333,"population_man":692,"population_woman":641,"area":15.6}},{"type":"Feature","geometry":{"type":"Point","coordinates":[10.836330045941565,48.15457945444512]},"properties":{"id":"162","land-id":"09772","name":"Klosterlechfeld","population":2980,"population_man":1477,"population_woman":1503,"area":2.39}},{"type":"Feature","geometry":{"type":"Point","coordinates":[10.885399111994332,48.260815525178145]},"properties":{"id":"163","land-id":"09772","name":"K\u00f6nigsbrunn","population":27939,"population_man":13763,"population_woman":14176,"area":18.5}},{"type":"Feature","geometry":{"type":"Point","coordinates":[10.801585524579606,48.56832837946982]},"properties":{"id":"166","land-id":"09772","name":"K\u00fchlenthal","population":861,"population_man":425,"population_woman":436,"area":7.11}},{"type":"Feature","geometry":{"type":"Point","coordinates":[10.692465081570518,48.355935142293255]},"properties":{"id":"167","land-id":"09772","name":"Kutzenhausen","population":2692,"population_man":1347,"population_woman":1345,"area":27.88}},{"type":"Feature","geometry":{"type":"Point","coordinates":[10.602998339856622,48.259897084089275]},"properties":{"id":"168","land-id":"09772","name":"Langenneufnach","population":1901,"population_man":977,"population_woman":924,"area":12.84}},{"type":"Feature","geometry":{"type":"Point","coordinates":[10.748606675741419,48.125954347256936]},"properties":{"id":"170","land-id":"09772","name":"Langerringen","population":4180,"population_man":2126,"population_woman":2054,"area":42.02}},{"type":"Feature","geometry":{"type":"Point","coordinates":[10.837041621685007,48.48291911406232]},"properties":{"id":"171","land-id":"09772","name":"Langweid a.Lech","population":8780,"population_man":4368,"population_woman":4412,"area":23.52}},{"type":"Feature","geometry":{"type":"Point","coordinates":[10.833588721118755,48.54478603838488]},"properties":{"id":"177","land-id":"09772","name":"Meitingen","population":12249,"population_man":6094,"population_woman":6155,"area":29.78}},{"type":"Feature","geometry":{"type":"Point","coordinates":[10.630330174841667,48.226000684988044]},"properties":{"id":"178","land-id":"09772","name":"Mickhausen","population":1384,"population_man":723,"population_woman":661,"area":15.91}},{"type":"Feature","geometry":{"type":"Point","coordinates":[10.596775737379572,48.18155947515335]},"properties":{"id":"179","land-id":"09772","name":"Mittelneufnach","population":1065,"population_man":534,"population_woman":531,"area":16.82}},{"type":"Feature","geometry":{"type":"Point","coordinates":[10.80972488445425,48.39341092140599]},"properties":{"id":"184","land-id":"09772","name":"Neus\u00e4\u00df","population":22670,"population_man":10917,"population_woman":11753,"area":25.2}},{"type":"Feature","geometry":{"type":"Point","coordinates":[10.8399748584554,48.56954483815993]},"properties":{"id":"185","land-id":"09772","name":"Nordendorf","population":2602,"population_man":1312,"population_woman":1290,"area":6.3}},{"type":"Feature","geometry":{"type":"Point","coordinates":[10.869073552372571,48.231327233532696]},"properties":{"id":"186","land-id":"09772","name":"Oberottmarshausen","population":1774,"population_man":887,"population_woman":887,"area":8.66}},{"type":"Feature","geometry":{"type":"Point","coordinates":[10.64551792245464,48.19048628738722]},"properties":{"id":"197","land-id":"09772","name":"Scherstetten","population":1095,"population_man":553,"population_woman":542,"area":15.7}},{"type":"Feature","geometry":{"type":"Point","coordinates":[10.728179264072512,48.19559888792892]},"properties":{"id":"200","land-id":"09772","name":"Schwabm\u00fcnchen","population":15213,"population_man":7466,"population_woman":7747,"area":55.55}},{"type":"Feature","geometry":{"type":"Point","coordinates":[10.83105458501747,48.35953757200293]},"properties":{"id":"202","land-id":"09772","name":"Stadtbergen","population":15625,"population_man":7671,"population_woman":7954,"area":11.47}},{"type":"Feature","geometry":{"type":"Point","coordinates":[10.915398902755326,48.561976699476304]},"properties":{"id":"207","land-id":"09772","name":"Thierhaupten","population":4086,"population_man":2013,"population_woman":2073,"area":39.28}},{"type":"Feature","geometry":{"type":"Point","coordinates":[10.824293315215684,48.16712041300199]},"properties":{"id":"209","land-id":"09772","name":"Untermeitingen","population":7907,"population_man":3896,"population_woman":4011,"area":16.07}},{"type":"Feature","geometry":{"type":"Point","coordinates":[10.63991464336378,48.32242994190405]},"properties":{"id":"211","land-id":"09772","name":"Ustersbach","population":1245,"population_man":612,"population_woman":633,"area":11.08}},{"type":"Feature","geometry":{"type":"Point","coordinates":[10.587293725692627,48.228864700518905]},"properties":{"id":"214","land-id":"09772","name":"Walkertshofen","population":1172,"population_man":610,"population_woman":562,"area":12.66}},{"type":"Feature","geometry":{"type":"Point","coordinates":[10.804107883597652,48.249009580649115]},"properties":{"id":"215","land-id":"09772","name":"Wehringen","population":3136,"population_man":1593,"population_woman":1543,"area":14.07}},{"type":"Feature","geometry":{"type":"Point","coordinates":[10.653504025272092,48.453835114407525]},"properties":{"id":"216","land-id":"09772","name":"Welden","population":3814,"population_man":1865,"population_woman":1949,"area":17.96}},{"type":"Feature","geometry":{"type":"Point","coordinates":[10.8399748584554,48.56954483815993]},"properties":{"id":"217","land-id":"09772","name":"Westendorf","population":1706,"population_man":880,"population_woman":826,"area":6.3}},{"type":"Feature","geometry":{"type":"Point","coordinates":[10.596340687266222,48.406100203642424]},"properties":{"id":"223","land-id":"09772","name":"Zusmarshausen","population":6642,"population_man":3441,"population_woman":3201,"area":68.62}},{"type":"Feature","geometry":{"type":"Point","coordinates":[10.450163945661252,48.508338309753526]},"properties":{"id":"111","land-id":"09773","name":"Aislingen","population":1329,"population_man":678,"population_woman":651,"area":19.22}},{"type":"Feature","geometry":{"type":"Point","coordinates":[10.335004826794155,48.634662307276486]},"properties":{"id":"112","land-id":"09773","name":"Bachhagel","population":2306,"population_man":1165,"population_woman":1141,"area":19.8}},{"type":"Feature","geometry":{"type":"Point","coordinates":[10.321355582335459,48.53749285048044]},"properties":{"id":"113","land-id":"09773","name":"B\u00e4chingen a.d.Brenz","population":1354,"population_man":685,"population_woman":669,"area":7.34}},{"type":"Feature","geometry":{"type":"Point","coordinates":[10.63391199626471,48.56753333546393]},"properties":{"id":"116","land-id":"09773","name":"Binswangen","population":1351,"population_man":689,"population_woman":662,"area":11.98}},{"type":"Feature","geometry":{"type":"Point","coordinates":[10.579636232606084,48.71878391876459]},"properties":{"id":"117","land-id":"09773","name":"Bissingen","population":3574,"population_man":1787,"population_woman":1787,"area":64.22}},{"type":"Feature","geometry":{"type":"Point","coordinates":[10.614367630254192,48.646372445892254]},"properties":{"id":"119","land-id":"09773","name":"Blindheim","population":1785,"population_man":903,"population_woman":882,"area":26.36}},{"type":"Feature","geometry":{"type":"Point","coordinates":[10.719287830727652,48.610690796304695]},"properties":{"id":"122","land-id":"09773","name":"Buttenwiesen","population":6040,"population_man":3134,"population_woman":2906,"area":59.5}},{"type":"Feature","geometry":{"type":"Point","coordinates":[10.531274231850105,48.57486412831883]},"properties":{"id":"125","land-id":"09773","name":"Dillingen a.d.Donau","population":19792,"population_man":9829,"population_woman":9963,"area":75.54}},{"type":"Feature","geometry":{"type":"Point","coordinates":[10.488036882684044,48.50136312025379]},"properties":{"id":"133","land-id":"09773","name":"Gl\u00f6tt","population":1110,"population_man":562,"population_woman":548,"area":10.98}},{"type":"Feature","geometry":{"type":"Point","coordinates":[10.353652785344073,48.525619743776346]},"properties":{"id":"136","land-id":"09773","name":"Gundelfingen a.d.Donau","population":7743,"population_man":3872,"population_woman":3871,"area":53.93}},{"type":"Feature","geometry":{"type":"Point","coordinates":[10.362423421716947,48.606553791458325]},"properties":{"id":"137","land-id":"09773","name":"Haunsheim","population":1620,"population_man":816,"population_woman":804,"area":17.78}},{"type":"Feature","geometry":{"type":"Point","coordinates":[10.574656949231745,48.624341495929364]},"properties":{"id":"139","land-id":"09773","name":"H\u00f6chst\u00e4dt a.d.Donau","population":6956,"population_man":3396,"population_woman":3560,"area":37.41}},{"type":"Feature","geometry":{"type":"Point","coordinates":[10.53736677619499,48.50953443499232]},"properties":{"id":"140","land-id":"09773","name":"Holzheim","population":3770,"population_man":1899,"population_woman":1871,"area":40.84}},{"type":"Feature","geometry":{"type":"Point","coordinates":[10.707714162278336,48.51148374019696]},"properties":{"id":"143","land-id":"09773","name":"Laugna","population":1552,"population_man":780,"population_woman":772,"area":27.57}},{"type":"Feature","geometry":{"type":"Point","coordinates":[10.427702568187255,48.56270136826231]},"properties":{"id":"144","land-id":"09773","name":"Lauingen (Donau)","population":11482,"population_man":5792,"population_woman":5690,"area":44.4}},{"type":"Feature","geometry":{"type":"Point","coordinates":[10.539149842352359,48.66986020005474]},"properties":{"id":"146","land-id":"09773","name":"Lutzingen","population":957,"population_man":485,"population_woman":472,"area":24.94}},{"type":"Feature","geometry":{"type":"Point","coordinates":[10.45152130757476,48.6422677310984]},"properties":{"id":"147","land-id":"09773","name":"M\u00f6dingen","population":1418,"population_man":686,"population_woman":732,"area":23.02}},{"type":"Feature","geometry":{"type":"Point","coordinates":[10.498806662614577,48.65232201092064]},"properties":{"id":"150","land-id":"09773","name":"Finningen","population":1854,"population_man":950,"population_woman":904,"area":27.84}},{"type":"Feature","geometry":{"type":"Point","coordinates":[10.326299951546146,48.57831233559483]},"properties":{"id":"153","land-id":"09773","name":"Medlingen","population":984,"population_man":512,"population_woman":472,"area":17.08}},{"type":"Feature","geometry":{"type":"Point","coordinates":[10.657264791963941,48.645003633365185]},"properties":{"id":"164","land-id":"09773","name":"Schwenningen","population":1416,"population_man":718,"population_woman":698,"area":25.07}},{"type":"Feature","geometry":{"type":"Point","coordinates":[10.28872673349079,48.65879096147379]},"properties":{"id":"170","land-id":"09773","name":"Syrgenstein","population":3865,"population_man":1895,"population_woman":1970,"area":16.64}},{"type":"Feature","geometry":{"type":"Point","coordinates":[10.599628269966153,48.51381035994808]},"properties":{"id":"179","land-id":"09773","name":"Villenbach","population":1272,"population_man":631,"population_woman":641,"area":17.77}},{"type":"Feature","geometry":{"type":"Point","coordinates":[10.706921181446432,48.55477193148911]},"properties":{"id":"182","land-id":"09773","name":"Wertingen","population":9331,"population_man":4649,"population_woman":4682,"area":51.79}},{"type":"Feature","geometry":{"type":"Point","coordinates":[10.425054621323438,48.61378427739893]},"properties":{"id":"183","land-id":"09773","name":"Wittislingen","population":2517,"population_man":1237,"population_woman":1280,"area":17.37}},{"type":"Feature","geometry":{"type":"Point","coordinates":[10.398559125389164,48.66132688780262]},"properties":{"id":"186","land-id":"09773","name":"Ziertheim","population":1111,"population_man":559,"population_woman":552,"area":20.81}},{"type":"Feature","geometry":{"type":"Point","coordinates":[10.312159514415132,48.67867589223038]},"properties":{"id":"187","land-id":"09773","name":"Z\u00f6schingen","population":774,"population_man":375,"population_woman":399,"area":14.61}},{"type":"Feature","geometry":{"type":"Point","coordinates":[10.633613232789733,48.52540035842114]},"properties":{"id":"188","land-id":"09773","name":"Zusamaltheim","population":1280,"population_man":647,"population_woman":633,"area":17.98}},{"type":"Feature","geometry":{"type":"Point","coordinates":[10.400699131540017,48.19871084225844]},"properties":{"id":"111","land-id":"09774","name":"Aletshausen","population":1216,"population_man":614,"population_woman":602,"area":17.66}},{"type":"Feature","geometry":{"type":"Point","coordinates":[10.489556522620015,48.2352717027363]},"properties":{"id":"115","land-id":"09774","name":"Balzhausen","population":1236,"population_man":641,"population_woman":595,"area":14.58}},{"type":"Feature","geometry":{"type":"Point","coordinates":[10.442643841859166,48.24690142908443]},"properties":{"id":"116","land-id":"09774","name":"Ursberg","population":3236,"population_man":1621,"population_woman":1615,"area":25.37}},{"type":"Feature","geometry":{"type":"Point","coordinates":[10.303993365682217,48.23845458240741]},"properties":{"id":"117","land-id":"09774","name":"Breitenthal","population":1254,"population_man":621,"population_woman":633,"area":13.36}},{"type":"Feature","geometry":{"type":"Point","coordinates":[10.24864636753045,48.425392703240355]},"properties":{"id":"118","land-id":"09774","name":"Bubesheim","population":1651,"population_man":828,"population_woman":823,"area":6.92}},{"type":"Feature","geometry":{"type":"Point","coordinates":[10.201553315228766,48.3985243461117]},"properties":{"id":"119","land-id":"09774","name":"Bibertal","population":4886,"population_man":2447,"population_woman":2439,"area":27.28}},{"type":"Feature","geometry":{"type":"Point","coordinates":[10.383156537664537,48.42886112024041]},"properties":{"id":"121","land-id":"09774","name":"Burgau","population":10630,"population_man":5399,"population_woman":5231,"area":26.0}},{"type":"Feature","geometry":{"type":"Point","coordinates":[10.45971013781429,48.346883925681404]},"properties":{"id":"122","land-id":"09774","name":"Burtenbach","population":3579,"population_man":1893,"population_woman":1686,"area":37.58}},{"type":"Feature","geometry":{"type":"Point","coordinates":[10.326690162336002,48.26380294730405]},"properties":{"id":"124","land-id":"09774","name":"Deisenhausen","population":1414,"population_man":705,"population_woman":709,"area":11.68}},{"type":"Feature","geometry":{"type":"Point","coordinates":[10.427236775968442,48.467211525962966]},"properties":{"id":"127","land-id":"09774","name":"D\u00fcrrlauingen","population":1528,"population_man":796,"population_woman":732,"area":12.24}},{"type":"Feature","geometry":{"type":"Point","coordinates":[10.31115706807775,48.20706009095822]},"properties":{"id":"129","land-id":"09774","name":"Ebershausen","population":630,"population_man":333,"population_woman":297,"area":9.1}},{"type":"Feature","geometry":{"type":"Point","coordinates":[10.30486441728201,48.32771852400822]},"properties":{"id":"133","land-id":"09774","name":"Ellzee","population":1229,"population_man":618,"population_woman":611,"area":14.76}},{"type":"Feature","geometry":{"type":"Point","coordinates":[10.280222344895986,48.466174811985894]},"properties":{"id":"135","land-id":"09774","name":"G\u00fcnzburg","population":21708,"population_man":10798,"population_woman":10910,"area":55.41}},{"type":"Feature","geometry":{"type":"Point","coordinates":[10.408193024025827,48.50103996907448]},"properties":{"id":"136","land-id":"09774","name":"Gundremmingen","population":1378,"population_man":693,"population_woman":685,"area":10.86}},{"type":"Feature","geometry":{"type":"Point","coordinates":[10.45751662316954,48.44784295910793]},"properties":{"id":"140","land-id":"09774","name":"Haldenwang","population":2139,"population_man":1082,"population_woman":1057,"area":18.0}},{"type":"Feature","geometry":{"type":"Point","coordinates":[10.282090459383582,48.3753726853677]},"properties":{"id":"143","land-id":"09774","name":"Ichenhausen","population":9229,"population_man":4658,"population_woman":4571,"area":34.28}},{"type":"Feature","geometry":{"type":"Point","coordinates":[10.462379703887024,48.39160442422812]},"properties":{"id":"144","land-id":"09774","name":"Jettingen-Scheppach","population":7008,"population_man":3568,"population_woman":3440,"area":54.1}},{"type":"Feature","geometry":{"type":"Point","coordinates":[10.36748082069907,48.37336349048619]},"properties":{"id":"145","land-id":"09774","name":"Kammeltal","population":3346,"population_man":1694,"population_woman":1652,"area":41.6}},{"type":"Feature","geometry":{"type":"Point","coordinates":[10.285955444670712,48.40688055229898]},"properties":{"id":"148","land-id":"09774","name":"K\u00f6tz","population":3349,"population_man":1724,"population_woman":1625,"area":20.56}},{"type":"Feature","geometry":{"type":"Point","coordinates":[10.379188634764198,48.244861498892774]},"properties":{"id":"150","land-id":"09774","name":"Krumbach (Schwaben)","population":14185,"population_man":6985,"population_woman":7200,"area":44.61}},{"type":"Feature","geometry":{"type":"Point","coordinates":[10.516261916716083,48.434624213649364]},"properties":{"id":"151","land-id":"09774","name":"Landensberg","population":636,"population_man":324,"population_woman":312,"area":7.9}},{"type":"Feature","geometry":{"type":"Point","coordinates":[10.20442300630248,48.45158897971062]},"properties":{"id":"155","land-id":"09774","name":"Leipheim","population":7498,"population_man":3923,"population_woman":3575,"area":32.98}},{"type":"Feature","geometry":{"type":"Point","coordinates":[10.455381078556284,48.31356862836925]},"properties":{"id":"160","land-id":"09774","name":"M\u00fcnsterhausen","population":2011,"population_man":1025,"population_woman":986,"area":18.5}},{"type":"Feature","geometry":{"type":"Point","coordinates":[10.376630438689864,48.30405112094163]},"properties":{"id":"162","land-id":"09774","name":"Neuburg a.d.Kammel","population":3283,"population_man":1666,"population_woman":1617,"area":37.86}},{"type":"Feature","geometry":{"type":"Point","coordinates":[10.539802638523003,48.23267778009975]},"properties":{"id":"166","land-id":"09774","name":"Aichen","population":1175,"population_man":606,"population_woman":569,"area":17.7}},{"type":"Feature","geometry":{"type":"Point","coordinates":[10.36417406076973,48.47863291551093]},"properties":{"id":"171","land-id":"09774","name":"Offingen","population":4400,"population_man":2207,"population_woman":2193,"area":14.95}},{"type":"Feature","geometry":{"type":"Point","coordinates":[10.357804183451874,48.45550039231311]},"properties":{"id":"174","land-id":"09774","name":"Rettenbach","population":1710,"population_man":870,"population_woman":840,"area":12.69}},{"type":"Feature","geometry":{"type":"Point","coordinates":[10.459404672736154,48.426343401330556]},"properties":{"id":"178","land-id":"09774","name":"R\u00f6fingen","population":1189,"population_man":604,"population_woman":585,"area":6.67}},{"type":"Feature","geometry":{"type":"Point","coordinates":[10.478789159264812,48.2774379557456]},"properties":{"id":"185","land-id":"09774","name":"Thannhausen","population":6413,"population_man":3186,"population_woman":3227,"area":20.07}},{"type":"Feature","geometry":{"type":"Point","coordinates":[10.3103883275376,48.29291664517587]},"properties":{"id":"189","land-id":"09774","name":"Wiesenbach","population":1034,"population_man":516,"population_woman":518,"area":11.49}},{"type":"Feature","geometry":{"type":"Point","coordinates":[10.290089597875514,48.349238845349305]},"properties":{"id":"191","land-id":"09774","name":"Waldstetten","population":1269,"population_man":661,"population_woman":608,"area":11.12}},{"type":"Feature","geometry":{"type":"Point","coordinates":[10.349929435179167,48.18625170669361]},"properties":{"id":"192","land-id":"09774","name":"Waltenhausen","population":737,"population_man":388,"population_woman":349,"area":13.38}},{"type":"Feature","geometry":{"type":"Point","coordinates":[10.498854907861778,48.46595702605354]},"properties":{"id":"196","land-id":"09774","name":"Winterbach","population":781,"population_man":392,"population_woman":389,"area":14.84}},{"type":"Feature","geometry":{"type":"Point","coordinates":[10.54621462644234,48.28493175430006]},"properties":{"id":"198","land-id":"09774","name":"Ziemetshausen","population":3187,"population_man":1612,"population_woman":1575,"area":42.86}},{"type":"Feature","geometry":{"type":"Point","coordinates":[10.13058244868062,48.16802058159475]},"properties":{"id":"111","land-id":"09775","name":"Altenstadt","population":5397,"population_man":2774,"population_woman":2623,"area":31.3}},{"type":"Feature","geometry":{"type":"Point","coordinates":[10.096520656782303,48.25845221329974]},"properties":{"id":"115","land-id":"09775","name":"Bellenberg","population":4666,"population_man":2328,"population_woman":2338,"area":5.13}},{"type":"Feature","geometry":{"type":"Point","coordinates":[10.196308491943531,48.230482892829365]},"properties":{"id":"118","land-id":"09775","name":"Buch","population":4310,"population_man":2215,"population_woman":2095,"area":40.07}},{"type":"Feature","geometry":{"type":"Point","coordinates":[10.11064099565731,48.3791839450199]},"properties":{"id":"126","land-id":"09775","name":"Holzheim","population":2009,"population_man":1017,"population_woman":992,"area":7.61}},{"type":"Feature","geometry":{"type":"Point","coordinates":[10.115208850999107,48.227320198016294]},"properties":{"id":"129","land-id":"09775","name":"Illertissen","population":18342,"population_man":9152,"population_woman":9190,"area":36.35}},{"type":"Feature","geometry":{"type":"Point","coordinates":[10.136767325421719,48.12898748611543]},"properties":{"id":"132","land-id":"09775","name":"Kellm\u00fcnz a.d.Iller","population":1559,"population_man":809,"population_woman":750,"area":8.54}},{"type":"Feature","geometry":{"type":"Point","coordinates":[10.138701543695626,48.424232840846535]},"properties":{"id":"134","land-id":"09775","name":"Nersingen","population":9825,"population_man":4939,"population_woman":4886,"area":24.24}},{"type":"Feature","geometry":{"type":"Point","coordinates":[10.052587067105998,48.38063307084551]},"properties":{"id":"135","land-id":"09775","name":"Neu-Ulm","population":62200,"population_man":31122,"population_woman":31078,"area":80.95}},{"type":"Feature","geometry":{"type":"Point","coordinates":[10.08416189404104,48.44874654810916]},"properties":{"id":"139","land-id":"09775","name":"Elchingen","population":9882,"population_man":4898,"population_woman":4984,"area":24.85}},{"type":"Feature","geometry":{"type":"Point","coordinates":[10.196201851664624,48.170814734388635]},"properties":{"id":"141","land-id":"09775","name":"Oberroth","population":995,"population_man":514,"population_woman":481,"area":9.92}},{"type":"Feature","geometry":{"type":"Point","coordinates":[10.17808611953999,48.14020180213039]},"properties":{"id":"142","land-id":"09775","name":"Osterberg","population":921,"population_man":453,"population_woman":468,"area":13.81}},{"type":"Feature","geometry":{"type":"Point","coordinates":[10.161742296636032,48.36112979589352]},"properties":{"id":"143","land-id":"09775","name":"Pfaffenhofen a.d.Roth","population":7310,"population_man":3644,"population_woman":3666,"area":42.65}},{"type":"Feature","geometry":{"type":"Point","coordinates":[10.22658749496061,48.279986855826586]},"properties":{"id":"149","land-id":"09775","name":"Roggenburg","population":2698,"population_man":1359,"population_woman":1339,"area":27.55}},{"type":"Feature","geometry":{"type":"Point","coordinates":[10.068924862468037,48.322482333695156]},"properties":{"id":"152","land-id":"09775","name":"Senden","population":23591,"population_man":11558,"population_woman":12033,"area":25.17}},{"type":"Feature","geometry":{"type":"Point","coordinates":[10.18915887561117,48.196222229229164]},"properties":{"id":"161","land-id":"09775","name":"Unterroth","population":1079,"population_man":531,"population_woman":548,"area":15.35}},{"type":"Feature","geometry":{"type":"Point","coordinates":[10.091146453025706,48.28986243286741]},"properties":{"id":"162","land-id":"09775","name":"V\u00f6hringen","population":13997,"population_man":6933,"population_woman":7064,"area":23.67}},{"type":"Feature","geometry":{"type":"Point","coordinates":[10.173616131162957,48.304535833978264]},"properties":{"id":"164","land-id":"09775","name":"Wei\u00dfenhorn","population":14181,"population_man":7136,"population_woman":7045,"area":53.65}},{"type":"Feature","geometry":{"type":"Point","coordinates":[9.65926586064359,47.573489103088015]},"properties":{"id":"111","land-id":"09776","name":"Bodolz","population":2975,"population_man":1436,"population_woman":1539,"area":3.01}},{"type":"Feature","geometry":{"type":"Point","coordinates":[9.998047423769425,47.658121710094825]},"properties":{"id":"112","land-id":"09776","name":"Gestratz","population":1292,"population_man":657,"population_woman":635,"area":15.32}},{"type":"Feature","geometry":{"type":"Point","coordinates":[10.02380725312633,47.6222710764304]},"properties":{"id":"113","land-id":"09776","name":"Gr\u00fcnenbach","population":1561,"population_man":805,"population_woman":756,"area":25.03}},{"type":"Feature","geometry":{"type":"Point","coordinates":[9.904158985048552,47.63345977881763]},"properties":{"id":"114","land-id":"09776","name":"Heimenkirch","population":3451,"population_man":1703,"population_woman":1748,"area":21.31}},{"type":"Feature","geometry":{"type":"Point","coordinates":[9.780808305692938,47.61624047189747]},"properties":{"id":"115","land-id":"09776","name":"Hergensweiler","population":1894,"population_man":945,"population_woman":949,"area":12.17}},{"type":"Feature","geometry":{"type":"Point","coordinates":[9.692168615863824,47.57756627774868]},"properties":{"id":"116","land-id":"09776","name":"Lindau (Bodensee)","population":25898,"population_man":12362,"population_woman":13536,"area":33.07}},{"type":"Feature","geometry":{"type":"Point","coordinates":[9.8906157276097,47.604462423018795]},"properties":{"id":"117","land-id":"09776","name":"Lindenberg i.Allg\u00e4u","population":11550,"population_man":5671,"population_woman":5879,"area":11.84}},{"type":"Feature","geometry":{"type":"Point","coordinates":[10.045607453379088,47.657289213983375]},"properties":{"id":"118","land-id":"09776","name":"Maierh\u00f6fen","population":1493,"population_man":770,"population_woman":723,"area":17.9}},{"type":"Feature","geometry":{"type":"Point","coordinates":[9.614941904134414,47.576814684821976]},"properties":{"id":"120","land-id":"09776","name":"Nonnenhorn","population":1758,"population_man":815,"population_woman":943,"area":1.99}},{"type":"Feature","geometry":{"type":"Point","coordinates":[9.942385267605504,47.55260240381851]},"properties":{"id":"121","land-id":"09776","name":"Oberreute","population":1631,"population_man":839,"population_woman":792,"area":13.51}},{"type":"Feature","geometry":{"type":"Point","coordinates":[9.83841741884241,47.6273136216471]},"properties":{"id":"122","land-id":"09776","name":"Opfenbach","population":2333,"population_man":1203,"population_woman":1130,"area":16.62}},{"type":"Feature","geometry":{"type":"Point","coordinates":[9.954015039800648,47.630358346942096]},"properties":{"id":"124","land-id":"09776","name":"R\u00f6thenbach (Allg\u00e4u)","population":1978,"population_man":1017,"population_woman":961,"area":14.94}},{"type":"Feature","geometry":{"type":"Point","coordinates":[9.851493313867495,47.56974547245964]},"properties":{"id":"125","land-id":"09776","name":"Scheidegg","population":4415,"population_man":2194,"population_woman":2221,"area":27.32}},{"type":"Feature","geometry":{"type":"Point","coordinates":[9.782540441729857,47.59172594035265]},"properties":{"id":"126","land-id":"09776","name":"Sigmarszell","population":2944,"population_man":1493,"population_woman":1451,"area":15.96}},{"type":"Feature","geometry":{"type":"Point","coordinates":[10.006138389652298,47.58810693598585]},"properties":{"id":"127","land-id":"09776","name":"Stiefenhofen","population":1854,"population_man":923,"population_woman":931,"area":28.97}},{"type":"Feature","geometry":{"type":"Point","coordinates":[9.63940837135311,47.577249431694575]},"properties":{"id":"128","land-id":"09776","name":"Wasserburg (Bodensee)","population":3832,"population_man":1822,"population_woman":2010,"area":6.32}},{"type":"Feature","geometry":{"type":"Point","coordinates":[9.916720347516314,47.57673624420291]},"properties":{"id":"129","land-id":"09776","name":"Weiler-Simmerberg","population":6364,"population_man":3175,"population_woman":3189,"area":31.31}},{"type":"Feature","geometry":{"type":"Point","coordinates":[9.729813951715514,47.59202278361164]},"properties":{"id":"130","land-id":"09776","name":"Wei\u00dfensberg","population":2734,"population_man":1393,"population_woman":1341,"area":7.81}},{"type":"Feature","geometry":{"type":"Point","coordinates":[9.858041152646155,47.65798956311917]},"properties":{"id":"131","land-id":"09776","name":"Hergatz","population":2446,"population_man":1237,"population_woman":1209,"area":18.72}},{"type":"Feature","geometry":{"type":"Point","coordinates":[10.518428988097508,47.82554576498557]},"properties":{"id":"111","land-id":"09777","name":"Aitrang","population":1969,"population_man":981,"population_woman":988,"area":30.77}},{"type":"Feature","geometry":{"type":"Point","coordinates":[10.64169757904031,47.82134170516483]},"properties":{"id":"112","land-id":"09777","name":"Biessenhofen","population":4242,"population_man":2158,"population_woman":2084,"area":27.02}},{"type":"Feature","geometry":{"type":"Point","coordinates":[10.544095981450681,47.95180912714222]},"properties":{"id":"114","land-id":"09777","name":"Baisweil","population":1362,"population_man":686,"population_woman":676,"area":26.31}},{"type":"Feature","geometry":{"type":"Point","coordinates":[10.719846667269978,47.822046880977524]},"properties":{"id":"118","land-id":"09777","name":"Bidingen","population":1894,"population_man":967,"population_woman":927,"area":36.33}},{"type":"Feature","geometry":{"type":"Point","coordinates":[10.739283602921288,48.028893225932016]},"properties":{"id":"121","land-id":"09777","name":"Buchloe","population":13799,"population_man":6888,"population_woman":6911,"area":36.1}},{"type":"Feature","geometry":{"type":"Point","coordinates":[10.490779352884047,47.913529634819625]},"properties":{"id":"124","land-id":"09777","name":"Eggenthal","population":1403,"population_man":719,"population_woman":684,"area":28.08}},{"type":"Feature","geometry":{"type":"Point","coordinates":[10.597738618943133,47.61022141914477]},"properties":{"id":"125","land-id":"09777","name":"Eisenberg","population":1114,"population_man":561,"population_woman":553,"area":13.55}},{"type":"Feature","geometry":{"type":"Point","coordinates":[10.527699514904961,47.87222048405817]},"properties":{"id":"128","land-id":"09777","name":"Friesenried","population":1495,"population_man":754,"population_woman":741,"area":22.14}},{"type":"Feature","geometry":{"type":"Point","coordinates":[10.663693222711542,47.58320489549776]},"properties":{"id":"129","land-id":"09777","name":"F\u00fcssen","population":15405,"population_man":7195,"population_woman":8210,"area":43.49}},{"type":"Feature","geometry":{"type":"Point","coordinates":[10.679003034481969,47.94164813413359]},"properties":{"id":"130","land-id":"09777","name":"Germaringen","population":3837,"population_man":1895,"population_woman":1942,"area":22.86}},{"type":"Feature","geometry":{"type":"Point","coordinates":[10.499057180845352,47.69687108122112]},"properties":{"id":"131","land-id":"09777","name":"G\u00f6risried","population":1324,"population_man":672,"population_woman":652,"area":23.28}},{"type":"Feature","geometry":{"type":"Point","coordinates":[10.64412824344095,47.608115410067896]},"properties":{"id":"135","land-id":"09777","name":"Hopferau","population":1252,"population_man":616,"population_woman":636,"area":13.12}},{"type":"Feature","geometry":{"type":"Point","coordinates":[10.437782666034833,47.821017215000744]},"properties":{"id":"138","land-id":"09777","name":"G\u00fcnzach","population":1349,"population_man":663,"population_woman":686,"area":23.43}},{"type":"Feature","geometry":{"type":"Point","coordinates":[10.56285311272443,47.90715094973924]},"properties":{"id":"139","land-id":"09777","name":"Irsee","population":1553,"population_man":769,"population_woman":784,"area":17.4}},{"type":"Feature","geometry":{"type":"Point","coordinates":[10.701995148193069,47.988897557078126]},"properties":{"id":"140","land-id":"09777","name":"Jengen","population":2609,"population_man":1338,"population_woman":1271,"area":33.7}},{"type":"Feature","geometry":{"type":"Point","coordinates":[10.756324189893853,47.90720173125652]},"properties":{"id":"141","land-id":"09777","name":"Kaltental","population":1714,"population_man":874,"population_woman":840,"area":22.1}},{"type":"Feature","geometry":{"type":"Point","coordinates":[10.463839262931664,47.76650840924414]},"properties":{"id":"144","land-id":"09777","name":"Kraftisried","population":923,"population_man":459,"population_woman":464,"area":16.23}},{"type":"Feature","geometry":{"type":"Point","coordinates":[10.75043732487764,48.08017581162224]},"properties":{"id":"145","land-id":"09777","name":"Lamerdingen","population":2209,"population_man":1111,"population_woman":1098,"area":34.32}},{"type":"Feature","geometry":{"type":"Point","coordinates":[10.783546745672245,47.69195447190944]},"properties":{"id":"147","land-id":"09777","name":"Lechbruck am See","population":2701,"population_man":1339,"population_woman":1362,"area":17.19}},{"type":"Feature","geometry":{"type":"Point","coordinates":[10.598176446921288,47.6964684798885]},"properties":{"id":"149","land-id":"09777","name":"Lengenwang","population":1509,"population_man":773,"population_woman":736,"area":19.63}},{"type":"Feature","geometry":{"type":"Point","coordinates":[10.61917702281873,47.75744584207026]},"properties":{"id":"151","land-id":"09777","name":"Marktoberdorf","population":18621,"population_man":9444,"population_woman":9177,"area":95.1}},{"type":"Feature","geometry":{"type":"Point","coordinates":[10.67150319789869,47.874126470747356]},"properties":{"id":"152","land-id":"09777","name":"Mauerstetten","population":3207,"population_man":1595,"population_woman":1612,"area":16.43}},{"type":"Feature","geometry":{"type":"Point","coordinates":[10.504815269847871,47.61983208955278]},"properties":{"id":"153","land-id":"09777","name":"Nesselwang","population":3769,"population_man":1881,"population_woman":1888,"area":29.47}},{"type":"Feature","geometry":{"type":"Point","coordinates":[10.439183702584598,47.865365186452415]},"properties":{"id":"154","land-id":"09777","name":"Oberg\u00fcnzburg","population":6347,"population_man":3229,"population_woman":3118,"area":46.66}},{"type":"Feature","geometry":{"type":"Point","coordinates":[10.746543271961825,47.94882346245432]},"properties":{"id":"155","land-id":"09777","name":"Oberostendorf","population":1482,"population_man":727,"population_woman":755,"area":21.05}},{"type":"Feature","geometry":{"type":"Point","coordinates":[10.742693884429736,47.86491152399628]},"properties":{"id":"157","land-id":"09777","name":"Osterzell","population":710,"population_man":363,"population_woman":347,"area":10.79}},{"type":"Feature","geometry":{"type":"Point","coordinates":[10.605124188686256,47.936166638402185]},"properties":{"id":"158","land-id":"09777","name":"Pforzen","population":2415,"population_man":1205,"population_woman":1210,"area":23.64}},{"type":"Feature","geometry":{"type":"Point","coordinates":[10.532668176307585,47.57061234693753]},"properties":{"id":"159","land-id":"09777","name":"Pfronten","population":7684,"population_man":3660,"population_woman":4024,"area":62.24}},{"type":"Feature","geometry":{"type":"Point","coordinates":[10.708297018428127,47.624724836591696]},"properties":{"id":"163","land-id":"09777","name":"Rieden am Forggensee","population":1400,"population_man":709,"population_woman":691,"area":13.16}},{"type":"Feature","geometry":{"type":"Point","coordinates":[10.648093647100673,47.953576705889496]},"properties":{"id":"164","land-id":"09777","name":"Rieden","population":1408,"population_man":695,"population_woman":713,"area":8.44}},{"type":"Feature","geometry":{"type":"Point","coordinates":[10.40575301679297,47.900926191196106]},"properties":{"id":"165","land-id":"09777","name":"Ronsberg","population":1663,"population_man":832,"population_woman":831,"area":16.53}},{"type":"Feature","geometry":{"type":"Point","coordinates":[10.706331986057704,47.66266537890737]},"properties":{"id":"166","land-id":"09777","name":"Ro\u00dfhaupten","population":2245,"population_man":1126,"population_woman":1119,"area":38.94}},{"type":"Feature","geometry":{"type":"Point","coordinates":[10.580343964901482,47.82257410249716]},"properties":{"id":"167","land-id":"09777","name":"Ruderatshofen","population":1740,"population_man":876,"population_woman":864,"area":33.45}},{"type":"Feature","geometry":{"type":"Point","coordinates":[10.549475859006012,47.66135430795513]},"properties":{"id":"168","land-id":"09777","name":"R\u00fcckholz","population":983,"population_man":504,"population_woman":479,"area":17.23}},{"type":"Feature","geometry":{"type":"Point","coordinates":[10.767516224079618,47.56721958739046]},"properties":{"id":"169","land-id":"09777","name":"Schwangau","population":3190,"population_man":1554,"population_woman":1636,"area":75.98}},{"type":"Feature","geometry":{"type":"Point","coordinates":[10.615968270694951,47.65465840544462]},"properties":{"id":"170","land-id":"09777","name":"Seeg","population":3060,"population_man":1507,"population_woman":1553,"area":49.96}},{"type":"Feature","geometry":{"type":"Point","coordinates":[10.701091526311355,47.72972712125486]},"properties":{"id":"171","land-id":"09777","name":"St\u00f6tten a.Auerberg","population":1988,"population_man":1016,"population_woman":972,"area":40.7}},{"type":"Feature","geometry":{"type":"Point","coordinates":[10.707908508700696,47.87999388950903]},"properties":{"id":"172","land-id":"09777","name":"St\u00f6ttwang","population":1906,"population_man":950,"population_woman":956,"area":19.87}},{"type":"Feature","geometry":{"type":"Point","coordinates":[10.847330990337825,47.61124549843063]},"properties":{"id":"173","land-id":"09777","name":"Halblech","population":3366,"population_man":1633,"population_woman":1733,"area":125.2}},{"type":"Feature","geometry":{"type":"Point","coordinates":[10.501228432633035,47.76367553023057]},"properties":{"id":"175","land-id":"09777","name":"Unterthingau","population":2818,"population_man":1406,"population_woman":1412,"area":45.31}},{"type":"Feature","geometry":{"type":"Point","coordinates":[10.367270601438998,47.84554872795312]},"properties":{"id":"176","land-id":"09777","name":"Untrasried","population":1678,"population_man":860,"population_woman":818,"area":25.74}},{"type":"Feature","geometry":{"type":"Point","coordinates":[10.787572773205786,47.98861271725739]},"properties":{"id":"177","land-id":"09777","name":"Waal","population":2363,"population_man":1182,"population_woman":1181,"area":27.96}},{"type":"Feature","geometry":{"type":"Point","coordinates":[10.552896367801596,47.706712171447435]},"properties":{"id":"179","land-id":"09777","name":"Wald","population":1140,"population_man":590,"population_woman":550,"area":17.85}},{"type":"Feature","geometry":{"type":"Point","coordinates":[10.707478981418415,47.92463650379442]},"properties":{"id":"182","land-id":"09777","name":"Westendorf","population":1948,"population_man":975,"population_woman":973,"area":11.9}},{"type":"Feature","geometry":{"type":"Point","coordinates":[10.744806616125768,47.77795034910668]},"properties":{"id":"183","land-id":"09777","name":"Rettenbach a.Auerberg","population":909,"population_man":475,"population_woman":434,"area":12.92}},{"type":"Feature","geometry":{"type":"Point","coordinates":[10.688914736815736,48.070568443985955]},"properties":{"id":"111","land-id":"09778","name":"Amberg","population":1516,"population_man":779,"population_woman":737,"area":10.96}},{"type":"Feature","geometry":{"type":"Point","coordinates":[10.473052431535145,47.99999865308366]},"properties":{"id":"113","land-id":"09778","name":"Apfeltrach","population":966,"population_man":502,"population_woman":464,"area":14.97}},{"type":"Feature","geometry":{"type":"Point","coordinates":[10.246727900168981,48.13864543756689]},"properties":{"id":"115","land-id":"09778","name":"Babenhausen","population":5615,"population_man":2827,"population_woman":2788,"area":27.19}},{"type":"Feature","geometry":{"type":"Point","coordinates":[10.599752318505605,48.00078144367939]},"properties":{"id":"116","land-id":"09778","name":"Bad W\u00f6rishofen","population":16568,"population_man":7996,"population_woman":8572,"area":57.82}},{"type":"Feature","geometry":{"type":"Point","coordinates":[10.226196987435594,47.96406023813387]},"properties":{"id":"118","land-id":"09778","name":"Benningen","population":2092,"population_man":1043,"population_woman":1049,"area":11.1}},{"type":"Feature","geometry":{"type":"Point","coordinates":[10.312498445936255,47.885005045333784]},"properties":{"id":"119","land-id":"09778","name":"B\u00f6hen","population":758,"population_man":409,"population_woman":349,"area":20.51}},{"type":"Feature","geometry":{"type":"Point","coordinates":[10.20733145727487,48.08586357530724]},"properties":{"id":"120","land-id":"09778","name":"Boos","population":2339,"population_man":1179,"population_woman":1160,"area":17.57}},{"type":"Feature","geometry":{"type":"Point","coordinates":[10.386608814228367,48.1342153933237]},"properties":{"id":"121","land-id":"09778","name":"Breitenbrunn","population":2295,"population_man":1172,"population_woman":1123,"area":41.84}},{"type":"Feature","geometry":{"type":"Point","coordinates":[10.13107944036899,47.9878651918061]},"properties":{"id":"123","land-id":"09778","name":"Buxheim","population":3023,"population_man":1499,"population_woman":1524,"area":10.25}},{"type":"Feature","geometry":{"type":"Point","coordinates":[10.513053027451214,47.99415452159232]},"properties":{"id":"127","land-id":"09778","name":"Dirlewang","population":2256,"population_man":1173,"population_woman":1083,"area":23.2}},{"type":"Feature","geometry":{"type":"Point","coordinates":[10.272591677635841,48.08858737426945]},"properties":{"id":"130","land-id":"09778","name":"Egg a.d.G\u00fcnz","population":1184,"population_man":618,"population_woman":566,"area":20.72}},{"type":"Feature","geometry":{"type":"Point","coordinates":[10.529006535486515,48.18323713719241]},"properties":{"id":"134","land-id":"09778","name":"Eppishausen","population":1925,"population_man":980,"population_woman":945,"area":39.41}},{"type":"Feature","geometry":{"type":"Point","coordinates":[10.34574891831473,48.04995719793576]},"properties":{"id":"136","land-id":"09778","name":"Erkheim","population":3148,"population_man":1571,"population_woman":1577,"area":32.11}},{"type":"Feature","geometry":{"type":"Point","coordinates":[10.659591996414049,48.12591911720458]},"properties":{"id":"137","land-id":"09778","name":"Ettringen","population":3398,"population_man":1746,"population_woman":1652,"area":41.39}},{"type":"Feature","geometry":{"type":"Point","coordinates":[10.152520570406503,48.073745236052694]},"properties":{"id":"139","land-id":"09778","name":"Fellheim","population":1143,"population_man":587,"population_woman":556,"area":5.05}},{"type":"Feature","geometry":{"type":"Point","coordinates":[10.22984937837362,47.873081401907776]},"properties":{"id":"144","land-id":"09778","name":"Bad Gr\u00f6nenbach","population":5560,"population_man":2734,"population_woman":2826,"area":42.2}},{"type":"Feature","geometry":{"type":"Point","coordinates":[10.267986643287866,47.97297841352199]},"properties":{"id":"149","land-id":"09778","name":"Hawangen","population":1241,"population_man":658,"population_woman":583,"area":14.53}},{"type":"Feature","geometry":{"type":"Point","coordinates":[10.161316325840165,48.03982586293006]},"properties":{"id":"150","land-id":"09778","name":"Heimertingen","population":1825,"population_man":939,"population_woman":886,"area":13.75}},{"type":"Feature","geometry":{"type":"Point","coordinates":[10.247002507064154,48.02512678055934]},"properties":{"id":"151","land-id":"09778","name":"Holzg\u00fcnz","population":1346,"population_man":668,"population_woman":678,"area":12.12}},{"type":"Feature","geometry":{"type":"Point","coordinates":[10.32102777131717,48.15289756936125]},"properties":{"id":"157","land-id":"09778","name":"Kirchhaslach","population":1296,"population_man":682,"population_woman":614,"area":32.04}},{"type":"Feature","geometry":{"type":"Point","coordinates":[10.461895308013268,48.18158183620138]},"properties":{"id":"158","land-id":"09778","name":"Kirchheim i.Schw.","population":2506,"population_man":1288,"population_woman":1218,"area":31.95}},{"type":"Feature","geometry":{"type":"Point","coordinates":[10.150627752045686,47.90283093456853]},"properties":{"id":"161","land-id":"09778","name":"Kronburg","population":1768,"population_man":881,"population_woman":887,"area":20.22}},{"type":"Feature","geometry":{"type":"Point","coordinates":[10.24218828212331,47.94121090442893]},"properties":{"id":"162","land-id":"09778","name":"Lachen","population":1693,"population_man":861,"population_woman":832,"area":13.27}},{"type":"Feature","geometry":{"type":"Point","coordinates":[10.285264728967016,48.065285192666636]},"properties":{"id":"163","land-id":"09778","name":"Lauben","population":1414,"population_man":728,"population_woman":686,"area":18.42}},{"type":"Feature","geometry":{"type":"Point","coordinates":[10.10683749640342,47.88719860218603]},"properties":{"id":"164","land-id":"09778","name":"Lautrach","population":1256,"population_man":624,"population_woman":632,"area":8.05}},{"type":"Feature","geometry":{"type":"Point","coordinates":[10.142704411356851,47.85609317705824]},"properties":{"id":"165","land-id":"09778","name":"Legau","population":3223,"population_man":1637,"population_woman":1586,"area":36.34}},{"type":"Feature","geometry":{"type":"Point","coordinates":[10.399766746343122,47.954666967284396]},"properties":{"id":"168","land-id":"09778","name":"Markt Rettenbach","population":3978,"population_man":2008,"population_woman":1970,"area":51.42}},{"type":"Feature","geometry":{"type":"Point","coordinates":[10.593985206710126,48.14743230611093]},"properties":{"id":"169","land-id":"09778","name":"Markt Wald","population":2148,"population_man":1118,"population_woman":1030,"area":30.83}},{"type":"Feature","geometry":{"type":"Point","coordinates":[10.22325683051616,47.99131180040715]},"properties":{"id":"171","land-id":"09778","name":"Memmingerberg","population":3041,"population_man":1573,"population_woman":1468,"area":6.09}},{"type":"Feature","geometry":{"type":"Point","coordinates":[10.49574046892833,48.05464197262906]},"properties":{"id":"173","land-id":"09778","name":"Mindelheim","population":15552,"population_man":7832,"population_woman":7720,"area":56.43}},{"type":"Feature","geometry":{"type":"Point","coordinates":[10.200594432615135,48.05724623512245]},"properties":{"id":"177","land-id":"09778","name":"Niederrieden","population":1531,"population_man":793,"population_woman":738,"area":13.94}},{"type":"Feature","geometry":{"type":"Point","coordinates":[10.405622657812504,48.049475934621]},"properties":{"id":"180","land-id":"09778","name":"Kammlach","population":1827,"population_man":944,"population_woman":883,"area":26.65}},{"type":"Feature","geometry":{"type":"Point","coordinates":[10.413504471731612,48.09081337568302]},"properties":{"id":"183","land-id":"09778","name":"Oberrieden","population":1186,"population_man":657,"population_woman":529,"area":20.83}},{"type":"Feature","geometry":{"type":"Point","coordinates":[10.310084004967486,48.1141610379572]},"properties":{"id":"184","land-id":"09778","name":"Obersch\u00f6negg","population":1037,"population_man":557,"population_woman":480,"area":18.29}},{"type":"Feature","geometry":{"type":"Point","coordinates":[10.325634564837268,47.93223409734449]},"properties":{"id":"186","land-id":"09778","name":"Ottobeuren","population":8215,"population_man":4033,"population_woman":4182,"area":55.94}},{"type":"Feature","geometry":{"type":"Point","coordinates":[10.444757213250893,48.12274775505357]},"properties":{"id":"187","land-id":"09778","name":"Pfaffenhausen","population":2668,"population_man":1368,"population_woman":1300,"area":21.15}},{"type":"Feature","geometry":{"type":"Point","coordinates":[10.166311281927083,48.10247790848047]},"properties":{"id":"188","land-id":"09778","name":"Ple\u00df","population":886,"population_man":448,"population_woman":438,"area":15.39}},{"type":"Feature","geometry":{"type":"Point","coordinates":[10.485117566055353,48.126051953509695]},"properties":{"id":"190","land-id":"09778","name":"Salgen","population":1460,"population_man":746,"population_woman":714,"area":23.25}},{"type":"Feature","geometry":{"type":"Point","coordinates":[10.359652817859534,47.99974851633336]},"properties":{"id":"196","land-id":"09778","name":"Sontheim","population":2705,"population_man":1396,"population_woman":1309,"area":26.52}},{"type":"Feature","geometry":{"type":"Point","coordinates":[10.434004702095638,48.00983608869749]},"properties":{"id":"199","land-id":"09778","name":"Stetten","population":1462,"population_man":729,"population_woman":733,"area":15.69}},{"type":"Feature","geometry":{"type":"Point","coordinates":[10.217330421440023,48.00345357137131]},"properties":{"id":"202","land-id":"09778","name":"Trunkelsberg","population":1722,"population_man":848,"population_woman":874,"area":1.94}},{"type":"Feature","geometry":{"type":"Point","coordinates":[10.635754361938272,48.061487006603976]},"properties":{"id":"203","land-id":"09778","name":"T\u00fcrkheim","population":7193,"population_man":3656,"population_woman":3537,"area":31.51}},{"type":"Feature","geometry":{"type":"Point","coordinates":[10.555875108644488,48.10627575702317]},"properties":{"id":"204","land-id":"09778","name":"Tussenhausen","population":3047,"population_man":1598,"population_woman":1449,"area":41.76}},{"type":"Feature","geometry":{"type":"Point","coordinates":[10.263263333422666,48.001033328736995]},"properties":{"id":"205","land-id":"09778","name":"Ungerhausen","population":1087,"population_man":546,"population_woman":541,"area":7.0}},{"type":"Feature","geometry":{"type":"Point","coordinates":[10.47602534466123,47.9514955553583]},"properties":{"id":"207","land-id":"09778","name":"Unteregg","population":1399,"population_man":718,"population_woman":681,"area":23.7}},{"type":"Feature","geometry":{"type":"Point","coordinates":[10.582483666081922,48.06369009051099]},"properties":{"id":"209","land-id":"09778","name":"Rammingen","population":1570,"population_man":801,"population_woman":769,"area":19.25}},{"type":"Feature","geometry":{"type":"Point","coordinates":[10.297893524853254,48.02383538910928]},"properties":{"id":"214","land-id":"09778","name":"Westerheim","population":2265,"population_man":1212,"population_woman":1053,"area":21.11}},{"type":"Feature","geometry":{"type":"Point","coordinates":[10.671982009115386,48.035112725438744]},"properties":{"id":"216","land-id":"09778","name":"Wiedergeltingen","population":1449,"population_man":739,"population_woman":710,"area":11.6}},{"type":"Feature","geometry":{"type":"Point","coordinates":[10.215877796517885,48.11987429010906]},"properties":{"id":"217","land-id":"09778","name":"Winterrieden","population":945,"population_man":506,"population_woman":439,"area":9.81}},{"type":"Feature","geometry":{"type":"Point","coordinates":[10.258695700153837,47.90311362574146]},"properties":{"id":"218","land-id":"09778","name":"Wolfertschwenden","population":2110,"population_man":1062,"population_woman":1048,"area":14.48}},{"type":"Feature","geometry":{"type":"Point","coordinates":[10.197617034374526,47.92434581130849]},"properties":{"id":"219","land-id":"09778","name":"Woringen","population":2059,"population_man":1077,"population_woman":982,"area":17.41}},{"type":"Feature","geometry":{"type":"Point","coordinates":[10.26543785875181,48.19079643176389]},"properties":{"id":"221","land-id":"09778","name":"Kettershausen","population":1823,"population_man":946,"population_woman":877,"area":26.72}},{"type":"Feature","geometry":{"type":"Point","coordinates":[10.63675984784408,48.84593420403426]},"properties":{"id":"111","land-id":"09779","name":"Alerheim","population":1696,"population_man":837,"population_woman":859,"area":23.42}},{"type":"Feature","geometry":{"type":"Point","coordinates":[10.495693011778993,48.73559299803499]},"properties":{"id":"112","land-id":"09779","name":"Amerdingen","population":876,"population_man":423,"population_woman":453,"area":19.03}},{"type":"Feature","geometry":{"type":"Point","coordinates":[10.822593523794735,48.68762283962137]},"properties":{"id":"115","land-id":"09779","name":"Asbach-B\u00e4umenheim","population":4718,"population_man":2433,"population_woman":2285,"area":11.88}},{"type":"Feature","geometry":{"type":"Point","coordinates":[10.616700225448316,48.99778068411488]},"properties":{"id":"117","land-id":"09779","name":"Auhausen","population":1010,"population_man":533,"population_woman":477,"area":15.63}},{"type":"Feature","geometry":{"type":"Point","coordinates":[10.84176869812632,48.78344429677329]},"properties":{"id":"126","land-id":"09779","name":"Buchdorf","population":2003,"population_man":1047,"population_woman":956,"area":16.69}},{"type":"Feature","geometry":{"type":"Point","coordinates":[10.894530286154732,48.79320384650131]},"properties":{"id":"129","land-id":"09779","name":"Daiting","population":796,"population_man":413,"population_woman":383,"area":25.48}},{"type":"Feature","geometry":{"type":"Point","coordinates":[10.571610280830201,48.86498444319012]},"properties":{"id":"130","land-id":"09779","name":"Deiningen","population":1830,"population_man":912,"population_woman":918,"area":15.3}},{"type":"Feature","geometry":{"type":"Point","coordinates":[10.77221728609737,48.72390521768592]},"properties":{"id":"131","land-id":"09779","name":"Donauw\u00f6rth","population":19939,"population_man":9956,"population_woman":9983,"area":77.05}},{"type":"Feature","geometry":{"type":"Point","coordinates":[10.464327136231567,48.7959136029614]},"properties":{"id":"136","land-id":"09779","name":"Ederheim","population":1097,"population_man":565,"population_woman":532,"area":16.57}},{"type":"Feature","geometry":{"type":"Point","coordinates":[10.544006513429956,48.95963407130668]},"properties":{"id":"138","land-id":"09779","name":"Ehingen a.Ries","population":751,"population_man":379,"population_woman":372,"area":15.6}},{"type":"Feature","geometry":{"type":"Point","coordinates":[10.45482142054563,48.75721793202029]},"properties":{"id":"146","land-id":"09779","name":"Forheim","population":525,"population_man":261,"population_woman":264,"area":23.25}},{"type":"Feature","geometry":{"type":"Point","coordinates":[10.474288612248218,48.97807489889376]},"properties":{"id":"147","land-id":"09779","name":"Fremdingen","population":2056,"population_man":1036,"population_woman":1020,"area":50.02}},{"type":"Feature","geometry":{"type":"Point","coordinates":[10.77123051946529,48.83847715707696]},"properties":{"id":"148","land-id":"09779","name":"F\u00fcnfstetten","population":1343,"population_man":690,"population_woman":653,"area":26.69}},{"type":"Feature","geometry":{"type":"Point","coordinates":[10.868687472180259,48.70944838205585]},"properties":{"id":"149","land-id":"09779","name":"Genderkingen","population":1195,"population_man":623,"population_woman":572,"area":11.64}},{"type":"Feature","geometry":{"type":"Point","coordinates":[10.643478613604042,48.959903902946]},"properties":{"id":"154","land-id":"09779","name":"Hainsfarth","population":1425,"population_man":742,"population_woman":683,"area":17.56}},{"type":"Feature","geometry":{"type":"Point","coordinates":[10.688457012063857,48.782083050206055]},"properties":{"id":"155","land-id":"09779","name":"Harburg (Schwaben)","population":5546,"population_man":2836,"population_woman":2710,"area":73.17}},{"type":"Feature","geometry":{"type":"Point","coordinates":[10.521989111873262,48.77862737996378]},"properties":{"id":"162","land-id":"09779","name":"Hohenaltheim","population":552,"population_man":285,"population_woman":267,"area":17.79}},{"type":"Feature","geometry":{"type":"Point","coordinates":[10.953354909544954,48.61698630651721]},"properties":{"id":"163","land-id":"09779","name":"Holzheim","population":1137,"population_man":575,"population_woman":562,"area":20.25}},{"type":"Feature","geometry":{"type":"Point","coordinates":[10.70757442796179,48.83287055826809]},"properties":{"id":"167","land-id":"09779","name":"Huisheim","population":1618,"population_man":813,"population_woman":805,"area":22.78}},{"type":"Feature","geometry":{"type":"Point","coordinates":[10.808311145139243,48.77016773953267]},"properties":{"id":"169","land-id":"09779","name":"Kaisheim","population":3944,"population_man":2253,"population_woman":1691,"area":41.69}},{"type":"Feature","geometry":{"type":"Point","coordinates":[10.508776411772061,48.926872622060216]},"properties":{"id":"176","land-id":"09779","name":"Maihingen","population":1254,"population_man":668,"population_woman":586,"area":14.2}},{"type":"Feature","geometry":{"type":"Point","coordinates":[10.467297827118026,48.92885103783926]},"properties":{"id":"177","land-id":"09779","name":"Marktoffingen","population":1289,"population_man":678,"population_woman":611,"area":13.59}},{"type":"Feature","geometry":{"type":"Point","coordinates":[10.945670874849025,48.76059538363258]},"properties":{"id":"178","land-id":"09779","name":"Marxheim","population":2600,"population_man":1343,"population_woman":1257,"area":46.54}},{"type":"Feature","geometry":{"type":"Point","coordinates":[10.664278774181808,48.937793480881766]},"properties":{"id":"180","land-id":"09779","name":"Megesheim","population":812,"population_man":411,"population_woman":401,"area":12.51}},{"type":"Feature","geometry":{"type":"Point","coordinates":[10.791819210195845,48.6515095560381]},"properties":{"id":"181","land-id":"09779","name":"Mertingen","population":3891,"population_man":1940,"population_woman":1951,"area":38.4}},{"type":"Feature","geometry":{"type":"Point","coordinates":[10.59570650045476,48.76469450733706]},"properties":{"id":"184","land-id":"09779","name":"M\u00f6nchsdeggingen","population":1444,"population_man":736,"population_woman":708,"area":32.03}},{"type":"Feature","geometry":{"type":"Point","coordinates":[10.587490839922,48.80974346547371]},"properties":{"id":"185","land-id":"09779","name":"M\u00f6ttingen","population":2687,"population_man":1406,"population_woman":1281,"area":31.82}},{"type":"Feature","geometry":{"type":"Point","coordinates":[10.863078071913977,48.847845451670565]},"properties":{"id":"186","land-id":"09779","name":"Monheim","population":5474,"population_man":2834,"population_woman":2640,"area":69.23}},{"type":"Feature","geometry":{"type":"Point","coordinates":[10.905836616529738,48.61939085764013]},"properties":{"id":"187","land-id":"09779","name":"M\u00fcnster","population":1289,"population_man":675,"population_woman":614,"area":17.7}},{"type":"Feature","geometry":{"type":"Point","coordinates":[10.631309109755271,48.91503499824054]},"properties":{"id":"188","land-id":"09779","name":"Munningen","population":1714,"population_man":896,"population_woman":818,"area":22.71}},{"type":"Feature","geometry":{"type":"Point","coordinates":[10.92074928589725,48.72221134307654]},"properties":{"id":"192","land-id":"09779","name":"Niedersch\u00f6nenfeld","population":1413,"population_man":786,"population_woman":627,"area":14.35}},{"type":"Feature","geometry":{"type":"Point","coordinates":[10.511163122439205,48.85745346193783]},"properties":{"id":"194","land-id":"09779","name":"N\u00f6rdlingen","population":20408,"population_man":10135,"population_woman":10273,"area":68.03}},{"type":"Feature","geometry":{"type":"Point","coordinates":[10.860737062586193,48.667479834753635]},"properties":{"id":"196","land-id":"09779","name":"Oberndorf a.Lech","population":2649,"population_man":1369,"population_woman":1280,"area":19.33}},{"type":"Feature","geometry":{"type":"Point","coordinates":[10.578999295199795,48.956832637728034]},"properties":{"id":"197","land-id":"09779","name":"Oettingen i.Bay.","population":5057,"population_man":2498,"population_woman":2559,"area":34.24}},{"type":"Feature","geometry":{"type":"Point","coordinates":[10.799908506050468,48.87599878062285]},"properties":{"id":"198","land-id":"09779","name":"Otting","population":799,"population_man":402,"population_woman":397,"area":13.36}},{"type":"Feature","geometry":{"type":"Point","coordinates":[10.952054455640072,48.668803392413324]},"properties":{"id":"201","land-id":"09779","name":"Rain","population":9143,"population_man":4490,"population_woman":4653,"area":77.13}},{"type":"Feature","geometry":{"type":"Point","coordinates":[10.52228111797138,48.82853963354454]},"properties":{"id":"203","land-id":"09779","name":"Reimlingen","population":1353,"population_man":695,"population_woman":658,"area":9.49}},{"type":"Feature","geometry":{"type":"Point","coordinates":[10.947763570857857,48.846775957571225]},"properties":{"id":"206","land-id":"09779","name":"R\u00f6gling","population":623,"population_man":315,"population_woman":308,"area":10.69}},{"type":"Feature","geometry":{"type":"Point","coordinates":[10.963917710568014,48.82280236031389]},"properties":{"id":"217","land-id":"09779","name":"Tagmersheim","population":1059,"population_man":566,"population_woman":493,"area":16.0}},{"type":"Feature","geometry":{"type":"Point","coordinates":[10.689533426999075,48.68452503305141]},"properties":{"id":"218","land-id":"09779","name":"Tapfheim","population":4207,"population_man":2114,"population_woman":2093,"area":44.34}},{"type":"Feature","geometry":{"type":"Point","coordinates":[10.474385459674847,48.890859999995484]},"properties":{"id":"224","land-id":"09779","name":"Wallerstein","population":3377,"population_man":1691,"population_woman":1686,"area":19.45}},{"type":"Feature","geometry":{"type":"Point","coordinates":[10.621632992346589,48.88387544784261]},"properties":{"id":"226","land-id":"09779","name":"Wechingen","population":1401,"population_man":712,"population_woman":689,"area":24.01}},{"type":"Feature","geometry":{"type":"Point","coordinates":[10.709126057906436,48.87799183267976]},"properties":{"id":"228","land-id":"09779","name":"Wemding","population":5779,"population_man":2841,"population_woman":2938,"area":31.62}},{"type":"Feature","geometry":{"type":"Point","coordinates":[10.779892521597063,48.91148626036972]},"properties":{"id":"231","land-id":"09779","name":"Wolferstadt","population":1093,"population_man":555,"population_woman":538,"area":30.61}},{"type":"Feature","geometry":{"type":"Point","coordinates":[10.17733005319532,47.79076117413964]},"properties":{"id":"112","land-id":"09780","name":"Altusried","population":10257,"population_man":5164,"population_woman":5093,"area":91.63}},{"type":"Feature","geometry":{"type":"Point","coordinates":[10.114755287454559,47.4355687206639]},"properties":{"id":"113","land-id":"09780","name":"Balderschwang","population":222,"population_man":110,"population_woman":112,"area":41.72}},{"type":"Feature","geometry":{"type":"Point","coordinates":[10.408240602374839,47.73362440168352]},"properties":{"id":"114","land-id":"09780","name":"Betzigau","population":2867,"population_man":1405,"population_woman":1462,"area":29.25}},{"type":"Feature","geometry":{"type":"Point","coordinates":[10.185840305848366,47.502466720056916]},"properties":{"id":"115","land-id":"09780","name":"Blaichach","population":5452,"population_man":2666,"population_woman":2786,"area":50.13}},{"type":"Feature","geometry":{"type":"Point","coordinates":[10.213997325984547,47.46091476367731]},"properties":{"id":"116","land-id":"09780","name":"Bolsterlang","population":994,"population_man":482,"population_woman":512,"area":20.32}},{"type":"Feature","geometry":{"type":"Point","coordinates":[10.195171453214785,47.70745445951846]},"properties":{"id":"117","land-id":"09780","name":"Buchenberg","population":4089,"population_man":2033,"population_woman":2056,"area":58.15}},{"type":"Feature","geometry":{"type":"Point","coordinates":[10.299213152669028,47.54486386073029]},"properties":{"id":"118","land-id":"09780","name":"Burgberg i.Allg\u00e4u","population":3017,"population_man":1464,"population_woman":1553,"area":15.94}},{"type":"Feature","geometry":{"type":"Point","coordinates":[10.283049129275287,47.82892499859694]},"properties":{"id":"119","land-id":"09780","name":"Dietmannsried","population":8467,"population_man":4223,"population_woman":4244,"area":53.66}},{"type":"Feature","geometry":{"type":"Point","coordinates":[10.381158796813498,47.696146269780144]},"properties":{"id":"120","land-id":"09780","name":"Durach","population":6957,"population_man":3401,"population_woman":3556,"area":20.76}},{"type":"Feature","geometry":{"type":"Point","coordinates":[10.26753424249372,47.451399060501046]},"properties":{"id":"121","land-id":"09780","name":"Fischen i.Allg\u00e4u","population":2963,"population_man":1463,"population_woman":1500,"area":13.59}},{"type":"Feature","geometry":{"type":"Point","coordinates":[10.358843848872459,47.79109445259215]},"properties":{"id":"122","land-id":"09780","name":"Haldenwang","population":3781,"population_man":1897,"population_woman":1884,"area":26.59}},{"type":"Feature","geometry":{"type":"Point","coordinates":[10.401716860290362,47.46686676554]},"properties":{"id":"123","land-id":"09780","name":"Bad Hindelang","population":5046,"population_man":2459,"population_woman":2587,"area":137.07}},{"type":"Feature","geometry":{"type":"Point","coordinates":[10.195247702987183,47.57422957910629]},"properties":{"id":"124","land-id":"09780","name":"Immenstadt i.Allg\u00e4u","population":14031,"population_man":6790,"population_woman":7241,"area":81.28}},{"type":"Feature","geometry":{"type":"Point","coordinates":[10.309129820828423,47.78021569629309]},"properties":{"id":"125","land-id":"09780","name":"Lauben","population":3469,"population_man":1710,"population_woman":1759,"area":8.43}},{"type":"Feature","geometry":{"type":"Point","coordinates":[10.111300940285782,47.598421175470584]},"properties":{"id":"127","land-id":"09780","name":"Missen-Wilhams","population":1566,"population_man":774,"population_woman":792,"area":34.9}},{"type":"Feature","geometry":{"type":"Point","coordinates":[10.439261404335397,47.648633595355385]},"properties":{"id":"128","land-id":"09780","name":"Oy-Mittelberg","population":4598,"population_man":2296,"population_woman":2302,"area":60.22}},{"type":"Feature","geometry":{"type":"Point","coordinates":[10.193913730165233,47.43369604040835]},"properties":{"id":"131","land-id":"09780","name":"Obermaiselstein","population":970,"population_man":490,"population_woman":480,"area":25.05}},{"type":"Feature","geometry":{"type":"Point","coordinates":[10.058074359464745,47.528130395114076]},"properties":{"id":"132","land-id":"09780","name":"Oberstaufen","population":7243,"population_man":3550,"population_woman":3693,"area":125.91}},{"type":"Feature","geometry":{"type":"Point","coordinates":[10.268003531665975,47.36873016175024]},"properties":{"id":"133","land-id":"09780","name":"Oberstdorf","population":9319,"population_man":4491,"population_woman":4828,"area":229.69}},{"type":"Feature","geometry":{"type":"Point","coordinates":[10.23743857573943,47.4973247815551]},"properties":{"id":"134","land-id":"09780","name":"Ofterschwang","population":1925,"population_man":948,"population_woman":977,"area":19.52}},{"type":"Feature","geometry":{"type":"Point","coordinates":[10.319110009165115,47.58644707252504]},"properties":{"id":"137","land-id":"09780","name":"Rettenberg","population":4471,"population_man":2248,"population_woman":2223,"area":60.16}},{"type":"Feature","geometry":{"type":"Point","coordinates":[10.31395000674177,47.50474286781513]},"properties":{"id":"139","land-id":"09780","name":"Sonthofen","population":21709,"population_man":10345,"population_woman":11364,"area":46.45}},{"type":"Feature","geometry":{"type":"Point","coordinates":[10.355603794375964,47.65945785208842]},"properties":{"id":"140","land-id":"09780","name":"Sulzberg","population":5006,"population_man":2485,"population_woman":2521,"area":40.87}},{"type":"Feature","geometry":{"type":"Point","coordinates":[10.265436906163897,47.64847120708456]},"properties":{"id":"143","land-id":"09780","name":"Waltenhofen","population":9807,"population_man":4939,"population_woman":4868,"area":59.74}},{"type":"Feature","geometry":{"type":"Point","coordinates":[10.148417939942437,47.653678215531464]},"properties":{"id":"144","land-id":"09780","name":"Weitnau","population":5300,"population_man":2655,"population_woman":2645,"area":65.24}},{"type":"Feature","geometry":{"type":"Point","coordinates":[10.411919040524863,47.58405032580303]},"properties":{"id":"145","land-id":"09780","name":"Wertach","population":2687,"population_man":1329,"population_woman":1358,"area":45.65}},{"type":"Feature","geometry":{"type":"Point","coordinates":[10.214545294594593,47.743946362168984]},"properties":{"id":"146","land-id":"09780","name":"Wiggensbach","population":4931,"population_man":2473,"population_woman":2458,"area":31.81}},{"type":"Feature","geometry":{"type":"Point","coordinates":[10.415339775941789,47.77573983982431]},"properties":{"id":"147","land-id":"09780","name":"Wildpoldsried","population":2558,"population_man":1268,"population_woman":1290,"area":21.37}}]}