{"type":"FeatureCollection","features":[{"type":"Feature","geometry":{"type":"Point","coordinates":[11.858288070098732,48.830025603914734]},"properties":{"id":"111","land-id":"09273","name":"Abensberg","population":15040,"area":60.31,"centroid_coordinates":[11.858288070098732,48.830025603914734]}},{"type":"Feature","geometry":{"type":"Point","coordinates":[11.712717902563385,48.69268964667201]},"properties":{"id":"113","land-id":"09273","name":"Aiglsbach","population":1889,"area":39.77,"centroid_coordinates":[11.712717902563385,48.69268964667201]}},{"type":"Feature","geometry":{"type":"Point","coordinates":[11.847131465323008,48.65705237465012]},"properties":{"id":"115","land-id":"09273","name":"Attenhofen","population":1448,"area":31.32,"centroid_coordinates":[11.847131465323008,48.65705237465012]}},{"type":"Feature","geometry":{"type":"Point","coordinates":[12.053136352435143,48.910474570852685]},"properties":{"id":"116","land-id":"09273","name":"Bad Abbach","population":12531,"area":55.29,"centroid_coordinates":[12.053136352435143,48.910474570852685]}},{"type":"Feature","geometry":{"type":"Point","coordinates":[11.848823183165267,48.78353737387557]},"properties":{"id":"119","land-id":"09273","name":"Biburg","population":1420,"area":14.24,"centroid_coordinates":[11.848823183165267,48.78353737387557]}},{"type":"Feature","geometry":{"type":"Point","coordinates":[11.803947205605098,48.94049776225795]},"properties":{"id":"121","land-id":"09273","name":"Essing","population":1120,"area":17.29,"centroid_coordinates":[11.803947205605098,48.94049776225795]}},{"type":"Feature","geometry":{"type":"Point","coordinates":[11.988227681400646,48.8453504301742]},"properties":{"id":"125","land-id":"09273","name":"Hausen","population":2248,"area":34.55,"centroid_coordinates":[11.988227681400646,48.8453504301742]}},{"type":"Feature","geometry":{"type":"Point","coordinates":[12.06844345932893,48.78486726341101]},"properties":{"id":"127","land-id":"09273","name":"Herrngiersdorf","population":1383,"area":25.12,"centroid_coordinates":[12.06844345932893,48.78486726341101]}},{"type":"Feature","geometry":{"type":"Point","coordinates":[11.850312813488951,48.953256145613054]},"properties":{"id":"133","land-id":"09273","name":"Ihrlerstein","population":4172,"area":23.01,"centroid_coordinates":[11.850312813488951,48.953256145613054]}},{"type":"Feature","geometry":{"type":"Point","coordinates":[11.858408051064346,48.910514169332934]},"properties":{"id":"137","land-id":"09273","name":"Kelheim","population":17039,"area":100.37,"centroid_coordinates":[11.858408051064346,48.910514169332934]}},{"type":"Feature","geometry":{"type":"Point","coordinates":[11.914143560901579,48.763464109338265]},"properties":{"id":"139","land-id":"09273","name":"Kirchdorf","population":930,"area":16.53,"centroid_coordinates":[11.914143560901579,48.763464109338265]}},{"type":"Feature","geometry":{"type":"Point","coordinates":[12.051567657037204,48.830157395094616]},"properties":{"id":"141","land-id":"09273","name":"Langquaid","population":5949,"area":56.63,"centroid_coordinates":[12.051567657037204,48.830157395094616]}},{"type":"Feature","geometry":{"type":"Point","coordinates":[11.765391584015923,48.6418498087325]},"properties":{"id":"147","land-id":"09273","name":"Mainburg","population":15286,"area":61.61,"centroid_coordinates":[11.765391584015923,48.6418498087325]}},{"type":"Feature","geometry":{"type":"Point","coordinates":[11.763575004939891,48.82334986062152]},"properties":{"id":"152","land-id":"09273","name":"Neustadt a.d.Donau","population":14708,"area":93.55,"centroid_coordinates":[11.763575004939891,48.82334986062152]}},{"type":"Feature","geometry":{"type":"Point","coordinates":[11.835519153653484,48.99555866735946]},"properties":{"id":"159","land-id":"09273","name":"Painten","population":2252,"area":36.75,"centroid_coordinates":[11.835519153653484,48.99555866735946]}},{"type":"Feature","geometry":{"type":"Point","coordinates":[11.821424344836805,48.69971717621108]},"properties":{"id":"163","land-id":"09273","name":"Elsendorf","population":2131,"area":32.63,"centroid_coordinates":[11.821424344836805,48.69971717621108]}},{"type":"Feature","geometry":{"type":"Point","coordinates":[11.69072625100627,48.9692223635864]},"properties":{"id":"164","land-id":"09273","name":"Riedenburg","population":6109,"area":100.51,"centroid_coordinates":[11.69072625100627,48.9692223635864]}},{"type":"Feature","geometry":{"type":"Point","coordinates":[11.96831954101216,48.776879083190465]},"properties":{"id":"165","land-id":"09273","name":"Rohr i.NB","population":3472,"area":54.24,"centroid_coordinates":[11.96831954101216,48.776879083190465]}},{"type":"Feature","geometry":{"type":"Point","coordinates":[11.930619853428793,48.86853373207834]},"properties":{"id":"166","land-id":"09273","name":"Saal a.d.Donau","population":5658,"area":43.91,"centroid_coordinates":[11.930619853428793,48.86853373207834]}},{"type":"Feature","geometry":{"type":"Point","coordinates":[11.850429583394654,48.74563627978386]},"properties":{"id":"172","land-id":"09273","name":"Siegenburg","population":4128,"area":27.77,"centroid_coordinates":[11.850429583394654,48.74563627978386]}},{"type":"Feature","geometry":{"type":"Point","coordinates":[12.011280037511995,48.89051630937243]},"properties":{"id":"175","land-id":"09273","name":"Teugn","population":1756,"area":17.09,"centroid_coordinates":[12.011280037511995,48.89051630937243]}},{"type":"Feature","geometry":{"type":"Point","coordinates":[11.824555871794523,48.727418783421456]},"properties":{"id":"177","land-id":"09273","name":"Train","population":1969,"area":10.08,"centroid_coordinates":[11.824555871794523,48.727418783421456]}},{"type":"Feature","geometry":{"type":"Point","coordinates":[11.862885415798374,48.60913265297061]},"properties":{"id":"178","land-id":"09273","name":"Volkenschwand","population":1776,"area":29.23,"centroid_coordinates":[11.862885415798374,48.60913265297061]}},{"type":"Feature","geometry":{"type":"Point","coordinates":[11.907761169537084,48.72572408660428]},"properties":{"id":"181","land-id":"09273","name":"Wildenberg","population":1431,"area":18.18,"centroid_coordinates":[11.907761169537084,48.72572408660428]}}]}