{"type":"FeatureCollection","features":[{"type":"Feature","geometry":{"type":"Point","coordinates":[12.89619620032342,48.73659258089592]},"properties":{"id":"111","land-id":"09271","name":"Aholming","population":2383,"area":29.38,"centroid_coordinates":[12.89619620032342,48.73659258089592]}},{"type":"Feature","geometry":{"type":"Point","coordinates":[13.096295807617839,48.80904768028034]},"properties":{"id":"113","land-id":"09271","name":"Auerbach","population":2133,"area":24.11,"centroid_coordinates":[13.096295807617839,48.80904768028034]}},{"type":"Feature","geometry":{"type":"Point","coordinates":[13.221485886734591,48.73321700300684]},"properties":{"id":"114","land-id":"09271","name":"Au\u00dfernzell","population":1536,"area":24.11,"centroid_coordinates":[13.221485886734591,48.73321700300684]}},{"type":"Feature","geometry":{"type":"Point","coordinates":[12.907541466470525,48.91335280519429]},"properties":{"id":"116","land-id":"09271","name":"Bernried","population":4768,"area":39.4,"centroid_coordinates":[12.907541466470525,48.91335280519429]}},{"type":"Feature","geometry":{"type":"Point","coordinates":[12.930754884070925,48.70165425881206]},"properties":{"id":"118","land-id":"09271","name":"Buchhofen","population":979,"area":15.78,"centroid_coordinates":[12.930754884070925,48.70165425881206]}},{"type":"Feature","geometry":{"type":"Point","coordinates":[12.975490101955183,48.83741601523939]},"properties":{"id":"119","land-id":"09271","name":"Deggendorf","population":34812,"area":77.16,"centroid_coordinates":[12.975490101955183,48.83741601523939]}},{"type":"Feature","geometry":{"type":"Point","coordinates":[12.986447848665675,48.90901748850282]},"properties":{"id":"122","land-id":"09271","name":"Grafling","population":2707,"area":46.3,"centroid_coordinates":[12.986447848665675,48.90901748850282]}},{"type":"Feature","geometry":{"type":"Point","coordinates":[13.159673796185542,48.80512819472253]},"properties":{"id":"123","land-id":"09271","name":"Grattersdorf","population":1354,"area":25.91,"centroid_coordinates":[13.159673796185542,48.80512819472253]}},{"type":"Feature","geometry":{"type":"Point","coordinates":[13.07526557927078,48.772185245059084]},"properties":{"id":"125","land-id":"09271","name":"Hengersberg","population":7816,"area":45.78,"centroid_coordinates":[13.07526557927078,48.772185245059084]}},{"type":"Feature","geometry":{"type":"Point","coordinates":[13.173227131918896,48.84514874020911]},"properties":{"id":"126","land-id":"09271","name":"Hunding","population":1149,"area":14.66,"centroid_coordinates":[13.173227131918896,48.84514874020911]}},{"type":"Feature","geometry":{"type":"Point","coordinates":[13.160876669666585,48.722202035595416]},"properties":{"id":"127","land-id":"09271","name":"Iggensbach","population":2223,"area":19.1,"centroid_coordinates":[13.160876669666585,48.722202035595416]}},{"type":"Feature","geometry":{"type":"Point","coordinates":[13.06007954615648,48.65279319148265]},"properties":{"id":"128","land-id":"09271","name":"K\u00fcnzing","population":3236,"area":40.35,"centroid_coordinates":[13.06007954615648,48.65279319148265]}},{"type":"Feature","geometry":{"type":"Point","coordinates":[13.126197002993623,48.858198477977034]},"properties":{"id":"130","land-id":"09271","name":"Lalling","population":1655,"area":27.96,"centroid_coordinates":[13.126197002993623,48.858198477977034]}},{"type":"Feature","geometry":{"type":"Point","coordinates":[12.911770368053977,48.856192348717244]},"properties":{"id":"132","land-id":"09271","name":"Metten","population":4290,"area":11.97,"centroid_coordinates":[12.911770368053977,48.856192348717244]}},{"type":"Feature","geometry":{"type":"Point","coordinates":[12.966537721301101,48.760017072823956]},"properties":{"id":"135","land-id":"09271","name":"Moos","population":2385,"area":32.26,"centroid_coordinates":[12.966537721301101,48.760017072823956]}},{"type":"Feature","geometry":{"type":"Point","coordinates":[13.026576341057352,48.76694473895893]},"properties":{"id":"138","land-id":"09271","name":"Niederalteich","population":1766,"area":9.96,"centroid_coordinates":[13.026576341057352,48.76694473895893]}},{"type":"Feature","geometry":{"type":"Point","coordinates":[12.834398036075125,48.708894035712724]},"properties":{"id":"139","land-id":"09271","name":"Oberp\u00f6ring","population":1206,"area":17.41,"centroid_coordinates":[12.834398036075125,48.708894035712724]}},{"type":"Feature","geometry":{"type":"Point","coordinates":[12.871523950974577,48.872074051505386]},"properties":{"id":"140","land-id":"09271","name":"Offenberg","population":3326,"area":23.75,"centroid_coordinates":[12.871523950974577,48.872074051505386]}},{"type":"Feature","geometry":{"type":"Point","coordinates":[12.99825968015394,48.68258725676258]},"properties":{"id":"141","land-id":"09271","name":"Osterhofen","population":12211,"area":111.11,"centroid_coordinates":[12.99825968015394,48.68258725676258]}},{"type":"Feature","geometry":{"type":"Point","coordinates":[12.816496855278363,48.75742094221326]},"properties":{"id":"143","land-id":"09271","name":"Otzing","population":1990,"area":30.36,"centroid_coordinates":[12.816496855278363,48.75742094221326]}},{"type":"Feature","geometry":{"type":"Point","coordinates":[12.900918996913624,48.78329700581539]},"properties":{"id":"146","land-id":"09271","name":"Plattling","population":13187,"area":35.83,"centroid_coordinates":[12.900918996913624,48.78329700581539]}},{"type":"Feature","geometry":{"type":"Point","coordinates":[13.05690151784644,48.8488691858138]},"properties":{"id":"148","land-id":"09271","name":"Schaufling","population":1494,"area":25.25,"centroid_coordinates":[13.05690151784644,48.8488691858138]}},{"type":"Feature","geometry":{"type":"Point","coordinates":[13.190713411615668,48.772730395079144]},"properties":{"id":"149","land-id":"09271","name":"Sch\u00f6llnach","population":4793,"area":39.91,"centroid_coordinates":[13.190713411615668,48.772730395079144]}},{"type":"Feature","geometry":{"type":"Point","coordinates":[12.823034077596141,48.81107160445078]},"properties":{"id":"151","land-id":"09271","name":"Stephansposching","population":3217,"area":44.66,"centroid_coordinates":[12.823034077596141,48.81107160445078]}},{"type":"Feature","geometry":{"type":"Point","coordinates":[12.877499791810301,48.68684654102096]},"properties":{"id":"152","land-id":"09271","name":"Wallerfing","population":1266,"area":20.75,"centroid_coordinates":[12.877499791810301,48.68684654102096]}},{"type":"Feature","geometry":{"type":"Point","coordinates":[13.096682198546123,48.71682101095253]},"properties":{"id":"153","land-id":"09271","name":"Winzer","population":3777,"area":27.6,"centroid_coordinates":[13.096682198546123,48.71682101095253]}}]}