{"type":"FeatureCollection","features":[{"type":"Feature","geometry":{"type":"Point","coordinates":[12.89619620032342,48.73659258089592]},"properties":{"id":"111","land-id":"09271","name":"Aholming","population":2383,"area":29.38,"centroid_coordinates":[12.89619620032342,48.73659258089592]}},{"type":"Feature","geometry":{"type":"Point","coordinates":[13.096295807617839,48.80904768028034]},"properties":{"id":"113","land-id":"09271","name":"Auerbach","population":2133,"area":24.11,"centroid_coordinates":[13.096295807617839,48.80904768028034]}},{"type":"Feature","geometry":{"type":"Point","coordinates":[13.221485886734591,48.73321700300684]},"properties":{"id":"114","land-id":"09271","name":"Au\u00dfernzell","population":1536,"area":24.11,"centroid_coordinates":[13.221485886734591,48.73321700300684]}},{"type":"Feature","geometry":{"type":"Point","coordinates":[12.907541466470525,48.91335280519429]},"properties":{"id":"116","land-id":"09271","name":"Bernried","population":4768,"area":39.4,"centroid_coordinates":[12.907541466470525,48.91335280519429]}},{"type":"Feature","geometry":{"type":"Point","coordinates":[12.930754884070925,48.70165425881206]},"properties":{"id":"118","land-id":"09271","name":"Buchhofen","population":979,"area":15.78,"centroid_coordinates":[12.930754884070925,48.70165425881206]}},{"type":"Feature","geometry":{"type":"Point","coordinates":[12.975490101955183,48.83741601523939]},"properties":{"id":"119","land-id":"09271","name":"Deggendorf","population":34812,"area":77.16,"centroid_coordinates":[12.975490101955183,48.83741601523939]}},{"type":"Feature","geometry":{"type":"Point","coordinates":[12.986447848665675,48.90901748850282]},"properties":{"id":"122","land-id":"09271","name":"Grafling","population":2707,"area":46.3,"centroid_coordinates":[12.986447848665675,48.90901748850282]}},{"type":"Feature","geometry":{"type":"Point","coordinates":[13.159673796185542,48.80512819472253]},"properties":{"id":"123","land-id":"09271","name":"Grattersdorf","population":1354,"area":25.91,"centroid_coordinates":[13.159673796185542,48.80512819472253]}},{"type":"Feature","geometry":{"type":"Point","coordinates":[13.07526557927078,48.772185245059084]},"properties":{"id":"125","land-id":"09271","name":"Hengersberg","population":7816,"area":45.78,"centroid_coordinates":[13.07526557927078,48.772185245059084]}},{"type":"Feature","geometry":{"type":"Point","coordinates":[13.173227131918896,48.84514874020911]},"properties":{"id":"126","land-id":"09271","name":"Hunding","population":1149,"area":14.66,"centroid_coordinates":[13.173227131918896,48.84514874020911]}},{"type":"Feature","geometry":{"type":"Point","coordinates":[13.160876669666585,48.722202035595416]},"properties":{"id":"127","land-id":"09271","name":"Iggensbach","population":2223,"area":19.1,"centroid_coordinates":[13.160876669666585,48.722202035595416]}},{"type":"Feature","geometry":{"type":"Point","coordinates":[13.06007954615648,48.65279319148265]},"properties":{"id":"128","land-id":"09271","name":"K\u00fcnzing","population":3236,"area":40.35,"centroid_coordinates":[13.06007954615648,48.65279319148265]}},{"type":"Feature","geometry":{"type":"Point","coordinates":[13.126197002993623,48.858198477977034]},"properties":{"id":"130","land-id":"09271","name":"Lalling","population":1655,"area":27.96,"centroid_coordinates":[13.126197002993623,48.858198477977034]}},{"type":"Feature","geometry":{"type":"Point","coordinates":[12.911770368053977,48.856192348717244]},"properties":{"id":"132","land-id":"09271","name":"Metten","population":4290,"area":11.97,"centroid_coordinates":[12.911770368053977,48.856192348717244]}},{"type":"Feature","geometry":{"type":"Point","coordinates":[12.966537721301101,48.760017072823956]},"properties":{"id":"135","land-id":"09271","name":"Moos","population":2385,"area":32.26,"centroid_coordinates":[12.966537721301101,48.760017072823956]}},{"type":"Feature","geometry":{"type":"Point","coordinates":[13.026576341057352,48.76694473895893]},"properties":{"id":"138","land-id":"09271","name":"Niederalteich","population":1766,"area":9.96,"centroid_coordinates":[13.026576341057352,48.76694473895893]}},{"type":"Feature","geometry":{"type":"Point","coordinates":[12.834398036075125,48.708894035712724]},"properties":{"id":"139","land-id":"09271","name":"Oberp\u00f6ring","population":1206,"area":17.41,"centroid_coordinates":[12.834398036075125,48.708894035712724]}},{"type":"Feature","geometry":{"type":"Point","coordinates":[12.871523950974577,48.872074051505386]},"properties":{"id":"140","land-id":"09271","name":"Offenberg","population":3326,"area":23.75,"centroid_coordinates":[12.871523950974577,48.872074051505386]}},{"type":"Feature","geometry":{"type":"Point","coordinates":[12.99825968015394,48.68258725676258]},"properties":{"id":"141","land-id":"09271","name":"Osterhofen","population":12211,"area":111.11,"centroid_coordinates":[12.99825968015394,48.68258725676258]}},{"type":"Feature","geometry":{"type":"Point","coordinates":[12.816496855278363,48.75742094221326]},"properties":{"id":"143","land-id":"09271","name":"Otzing","population":1990,"area":30.36,"centroid_coordinates":[12.816496855278363,48.75742094221326]}},{"type":"Feature","geometry":{"type":"Point","coordinates":[12.900918996913624,48.78329700581539]},"properties":{"id":"146","land-id":"09271","name":"Plattling","population":13187,"area":35.83,"centroid_coordinates":[12.900918996913624,48.78329700581539]}},{"type":"Feature","geometry":{"type":"Point","coordinates":[13.05690151784644,48.8488691858138]},"properties":{"id":"148","land-id":"09271","name":"Schaufling","population":1494,"area":25.25,"centroid_coordinates":[13.05690151784644,48.8488691858138]}},{"type":"Feature","geometry":{"type":"Point","coordinates":[13.190713411615668,48.772730395079144]},"properties":{"id":"149","land-id":"09271","name":"Sch\u00f6llnach","population":4793,"area":39.91,"centroid_coordinates":[13.190713411615668,48.772730395079144]}},{"type":"Feature","geometry":{"type":"Point","coordinates":[12.823034077596141,48.81107160445078]},"properties":{"id":"151","land-id":"09271","name":"Stephansposching","population":3217,"area":44.66,"centroid_coordinates":[12.823034077596141,48.81107160445078]}},{"type":"Feature","geometry":{"type":"Point","coordinates":[12.877499791810301,48.68684654102096]},"properties":{"id":"152","land-id":"09271","name":"Wallerfing","population":1266,"area":20.75,"centroid_coordinates":[12.877499791810301,48.68684654102096]}},{"type":"Feature","geometry":{"type":"Point","coordinates":[13.096682198546123,48.71682101095253]},"properties":{"id":"153","land-id":"09271","name":"Winzer","population":3777,"area":27.6,"centroid_coordinates":[13.096682198546123,48.71682101095253]}},{"type":"Feature","geometry":{"type":"Point","coordinates":[13.303563129006907,48.893233372202054]},"properties":{"id":"116","land-id":"09272","name":"Eppenschlag","population":945,"area":17.04,"centroid_coordinates":[13.303563129006907,48.893233372202054]}},{"type":"Feature","geometry":{"type":"Point","coordinates":[13.551146462194243,48.820336251505076]},"properties":{"id":"118","land-id":"09272","name":"Freyung","population":7099,"area":48.66,"centroid_coordinates":[13.551146462194243,48.820336251505076]}},{"type":"Feature","geometry":{"type":"Point","coordinates":[13.453383389330567,48.73659707629171]},"properties":{"id":"119","land-id":"09272","name":"F\u00fcrsteneck","population":827,"area":10.42,"centroid_coordinates":[13.453383389330567,48.73659707629171]}},{"type":"Feature","geometry":{"type":"Point","coordinates":[13.400495140940055,48.84662172283455]},"properties":{"id":"120","land-id":"09272","name":"Grafenau","population":8136,"area":63.64,"centroid_coordinates":[13.400495140940055,48.84662172283455]}},{"type":"Feature","geometry":{"type":"Point","coordinates":[13.661488028124111,48.795058965475654]},"properties":{"id":"121","land-id":"09272","name":"Grainet","population":2408,"area":36.15,"centroid_coordinates":[13.661488028124111,48.795058965475654]}},{"type":"Feature","geometry":{"type":"Point","coordinates":[13.742669743122583,48.837294655781626]},"properties":{"id":"122","land-id":"09272","name":"Haidm\u00fchle","population":1370,"area":21.07,"centroid_coordinates":[13.742669743122583,48.837294655781626]}},{"type":"Feature","geometry":{"type":"Point","coordinates":[13.61330801139298,48.82915847094265]},"properties":{"id":"126","land-id":"09272","name":"Hinterschmiding","population":2458,"area":20.95,"centroid_coordinates":[13.61330801139298,48.82915847094265]}},{"type":"Feature","geometry":{"type":"Point","coordinates":[13.514151213225153,48.858152890821884]},"properties":{"id":"127","land-id":"09272","name":"Hohenau","population":3207,"area":43.34,"centroid_coordinates":[13.514151213225153,48.858152890821884]}},{"type":"Feature","geometry":{"type":"Point","coordinates":[13.2726633047691,48.84843514128622]},"properties":{"id":"128","land-id":"09272","name":"Innernzell","population":1513,"area":22.07,"centroid_coordinates":[13.2726633047691,48.84843514128622]}},{"type":"Feature","geometry":{"type":"Point","coordinates":[13.687520399431707,48.72798742706167]},"properties":{"id":"129","land-id":"09272","name":"Jandelsbrunn","population":3325,"area":42.46,"centroid_coordinates":[13.687520399431707,48.72798742706167]}},{"type":"Feature","geometry":{"type":"Point","coordinates":[13.588189028931668,48.906099670754465]},"properties":{"id":"134","land-id":"09272","name":"Mauth","population":2045,"area":28.67,"centroid_coordinates":[13.588189028931668,48.906099670754465]}},{"type":"Feature","geometry":{"type":"Point","coordinates":[13.758194888384892,48.74907457050253]},"properties":{"id":"136","land-id":"09272","name":"Neureichenau","population":4203,"area":46.28,"centroid_coordinates":[13.758194888384892,48.74907457050253]}},{"type":"Feature","geometry":{"type":"Point","coordinates":[13.441107696535415,48.777178623964936]},"properties":{"id":"138","land-id":"09272","name":"Perlesreut","population":2869,"area":29.67,"centroid_coordinates":[13.441107696535415,48.777178623964936]}},{"type":"Feature","geometry":{"type":"Point","coordinates":[13.665678787717823,48.88033319873146]},"properties":{"id":"139","land-id":"09272","name":"Philippsreut","population":620,"area":10.22,"centroid_coordinates":[13.665678787717823,48.88033319873146]}},{"type":"Feature","geometry":{"type":"Point","coordinates":[13.45948765319997,48.81126783435157]},"properties":{"id":"140","land-id":"09272","name":"Ringelai","population":1895,"area":16.33,"centroid_coordinates":[13.45948765319997,48.81126783435157]}},{"type":"Feature","geometry":{"type":"Point","coordinates":[13.516638447169266,48.75332668481159]},"properties":{"id":"141","land-id":"09272","name":"R\u00f6hrnbach","population":4296,"area":40.59,"centroid_coordinates":[13.516638447169266,48.75332668481159]}},{"type":"Feature","geometry":{"type":"Point","coordinates":[13.355965523737993,48.777658887729125]},"properties":{"id":"142","land-id":"09272","name":"Saldenburg","population":2000,"area":28.0,"centroid_coordinates":[13.355965523737993,48.777658887729125]}},{"type":"Feature","geometry":{"type":"Point","coordinates":[13.409410135368015,48.925846237886816]},"properties":{"id":"143","land-id":"09272","name":"Sankt Oswald-Riedlh\u00fctte","population":2956,"area":40.34,"centroid_coordinates":[13.409410135368015,48.925846237886816]}},{"type":"Feature","geometry":{"type":"Point","coordinates":[13.2232006472617,48.83546795112855]},"properties":{"id":"145","land-id":"09272","name":"Sch\u00f6fweg","population":1282,"area":19.07,"centroid_coordinates":[13.2232006472617,48.83546795112855]}},{"type":"Feature","geometry":{"type":"Point","coordinates":[13.481911525870721,48.90116441531493]},"properties":{"id":"146","land-id":"09272","name":"Neusch\u00f6nau","population":2170,"area":27.5,"centroid_coordinates":[13.481911525870721,48.90116441531493]}},{"type":"Feature","geometry":{"type":"Point","coordinates":[13.331663025765831,48.83692733138594]},"properties":{"id":"147","land-id":"09272","name":"Sch\u00f6nberg","population":3916,"area":32.76,"centroid_coordinates":[13.331663025765831,48.83692733138594]}},{"type":"Feature","geometry":{"type":"Point","coordinates":[13.34234504653903,48.929518445969]},"properties":{"id":"149","land-id":"09272","name":"Spiegelau","population":3876,"area":47.12,"centroid_coordinates":[13.34234504653903,48.929518445969]}},{"type":"Feature","geometry":{"type":"Point","coordinates":[13.300328632448023,48.76930242404798]},"properties":{"id":"150","land-id":"09272","name":"Thurmansbang","population":2601,"area":32.95,"centroid_coordinates":[13.300328632448023,48.76930242404798]}},{"type":"Feature","geometry":{"type":"Point","coordinates":[13.603877661180528,48.73503243212944]},"properties":{"id":"151","land-id":"09272","name":"Waldkirchen","population":11331,"area":79.88,"centroid_coordinates":[13.603877661180528,48.73503243212944]}},{"type":"Feature","geometry":{"type":"Point","coordinates":[13.2558747661473,48.78789927360422]},"properties":{"id":"152","land-id":"09272","name":"Zenting","population":1154,"area":22.16,"centroid_coordinates":[13.2558747661473,48.78789927360422]}},{"type":"Feature","geometry":{"type":"Point","coordinates":[11.858288070098732,48.830025603914734]},"properties":{"id":"111","land-id":"09273","name":"Abensberg","population":15040,"area":60.31,"centroid_coordinates":[11.858288070098732,48.830025603914734]}},{"type":"Feature","geometry":{"type":"Point","coordinates":[11.712717902563385,48.69268964667201]},"properties":{"id":"113","land-id":"09273","name":"Aiglsbach","population":1889,"area":39.77,"centroid_coordinates":[11.712717902563385,48.69268964667201]}},{"type":"Feature","geometry":{"type":"Point","coordinates":[11.847131465323008,48.65705237465012]},"properties":{"id":"115","land-id":"09273","name":"Attenhofen","population":1448,"area":31.32,"centroid_coordinates":[11.847131465323008,48.65705237465012]}},{"type":"Feature","geometry":{"type":"Point","coordinates":[12.053136352435143,48.910474570852685]},"properties":{"id":"116","land-id":"09273","name":"Bad Abbach","population":12531,"area":55.29,"centroid_coordinates":[12.053136352435143,48.910474570852685]}},{"type":"Feature","geometry":{"type":"Point","coordinates":[11.848823183165267,48.78353737387557]},"properties":{"id":"119","land-id":"09273","name":"Biburg","population":1420,"area":14.24,"centroid_coordinates":[11.848823183165267,48.78353737387557]}},{"type":"Feature","geometry":{"type":"Point","coordinates":[11.803947205605098,48.94049776225795]},"properties":{"id":"121","land-id":"09273","name":"Essing","population":1120,"area":17.29,"centroid_coordinates":[11.803947205605098,48.94049776225795]}},{"type":"Feature","geometry":{"type":"Point","coordinates":[11.988227681400646,48.8453504301742]},"properties":{"id":"125","land-id":"09273","name":"Hausen","population":2248,"area":34.55,"centroid_coordinates":[11.988227681400646,48.8453504301742]}},{"type":"Feature","geometry":{"type":"Point","coordinates":[12.06844345932893,48.78486726341101]},"properties":{"id":"127","land-id":"09273","name":"Herrngiersdorf","population":1383,"area":25.12,"centroid_coordinates":[12.06844345932893,48.78486726341101]}},{"type":"Feature","geometry":{"type":"Point","coordinates":[11.850312813488951,48.953256145613054]},"properties":{"id":"133","land-id":"09273","name":"Ihrlerstein","population":4172,"area":23.01,"centroid_coordinates":[11.850312813488951,48.953256145613054]}},{"type":"Feature","geometry":{"type":"Point","coordinates":[11.858408051064346,48.910514169332934]},"properties":{"id":"137","land-id":"09273","name":"Kelheim","population":17039,"area":100.37,"centroid_coordinates":[11.858408051064346,48.910514169332934]}},{"type":"Feature","geometry":{"type":"Point","coordinates":[11.914143560901579,48.763464109338265]},"properties":{"id":"139","land-id":"09273","name":"Kirchdorf","population":930,"area":16.53,"centroid_coordinates":[11.914143560901579,48.763464109338265]}},{"type":"Feature","geometry":{"type":"Point","coordinates":[12.051567657037204,48.830157395094616]},"properties":{"id":"141","land-id":"09273","name":"Langquaid","population":5949,"area":56.63,"centroid_coordinates":[12.051567657037204,48.830157395094616]}},{"type":"Feature","geometry":{"type":"Point","coordinates":[11.765391584015923,48.6418498087325]},"properties":{"id":"147","land-id":"09273","name":"Mainburg","population":15286,"area":61.61,"centroid_coordinates":[11.765391584015923,48.6418498087325]}},{"type":"Feature","geometry":{"type":"Point","coordinates":[11.763575004939891,48.82334986062152]},"properties":{"id":"152","land-id":"09273","name":"Neustadt a.d.Donau","population":14708,"area":93.55,"centroid_coordinates":[11.763575004939891,48.82334986062152]}},{"type":"Feature","geometry":{"type":"Point","coordinates":[11.835519153653484,48.99555866735946]},"properties":{"id":"159","land-id":"09273","name":"Painten","population":2252,"area":36.75,"centroid_coordinates":[11.835519153653484,48.99555866735946]}},{"type":"Feature","geometry":{"type":"Point","coordinates":[11.821424344836805,48.69971717621108]},"properties":{"id":"163","land-id":"09273","name":"Elsendorf","population":2131,"area":32.63,"centroid_coordinates":[11.821424344836805,48.69971717621108]}},{"type":"Feature","geometry":{"type":"Point","coordinates":[11.69072625100627,48.9692223635864]},"properties":{"id":"164","land-id":"09273","name":"Riedenburg","population":6109,"area":100.51,"centroid_coordinates":[11.69072625100627,48.9692223635864]}},{"type":"Feature","geometry":{"type":"Point","coordinates":[11.96831954101216,48.776879083190465]},"properties":{"id":"165","land-id":"09273","name":"Rohr i.NB","population":3472,"area":54.24,"centroid_coordinates":[11.96831954101216,48.776879083190465]}},{"type":"Feature","geometry":{"type":"Point","coordinates":[11.930619853428793,48.86853373207834]},"properties":{"id":"166","land-id":"09273","name":"Saal a.d.Donau","population":5658,"area":43.91,"centroid_coordinates":[11.930619853428793,48.86853373207834]}},{"type":"Feature","geometry":{"type":"Point","coordinates":[11.850429583394654,48.74563627978386]},"properties":{"id":"172","land-id":"09273","name":"Siegenburg","population":4128,"area":27.77,"centroid_coordinates":[11.850429583394654,48.74563627978386]}},{"type":"Feature","geometry":{"type":"Point","coordinates":[12.011280037511995,48.89051630937243]},"properties":{"id":"175","land-id":"09273","name":"Teugn","population":1756,"area":17.09,"centroid_coordinates":[12.011280037511995,48.89051630937243]}},{"type":"Feature","geometry":{"type":"Point","coordinates":[11.824555871794523,48.727418783421456]},"properties":{"id":"177","land-id":"09273","name":"Train","population":1969,"area":10.08,"centroid_coordinates":[11.824555871794523,48.727418783421456]}},{"type":"Feature","geometry":{"type":"Point","coordinates":[11.862885415798374,48.60913265297061]},"properties":{"id":"178","land-id":"09273","name":"Volkenschwand","population":1776,"area":29.23,"centroid_coordinates":[11.862885415798374,48.60913265297061]}},{"type":"Feature","geometry":{"type":"Point","coordinates":[11.907761169537084,48.72572408660428]},"properties":{"id":"181","land-id":"09273","name":"Wildenberg","population":1431,"area":18.18,"centroid_coordinates":[11.907761169537084,48.72572408660428]}},{"type":"Feature","geometry":{"type":"Point","coordinates":[12.282316014856573,48.536348904723965]},"properties":{"id":"111","land-id":"09274","name":"Adlkofen","population":4468,"area":47.86,"centroid_coordinates":[12.282316014856573,48.536348904723965]}},{"type":"Feature","geometry":{"type":"Point","coordinates":[12.465180426850457,48.52600678912727]},"properties":{"id":"112","land-id":"09274","name":"Aham","population":1943,"area":37.98,"centroid_coordinates":[12.465180426850457,48.52600678912727]}},{"type":"Feature","geometry":{"type":"Point","coordinates":[12.083849813908898,48.561765421941324]},"properties":{"id":"113","land-id":"09274","name":"Altdorf","population":11333,"area":22.97,"centroid_coordinates":[12.083849813908898,48.561765421941324]}},{"type":"Feature","geometry":{"type":"Point","coordinates":[12.189625492770935,48.445977249768404]},"properties":{"id":"114","land-id":"09274","name":"Altfraunhofen","population":2536,"area":24.23,"centroid_coordinates":[12.189625492770935,48.445977249768404]}},{"type":"Feature","geometry":{"type":"Point","coordinates":[12.197333218826696,48.41436903421506]},"properties":{"id":"118","land-id":"09274","name":"Baierbach","population":740,"area":16.78,"centroid_coordinates":[12.197333218826696,48.41436903421506]}},{"type":"Feature","geometry":{"type":"Point","coordinates":[12.299275891273139,48.71019644993887]},"properties":{"id":"119","land-id":"09274","name":"Bayerbach b.Ergoldsbach","population":1975,"area":25.41,"centroid_coordinates":[12.299275891273139,48.71019644993887]}},{"type":"Feature","geometry":{"type":"Point","coordinates":[12.411518404387746,48.407527095861646]},"properties":{"id":"120","land-id":"09274","name":"Bodenkirchen","population":5254,"area":62.06,"centroid_coordinates":[12.411518404387746,48.407527095861646]}},{"type":"Feature","geometry":{"type":"Point","coordinates":[12.046148038872374,48.44257629652013]},"properties":{"id":"121","land-id":"09274","name":"Buch a.Erlbach","population":3921,"area":26.71,"centroid_coordinates":[12.046148038872374,48.44257629652013]}},{"type":"Feature","geometry":{"type":"Point","coordinates":[12.049293324556483,48.486435655995685]},"properties":{"id":"124","land-id":"09274","name":"Eching","population":4245,"area":30.17,"centroid_coordinates":[12.049293324556483,48.486435655995685]}},{"type":"Feature","geometry":{"type":"Point","coordinates":[12.134408121785457,48.58998082204761]},"properties":{"id":"126","land-id":"09274","name":"Ergolding","population":13287,"area":37.21,"centroid_coordinates":[12.134408121785457,48.58998082204761]}},{"type":"Feature","geometry":{"type":"Point","coordinates":[12.214158158287523,48.69114351354284]},"properties":{"id":"127","land-id":"09274","name":"Ergoldsbach","population":8496,"area":57.01,"centroid_coordinates":[12.214158158287523,48.69114351354284]}},{"type":"Feature","geometry":{"type":"Point","coordinates":[12.217082819051189,48.621696811501316]},"properties":{"id":"128","land-id":"09274","name":"Essenbach","population":11973,"area":83.52,"centroid_coordinates":[12.217082819051189,48.621696811501316]}},{"type":"Feature","geometry":{"type":"Point","coordinates":[12.019777000974104,48.58811761623574]},"properties":{"id":"132","land-id":"09274","name":"Furth","population":3609,"area":20.99,"centroid_coordinates":[12.019777000974104,48.58811761623574]}},{"type":"Feature","geometry":{"type":"Point","coordinates":[12.267062755336454,48.469400737072846]},"properties":{"id":"134","land-id":"09274","name":"Geisenhausen","population":7280,"area":62.44,"centroid_coordinates":[12.267062755336454,48.469400737072846]}},{"type":"Feature","geometry":{"type":"Point","coordinates":[12.396792153903638,48.497767172969844]},"properties":{"id":"135","land-id":"09274","name":"Gerzen","population":1879,"area":16.99,"centroid_coordinates":[12.396792153903638,48.497767172969844]}},{"type":"Feature","geometry":{"type":"Point","coordinates":[12.097352348583295,48.65992130001442]},"properties":{"id":"141","land-id":"09274","name":"Hohenthann","population":4240,"area":68.29,"centroid_coordinates":[12.097352348583295,48.65992130001442]}},{"type":"Feature","geometry":{"type":"Point","coordinates":[12.36730808232099,48.53475143145824]},"properties":{"id":"145","land-id":"09274","name":"Kr\u00f6ning","population":2051,"area":39.64,"centroid_coordinates":[12.36730808232099,48.53475143145824]}},{"type":"Feature","geometry":{"type":"Point","coordinates":[12.190910234459412,48.49864441505038]},"properties":{"id":"146","land-id":"09274","name":"Kumhausen","population":5405,"area":37.08,"centroid_coordinates":[12.190910234459412,48.49864441505038]}},{"type":"Feature","geometry":{"type":"Point","coordinates":[12.150743022866612,48.735736219092374]},"properties":{"id":"153","land-id":"09274","name":"Neufahrn i.NB","population":4303,"area":38.68,"centroid_coordinates":[12.150743022866612,48.735736219092374]}},{"type":"Feature","geometry":{"type":"Point","coordinates":[12.223448899557814,48.39288594269022]},"properties":{"id":"154","land-id":"09274","name":"Neufraunhofen","population":1068,"area":17.98,"centroid_coordinates":[12.223448899557814,48.39288594269022]}},{"type":"Feature","geometry":{"type":"Point","coordinates":[12.320195447339822,48.591810724741144]},"properties":{"id":"156","land-id":"09274","name":"Niederaichbach","population":4222,"area":34.07,"centroid_coordinates":[12.320195447339822,48.591810724741144]}},{"type":"Feature","geometry":{"type":"Point","coordinates":[11.935377045352373,48.60127441943174]},"properties":{"id":"165","land-id":"09274","name":"Obers\u00fc\u00dfbach","population":1653,"area":23.61,"centroid_coordinates":[11.935377045352373,48.60127441943174]}},{"type":"Feature","geometry":{"type":"Point","coordinates":[11.942710424163472,48.66366940594434]},"properties":{"id":"172","land-id":"09274","name":"Pfeffenhausen","population":5454,"area":71.75,"centroid_coordinates":[11.942710424163472,48.66366940594434]}},{"type":"Feature","geometry":{"type":"Point","coordinates":[12.311802222425134,48.65755204164051]},"properties":{"id":"174","land-id":"09274","name":"Postau","population":1706,"area":34.81,"centroid_coordinates":[12.311802222425134,48.65755204164051]}},{"type":"Feature","geometry":{"type":"Point","coordinates":[12.038482299717014,48.716418851543544]},"properties":{"id":"176","land-id":"09274","name":"Rottenburg a.d.Laaber","population":8495,"area":90.19,"centroid_coordinates":[12.038482299717014,48.716418851543544]}},{"type":"Feature","geometry":{"type":"Point","coordinates":[12.43738521991638,48.47568254003271]},"properties":{"id":"179","land-id":"09274","name":"Schalkham","population":906,"area":22.74,"centroid_coordinates":[12.43738521991638,48.47568254003271]}},{"type":"Feature","geometry":{"type":"Point","coordinates":[12.112370987773145,48.49061131434905]},"properties":{"id":"182","land-id":"09274","name":"Tiefenbach","population":3939,"area":24.71,"centroid_coordinates":[12.112370987773145,48.49061131434905]}},{"type":"Feature","geometry":{"type":"Point","coordinates":[12.268701631322303,48.36910674356026]},"properties":{"id":"183","land-id":"09274","name":"Velden","population":6432,"area":49.39,"centroid_coordinates":[12.268701631322303,48.36910674356026]}},{"type":"Feature","geometry":{"type":"Point","coordinates":[12.345516805131279,48.44072896942304]},"properties":{"id":"184","land-id":"09274","name":"Vilsbiburg","population":12102,"area":68.84,"centroid_coordinates":[12.345516805131279,48.44072896942304]}},{"type":"Feature","geometry":{"type":"Point","coordinates":[12.120140980748394,48.448127546598585]},"properties":{"id":"185","land-id":"09274","name":"Vilsheim","population":2698,"area":21.73,"centroid_coordinates":[12.120140980748394,48.448127546598585]}},{"type":"Feature","geometry":{"type":"Point","coordinates":[12.020819252790997,48.61919239101735]},"properties":{"id":"187","land-id":"09274","name":"Weihmichl","population":2384,"area":32.13,"centroid_coordinates":[12.020819252790997,48.61919239101735]}},{"type":"Feature","geometry":{"type":"Point","coordinates":[12.364657402961784,48.666202080626675]},"properties":{"id":"188","land-id":"09274","name":"Weng","population":1378,"area":15.63,"centroid_coordinates":[12.364657402961784,48.666202080626675]}},{"type":"Feature","geometry":{"type":"Point","coordinates":[12.341401348468192,48.62670654872703]},"properties":{"id":"191","land-id":"09274","name":"W\u00f6rth a.d.Isar","population":3183,"area":4.84,"centroid_coordinates":[12.341401348468192,48.62670654872703]}},{"type":"Feature","geometry":{"type":"Point","coordinates":[12.325736473575839,48.35250928401473]},"properties":{"id":"193","land-id":"09274","name":"Wurmsham","population":1374,"area":28.15,"centroid_coordinates":[12.325736473575839,48.35250928401473]}},{"type":"Feature","geometry":{"type":"Point","coordinates":[12.004240876966312,48.53936128111568]},"properties":{"id":"194","land-id":"09274","name":"Bruckberg","population":5699,"area":51.13,"centroid_coordinates":[12.004240876966312,48.53936128111568]}},{"type":"Feature","geometry":{"type":"Point","coordinates":[13.30976243191558,48.681598215855175]},"properties":{"id":"111","land-id":"09275","name":"Aicha vorm Wald","population":2477,"area":20.36,"centroid_coordinates":[13.30976243191558,48.681598215855175]}},{"type":"Feature","geometry":{"type":"Point","coordinates":[13.058412116438433,48.55796664259659]},"properties":{"id":"112","land-id":"09275","name":"Aidenbach","population":3019,"area":17.08,"centroid_coordinates":[13.058412116438433,48.55796664259659]}},{"type":"Feature","geometry":{"type":"Point","coordinates":[13.056645280572605,48.59631191824325]},"properties":{"id":"114","land-id":"09275","name":"Aldersbach","population":4309,"area":45.87,"centroid_coordinates":[13.056645280572605,48.59631191824325]}},{"type":"Feature","geometry":{"type":"Point","coordinates":[13.30373651162386,48.33756543366084]},"properties":{"id":"116","land-id":"09275","name":"Bad F\u00fcssing","population":7850,"area":55.06,"centroid_coordinates":[13.30373651162386,48.33756543366084]}},{"type":"Feature","geometry":{"type":"Point","coordinates":[13.130796556770992,48.55367948745257]},"properties":{"id":"117","land-id":"09275","name":"Beutelsbach","population":1234,"area":20.37,"centroid_coordinates":[13.130796556770992,48.55367948745257]}},{"type":"Feature","geometry":{"type":"Point","coordinates":[13.777502214618586,48.695463761841495]},"properties":{"id":"118","land-id":"09275","name":"Breitenberg","population":1969,"area":29.82,"centroid_coordinates":[13.777502214618586,48.695463761841495]}},{"type":"Feature","geometry":{"type":"Point","coordinates":[13.529337117406543,48.67482880574841]},"properties":{"id":"119","land-id":"09275","name":"B\u00fcchlberg","population":4388,"area":28.07,"centroid_coordinates":[13.529337117406543,48.67482880574841]}},{"type":"Feature","geometry":{"type":"Point","coordinates":[13.25599892600432,48.70937296797801]},"properties":{"id":"120","land-id":"09275","name":"Eging a.See","population":4131,"area":23.67,"centroid_coordinates":[13.25599892600432,48.70937296797801]}},{"type":"Feature","geometry":{"type":"Point","coordinates":[13.323051647884387,48.713072664159064]},"properties":{"id":"121","land-id":"09275","name":"F\u00fcrstenstein","population":3538,"area":19.35,"centroid_coordinates":[13.323051647884387,48.713072664159064]}},{"type":"Feature","geometry":{"type":"Point","coordinates":[13.321247498980286,48.5307319831547]},"properties":{"id":"122","land-id":"09275","name":"F\u00fcrstenzell","population":8504,"area":79.21,"centroid_coordinates":[13.321247498980286,48.5307319831547]}},{"type":"Feature","geometry":{"type":"Point","coordinates":[13.1965761030157,48.4633394260321]},"properties":{"id":"124","land-id":"09275","name":"Bad Griesbach i.Rottal","population":8864,"area":70.06,"centroid_coordinates":[13.1965761030157,48.4633394260321]}},{"type":"Feature","geometry":{"type":"Point","coordinates":[13.145083135370252,48.50235552779117]},"properties":{"id":"125","land-id":"09275","name":"Haarbach","population":2473,"area":47.68,"centroid_coordinates":[13.145083135370252,48.50235552779117]}},{"type":"Feature","geometry":{"type":"Point","coordinates":[13.628923413722367,48.64898807806196]},"properties":{"id":"126","land-id":"09275","name":"Hauzenberg","population":12000,"area":82.54,"centroid_coordinates":[13.628923413722367,48.64898807806196]}},{"type":"Feature","geometry":{"type":"Point","coordinates":[13.167043307946312,48.67860283158274]},"properties":{"id":"127","land-id":"09275","name":"Hofkirchen","population":3570,"area":32.68,"centroid_coordinates":[13.167043307946312,48.67860283158274]}},{"type":"Feature","geometry":{"type":"Point","coordinates":[13.481161158160718,48.690038619162394]},"properties":{"id":"128","land-id":"09275","name":"Hutthurm","population":6314,"area":37.3,"centroid_coordinates":[13.481161158160718,48.690038619162394]}},{"type":"Feature","geometry":{"type":"Point","coordinates":[13.253452679680741,48.34569157629288]},"properties":{"id":"130","land-id":"09275","name":"Kirchham","population":2751,"area":18.44,"centroid_coordinates":[13.253452679680741,48.34569157629288]}},{"type":"Feature","geometry":{"type":"Point","coordinates":[13.124563406035861,48.36969473106262]},"properties":{"id":"131","land-id":"09275","name":"K\u00f6\u00dflarn","population":1882,"area":25.52,"centroid_coordinates":[13.124563406035861,48.36969473106262]}},{"type":"Feature","geometry":{"type":"Point","coordinates":[13.184585999683812,48.32443509325696]},"properties":{"id":"132","land-id":"09275","name":"Malching","population":1248,"area":25.2,"centroid_coordinates":[13.184585999683812,48.32443509325696]}},{"type":"Feature","geometry":{"type":"Point","coordinates":[13.402826637286456,48.51705629513659]},"properties":{"id":"133","land-id":"09275","name":"Neuburg a.Inn","population":4446,"area":41.7,"centroid_coordinates":[13.402826637286456,48.51705629513659]}},{"type":"Feature","geometry":{"type":"Point","coordinates":[13.411416531522537,48.45002490270253]},"properties":{"id":"134","land-id":"09275","name":"Neuhaus a.Inn","population":3405,"area":31.02,"centroid_coordinates":[13.411416531522537,48.45002490270253]}},{"type":"Feature","geometry":{"type":"Point","coordinates":[13.396964258465589,48.68957789888794]},"properties":{"id":"135","land-id":"09275","name":"Neukirchen vorm Wald","population":2982,"area":24.36,"centroid_coordinates":[13.396964258465589,48.68957789888794]}},{"type":"Feature","geometry":{"type":"Point","coordinates":[13.61418780522696,48.57326367957347]},"properties":{"id":"137","land-id":"09275","name":"Obernzell","population":3640,"area":18.17,"centroid_coordinates":[13.61418780522696,48.57326367957347]}},{"type":"Feature","geometry":{"type":"Point","coordinates":[13.21819252414934,48.55458802698181]},"properties":{"id":"138","land-id":"09275","name":"Ortenburg","population":7356,"area":60.81,"centroid_coordinates":[13.21819252414934,48.55458802698181]}},{"type":"Feature","geometry":{"type":"Point","coordinates":[13.327855212845165,48.395404150575544]},"properties":{"id":"141","land-id":"09275","name":"Pocking","population":16293,"area":68.91,"centroid_coordinates":[13.327855212845165,48.395404150575544]}},{"type":"Feature","geometry":{"type":"Point","coordinates":[13.19582266602576,48.3807107344164]},"properties":{"id":"143","land-id":"09275","name":"Rotthalm\u00fcnster","population":4671,"area":44.54,"centroid_coordinates":[13.19582266602576,48.3807107344164]}},{"type":"Feature","geometry":{"type":"Point","coordinates":[13.408066801398833,48.660444811207725]},"properties":{"id":"144","land-id":"09275","name":"Ruderting","population":3050,"area":13.04,"centroid_coordinates":[13.408066801398833,48.660444811207725]}},{"type":"Feature","geometry":{"type":"Point","coordinates":[13.31719797007437,48.46564239432995]},"properties":{"id":"145","land-id":"09275","name":"Ruhstorf a.d.Rott","population":7109,"area":51.49,"centroid_coordinates":[13.31719797007437,48.46564239432995]}},{"type":"Feature","geometry":{"type":"Point","coordinates":[13.480195066563384,48.62528315287576]},"properties":{"id":"146","land-id":"09275","name":"Salzweg","population":6503,"area":31.9,"centroid_coordinates":[13.480195066563384,48.62528315287576]}},{"type":"Feature","geometry":{"type":"Point","coordinates":[13.716471833196433,48.67307183264106]},"properties":{"id":"148","land-id":"09275","name":"Sonnen","population":1435,"area":16.45,"centroid_coordinates":[13.716471833196433,48.67307183264106]}},{"type":"Feature","geometry":{"type":"Point","coordinates":[13.268310520412712,48.43321084564376]},"properties":{"id":"149","land-id":"09275","name":"Tettenweis","population":1868,"area":28.73,"centroid_coordinates":[13.268310520412712,48.43321084564376]}},{"type":"Feature","geometry":{"type":"Point","coordinates":[13.550978735792203,48.60884653096721]},"properties":{"id":"150","land-id":"09275","name":"Thyrnau","population":4185,"area":33.82,"centroid_coordinates":[13.550978735792203,48.60884653096721]}},{"type":"Feature","geometry":{"type":"Point","coordinates":[13.369952617804735,48.635813302547746]},"properties":{"id":"151","land-id":"09275","name":"Tiefenbach","population":6472,"area":49.64,"centroid_coordinates":[13.369952617804735,48.635813302547746]}},{"type":"Feature","geometry":{"type":"Point","coordinates":[13.373870494346708,48.733243980287014]},"properties":{"id":"152","land-id":"09275","name":"Tittling","population":4128,"area":20.74,"centroid_coordinates":[13.373870494346708,48.733243980287014]}},{"type":"Feature","geometry":{"type":"Point","coordinates":[13.686211774150067,48.574236985666325]},"properties":{"id":"153","land-id":"09275","name":"Untergriesbach","population":6057,"area":73.68,"centroid_coordinates":[13.686211774150067,48.574236985666325]}},{"type":"Feature","geometry":{"type":"Point","coordinates":[13.180493386516414,48.616786023824616]},"properties":{"id":"154","land-id":"09275","name":"Vilshofen an der Donau","population":18039,"area":86.28,"centroid_coordinates":[13.180493386516414,48.616786023824616]}},{"type":"Feature","geometry":{"type":"Point","coordinates":[13.766918899181634,48.618471333523075]},"properties":{"id":"156","land-id":"09275","name":"Wegscheid","population":5412,"area":80.59,"centroid_coordinates":[13.766918899181634,48.618471333523075]}},{"type":"Feature","geometry":{"type":"Point","coordinates":[13.26360430234725,48.64154700088802]},"properties":{"id":"159","land-id":"09275","name":"Windorf","population":4984,"area":56.85,"centroid_coordinates":[13.26360430234725,48.64154700088802]}},{"type":"Feature","geometry":{"type":"Point","coordinates":[13.421778071469,48.72400230724419]},"properties":{"id":"160","land-id":"09275","name":"Witzmannsberg","population":1536,"area":18.61,"centroid_coordinates":[13.421778071469,48.72400230724419]}},{"type":"Feature","geometry":{"type":"Point","coordinates":[12.910759092578827,48.97371858270363]},"properties":{"id":"111","land-id":"09276","name":"Achslach","population":975,"area":30.11,"centroid_coordinates":[12.910759092578827,48.97371858270363]}},{"type":"Feature","geometry":{"type":"Point","coordinates":[12.988664968250477,49.13630098001615]},"properties":{"id":"113","land-id":"09276","name":"Arnbruck","population":2048,"area":37.82,"centroid_coordinates":[12.988664968250477,49.13630098001615]}},{"type":"Feature","geometry":{"type":"Point","coordinates":[13.184233171022246,49.105238651729465]},"properties":{"id":"115","land-id":"09276","name":"Bayerisch Eisenstein","population":968,"area":47.16,"centroid_coordinates":[13.184233171022246,49.105238651729465]}},{"type":"Feature","geometry":{"type":"Point","coordinates":[13.074254648112008,48.915368873527356]},"properties":{"id":"116","land-id":"09276","name":"Bischofsmais","population":3346,"area":46.26,"centroid_coordinates":[13.074254648112008,48.915368873527356]}},{"type":"Feature","geometry":{"type":"Point","coordinates":[13.10664565199156,49.07675811907564]},"properties":{"id":"117","land-id":"09276","name":"Bodenmais","population":3656,"area":45.26,"centroid_coordinates":[13.10664565199156,49.07675811907564]}},{"type":"Feature","geometry":{"type":"Point","coordinates":[13.056191645369998,49.04268512882819]},"properties":{"id":"118","land-id":"09276","name":"B\u00f6brach","population":1572,"area":27.47,"centroid_coordinates":[13.056191645369998,49.04268512882819]}},{"type":"Feature","geometry":{"type":"Point","coordinates":[13.034344861855429,49.10278548250244]},"properties":{"id":"120","land-id":"09276","name":"Drachselsried","population":2385,"area":41.68,"centroid_coordinates":[13.034344861855429,49.10278548250244]}},{"type":"Feature","geometry":{"type":"Point","coordinates":[13.323724698962687,48.987020785431426]},"properties":{"id":"121","land-id":"09276","name":"Frauenau","population":2647,"area":60.02,"centroid_coordinates":[13.323724698962687,48.987020785431426]}},{"type":"Feature","geometry":{"type":"Point","coordinates":[12.974559419496806,49.04679206168418]},"properties":{"id":"122","land-id":"09276","name":"Geiersthal","population":2212,"area":22.41,"centroid_coordinates":[12.974559419496806,49.04679206168418]}},{"type":"Feature","geometry":{"type":"Point","coordinates":[12.955145232470594,48.95402214745353]},"properties":{"id":"123","land-id":"09276","name":"Gotteszell","population":1148,"area":9.24,"centroid_coordinates":[12.955145232470594,48.95402214745353]}},{"type":"Feature","geometry":{"type":"Point","coordinates":[13.18560823538453,48.89412803046139]},"properties":{"id":"126","land-id":"09276","name":"Kirchberg i.Wald","population":4394,"area":48.84,"centroid_coordinates":[13.18560823538453,48.89412803046139]}},{"type":"Feature","geometry":{"type":"Point","coordinates":[13.259556606190664,48.912701693948755]},"properties":{"id":"127","land-id":"09276","name":"Kirchdorf i.Wald","population":2048,"area":30.56,"centroid_coordinates":[13.259556606190664,48.912701693948755]}},{"type":"Feature","geometry":{"type":"Point","coordinates":[12.876722963446221,49.034123859589585]},"properties":{"id":"128","land-id":"09276","name":"Kollnburg","population":2719,"area":59.48,"centroid_coordinates":[12.876722963446221,49.034123859589585]}},{"type":"Feature","geometry":{"type":"Point","coordinates":[13.152534137171287,49.02679201142028]},"properties":{"id":"129","land-id":"09276","name":"Langdorf","population":1842,"area":34.39,"centroid_coordinates":[13.152534137171287,49.02679201142028]}},{"type":"Feature","geometry":{"type":"Point","coordinates":[13.305249189446558,49.058251451046125]},"properties":{"id":"130","land-id":"09276","name":"Lindberg","population":2269,"area":108.72,"centroid_coordinates":[13.305249189446558,49.058251451046125]}},{"type":"Feature","geometry":{"type":"Point","coordinates":[12.968082792359102,49.00319926753187]},"properties":{"id":"134","land-id":"09276","name":"Patersdorf","population":1721,"area":17.03,"centroid_coordinates":[12.968082792359102,49.00319926753187]}},{"type":"Feature","geometry":{"type":"Point","coordinates":[12.821586392165328,49.10212577416561]},"properties":{"id":"135","land-id":"09276","name":"Prackenbach","population":2749,"area":40.03,"centroid_coordinates":[12.821586392165328,49.10212577416561]}},{"type":"Feature","geometry":{"type":"Point","coordinates":[13.122323725313274,48.96993755870335]},"properties":{"id":"138","land-id":"09276","name":"Regen","population":10913,"area":65.1,"centroid_coordinates":[13.122323725313274,48.96993755870335]}},{"type":"Feature","geometry":{"type":"Point","coordinates":[13.2104493124871,48.95123039590277]},"properties":{"id":"139","land-id":"09276","name":"Rinchnach","population":3087,"area":40.29,"centroid_coordinates":[13.2104493124871,48.95123039590277]}},{"type":"Feature","geometry":{"type":"Point","coordinates":[12.978567657014544,48.981413094344504]},"properties":{"id":"142","land-id":"09276","name":"Ruhmannsfelden","population":1989,"area":5.83,"centroid_coordinates":[12.978567657014544,48.981413094344504]}},{"type":"Feature","geometry":{"type":"Point","coordinates":[13.042302398458029,49.01537261028007]},"properties":{"id":"143","land-id":"09276","name":"Teisnach","population":2981,"area":25.85,"centroid_coordinates":[13.042302398458029,49.01537261028007]}},{"type":"Feature","geometry":{"type":"Point","coordinates":[12.91556476383787,49.090965804053745]},"properties":{"id":"144","land-id":"09276","name":"Viechtach","population":8374,"area":62.42,"centroid_coordinates":[12.91556476383787,49.090965804053745]}},{"type":"Feature","geometry":{"type":"Point","coordinates":[13.019692979026287,48.97279094766853]},"properties":{"id":"146","land-id":"09276","name":"Zachenberg","population":2070,"area":27.27,"centroid_coordinates":[13.019692979026287,48.97279094766853]}},{"type":"Feature","geometry":{"type":"Point","coordinates":[13.217177081207128,49.0250839891269]},"properties":{"id":"148","land-id":"09276","name":"Zwiesel","population":9083,"area":41.13,"centroid_coordinates":[13.217177081207128,49.0250839891269]}},{"type":"Feature","geometry":{"type":"Point","coordinates":[12.821610697183903,48.55545665362768]},"properties":{"id":"111","land-id":"09277","name":"Arnstorf","population":6516,"area":80.4,"centroid_coordinates":[12.821610697183903,48.55545665362768]}},{"type":"Feature","geometry":{"type":"Point","coordinates":[13.12654702555098,48.41338759050578]},"properties":{"id":"112","land-id":"09277","name":"Bayerbach","population":1664,"area":19.38,"centroid_coordinates":[13.12654702555098,48.41338759050578]}},{"type":"Feature","geometry":{"type":"Point","coordinates":[13.06775941132165,48.44594422126138]},"properties":{"id":"113","land-id":"09277","name":"Bad Birnbach","population":5813,"area":68.86,"centroid_coordinates":[13.06775941132165,48.44594422126138]}},{"type":"Feature","geometry":{"type":"Point","coordinates":[12.950887088051003,48.49857621280053]},"properties":{"id":"114","land-id":"09277","name":"Dietersburg","population":3010,"area":55.08,"centroid_coordinates":[12.950887088051003,48.49857621280053]}},{"type":"Feature","geometry":{"type":"Point","coordinates":[12.750732826769953,48.40617367791098]},"properties":{"id":"116","land-id":"09277","name":"Eggenfelden","population":14212,"area":44.34,"centroid_coordinates":[12.750732826769953,48.40617367791098]}},{"type":"Feature","geometry":{"type":"Point","coordinates":[13.057759567063343,48.52064948938728]},"properties":{"id":"117","land-id":"09277","name":"Egglham","population":2232,"area":36.77,"centroid_coordinates":[13.057759567063343,48.52064948938728]}},{"type":"Feature","geometry":{"type":"Point","coordinates":[13.12313622130663,48.31381126946916]},"properties":{"id":"118","land-id":"09277","name":"Ering","population":1852,"area":39.57,"centroid_coordinates":[13.12313622130663,48.31381126946916]}},{"type":"Feature","geometry":{"type":"Point","coordinates":[12.725873898813989,48.47103689065152]},"properties":{"id":"119","land-id":"09277","name":"Falkenberg","population":3915,"area":66.5,"centroid_coordinates":[12.725873898813989,48.47103689065152]}},{"type":"Feature","geometry":{"type":"Point","coordinates":[12.561482124668931,48.46137644791938]},"properties":{"id":"121","land-id":"09277","name":"Gangkofen","population":6176,"area":108.76,"centroid_coordinates":[12.561482124668931,48.46137644791938]}},{"type":"Feature","geometry":{"type":"Point","coordinates":[12.651900065515592,48.35195298012753]},"properties":{"id":"122","land-id":"09277","name":"Geratskirchen","population":862,"area":12.91,"centroid_coordinates":[12.651900065515592,48.35195298012753]}},{"type":"Feature","geometry":{"type":"Point","coordinates":[12.819399374775532,48.42706072204271]},"properties":{"id":"124","land-id":"09277","name":"Hebertsfelden","population":3631,"area":49.82,"centroid_coordinates":[12.819399374775532,48.42706072204271]}},{"type":"Feature","geometry":{"type":"Point","coordinates":[12.961992337025773,48.544149728596125]},"properties":{"id":"126","land-id":"09277","name":"Johanniskirchen","population":2340,"area":40.5,"centroid_coordinates":[12.961992337025773,48.544149728596125]}},{"type":"Feature","geometry":{"type":"Point","coordinates":[12.933403297082549,48.253303731007264]},"properties":{"id":"127","land-id":"09277","name":"Julbach","population":2303,"area":11.2,"centroid_coordinates":[12.933403297082549,48.253303731007264]}},{"type":"Feature","geometry":{"type":"Point","coordinates":[12.957694504269012,48.23917194461667]},"properties":{"id":"128","land-id":"09277","name":"Kirchdorf a.Inn","population":5335,"area":31.75,"centroid_coordinates":[12.957694504269012,48.23917194461667]}},{"type":"Feature","geometry":{"type":"Point","coordinates":[12.739728583224531,48.52609067125203]},"properties":{"id":"131","land-id":"09277","name":"Malgersdorf","population":1215,"area":11.46,"centroid_coordinates":[12.739728583224531,48.52609067125203]}},{"type":"Feature","geometry":{"type":"Point","coordinates":[12.617490275110079,48.40054407170607]},"properties":{"id":"133","land-id":"09277","name":"Massing","population":4091,"area":36.14,"centroid_coordinates":[12.617490275110079,48.40054407170607]}},{"type":"Feature","geometry":{"type":"Point","coordinates":[12.729112144343583,48.34731971525456]},"properties":{"id":"134","land-id":"09277","name":"Mitterskirchen","population":2181,"area":24.71,"centroid_coordinates":[12.729112144343583,48.34731971525456]}},{"type":"Feature","geometry":{"type":"Point","coordinates":[12.95762043338667,48.44143862079074]},"properties":{"id":"138","land-id":"09277","name":"Pfarrkirchen","population":12788,"area":52.31,"centroid_coordinates":[12.95762043338667,48.44143862079074]}},{"type":"Feature","geometry":{"type":"Point","coordinates":[12.88927735829326,48.427647015636616]},"properties":{"id":"139","land-id":"09277","name":"Postm\u00fcnster","population":2426,"area":43.41,"centroid_coordinates":[12.88927735829326,48.427647015636616]}},{"type":"Feature","geometry":{"type":"Point","coordinates":[12.930443951588593,48.30302463724241]},"properties":{"id":"140","land-id":"09277","name":"Reut","population":1634,"area":30.72,"centroid_coordinates":[12.930443951588593,48.30302463724241]}},{"type":"Feature","geometry":{"type":"Point","coordinates":[12.662852032727166,48.467561453970795]},"properties":{"id":"141","land-id":"09277","name":"Rimbach","population":939,"area":22.95,"centroid_coordinates":[12.662852032727166,48.467561453970795]}},{"type":"Feature","geometry":{"type":"Point","coordinates":[12.92833863496486,48.581844579286454]},"properties":{"id":"142","land-id":"09277","name":"Ro\u00dfbach","population":2916,"area":48.09,"centroid_coordinates":[12.92833863496486,48.581844579286454]}},{"type":"Feature","geometry":{"type":"Point","coordinates":[12.840234535048664,48.49314270238744]},"properties":{"id":"144","land-id":"09277","name":"Sch\u00f6nau","population":1863,"area":36.11,"centroid_coordinates":[12.840234535048664,48.49314270238744]}},{"type":"Feature","geometry":{"type":"Point","coordinates":[13.01559880387693,48.28930780531964]},"properties":{"id":"145","land-id":"09277","name":"Simbach a.Inn","population":10198,"area":47.28,"centroid_coordinates":[13.01559880387693,48.28930780531964]}},{"type":"Feature","geometry":{"type":"Point","coordinates":[13.073347502568708,48.31888314072628]},"properties":{"id":"147","land-id":"09277","name":"Stubenberg","population":1428,"area":18.17,"centroid_coordinates":[13.073347502568708,48.31888314072628]}},{"type":"Feature","geometry":{"type":"Point","coordinates":[12.895867071882456,48.35103424766528]},"properties":{"id":"148","land-id":"09277","name":"Tann","population":3791,"area":37.45,"centroid_coordinates":[12.895867071882456,48.35103424766528]}},{"type":"Feature","geometry":{"type":"Point","coordinates":[13.004453700144541,48.388849377351285]},"properties":{"id":"149","land-id":"09277","name":"Triftern","population":5432,"area":62.27,"centroid_coordinates":[13.004453700144541,48.388849377351285]}},{"type":"Feature","geometry":{"type":"Point","coordinates":[12.67411069668909,48.38966518299312]},"properties":{"id":"151","land-id":"09277","name":"Unterdietfurt","population":2237,"area":27.43,"centroid_coordinates":[12.67411069668909,48.38966518299312]}},{"type":"Feature","geometry":{"type":"Point","coordinates":[13.011011460379507,48.34197642929451]},"properties":{"id":"152","land-id":"09277","name":"Wittibreut","population":1938,"area":38.3,"centroid_coordinates":[13.011011460379507,48.34197642929451]}},{"type":"Feature","geometry":{"type":"Point","coordinates":[12.811923559488415,48.35575046172047]},"properties":{"id":"153","land-id":"09277","name":"Wurmannsquick","population":3390,"area":49.26,"centroid_coordinates":[12.811923559488415,48.35575046172047]}},{"type":"Feature","geometry":{"type":"Point","coordinates":[12.868713912987202,48.298299815751164]},"properties":{"id":"154","land-id":"09277","name":"Zeilarn","population":2115,"area":28.87,"centroid_coordinates":[12.868713912987202,48.298299815751164]}},{"type":"Feature","geometry":{"type":"Point","coordinates":[12.477765815358342,48.93729974708647]},"properties":{"id":"112","land-id":"09278","name":"Aholfing","population":1899,"area":21.41,"centroid_coordinates":[12.477765815358342,48.93729974708647]}},{"type":"Feature","geometry":{"type":"Point","coordinates":[12.651078215902093,48.85875157136362]},"properties":{"id":"113","land-id":"09278","name":"Aiterhofen","population":3553,"area":43.2,"centroid_coordinates":[12.651078215902093,48.85875157136362]}},{"type":"Feature","geometry":{"type":"Point","coordinates":[12.623233984733,48.988965489843835]},"properties":{"id":"116","land-id":"09278","name":"Ascha","population":1586,"area":19.53,"centroid_coordinates":[12.623233984733,48.988965489843835]}},{"type":"Feature","geometry":{"type":"Point","coordinates":[12.497833620330306,48.89177213198568]},"properties":{"id":"117","land-id":"09278","name":"Atting","population":1670,"area":14.92,"centroid_coordinates":[12.497833620330306,48.89177213198568]}},{"type":"Feature","geometry":{"type":"Point","coordinates":[12.718430745910922,48.91509480811457]},"properties":{"id":"118","land-id":"09278","name":"Bogen","population":10427,"area":49.77,"centroid_coordinates":[12.718430745910922,48.91509480811457]}},{"type":"Feature","geometry":{"type":"Point","coordinates":[12.591097075553739,49.003525058214294]},"properties":{"id":"120","land-id":"09278","name":"Falkenfels","population":1017,"area":11.5,"centroid_coordinates":[12.591097075553739,49.003525058214294]}},{"type":"Feature","geometry":{"type":"Point","coordinates":[12.530248436455855,48.830176981821374]},"properties":{"id":"121","land-id":"09278","name":"Feldkirchen","population":2026,"area":22.63,"centroid_coordinates":[12.530248436455855,48.830176981821374]}},{"type":"Feature","geometry":{"type":"Point","coordinates":[12.397792369914143,48.81953206802278]},"properties":{"id":"123","land-id":"09278","name":"Geiselh\u00f6ring","population":6970,"area":99.7,"centroid_coordinates":[12.397792369914143,48.81953206802278]}},{"type":"Feature","geometry":{"type":"Point","coordinates":[12.73174191034432,49.02682943382782]},"properties":{"id":"129","land-id":"09278","name":"Haibach","population":2028,"area":32.29,"centroid_coordinates":[12.73174191034432,49.02682943382782]}},{"type":"Feature","geometry":{"type":"Point","coordinates":[12.686988082966856,49.001104134847054]},"properties":{"id":"134","land-id":"09278","name":"Haselbach","population":1875,"area":18.46,"centroid_coordinates":[12.686988082966856,49.001104134847054]}},{"type":"Feature","geometry":{"type":"Point","coordinates":[12.720644230026277,48.949534029249726]},"properties":{"id":"139","land-id":"09278","name":"Hunderdorf","population":3231,"area":22.15,"centroid_coordinates":[12.720644230026277,48.949534029249726]}},{"type":"Feature","geometry":{"type":"Point","coordinates":[12.74285543703391,48.85419147743869]},"properties":{"id":"140","land-id":"09278","name":"Irlbach","population":1142,"area":15.86,"centroid_coordinates":[12.74285543703391,48.85419147743869]}},{"type":"Feature","geometry":{"type":"Point","coordinates":[12.518442264769348,48.95763218051951]},"properties":{"id":"141","land-id":"09278","name":"Kirchroth","population":3914,"area":42.78,"centroid_coordinates":[12.518442264769348,48.95763218051951]}},{"type":"Feature","geometry":{"type":"Point","coordinates":[12.708063061139791,49.073824293504735]},"properties":{"id":"143","land-id":"09278","name":"Konzell","population":1854,"area":26.8,"centroid_coordinates":[12.708063061139791,49.073824293504735]}},{"type":"Feature","geometry":{"type":"Point","coordinates":[12.315280783899123,48.781435846747364]},"properties":{"id":"144","land-id":"09278","name":"Laberweinting","population":3551,"area":76.23,"centroid_coordinates":[12.315280783899123,48.781435846747364]}},{"type":"Feature","geometry":{"type":"Point","coordinates":[12.52417017365648,48.77261559089006]},"properties":{"id":"146","land-id":"09278","name":"Leiblfing","population":4369,"area":78.39,"centroid_coordinates":[12.52417017365648,48.77261559089006]}},{"type":"Feature","geometry":{"type":"Point","coordinates":[12.655275354224974,49.092909829758725]},"properties":{"id":"147","land-id":"09278","name":"Loitzendorf","population":641,"area":12.0,"centroid_coordinates":[12.655275354224974,49.092909829758725]}},{"type":"Feature","geometry":{"type":"Point","coordinates":[12.222265002209614,48.77257259184024]},"properties":{"id":"148","land-id":"09278","name":"Mallersdorf-Pfaffenberg","population":6807,"area":72.6,"centroid_coordinates":[12.222265002209614,48.77257259184024]}},{"type":"Feature","geometry":{"type":"Point","coordinates":[12.8163698901841,48.84573698424229]},"properties":{"id":"149","land-id":"09278","name":"Mariaposching","population":1416,"area":19.57,"centroid_coordinates":[12.8163698901841,48.84573698424229]}},{"type":"Feature","geometry":{"type":"Point","coordinates":[12.668315279138582,48.96910624786057]},"properties":{"id":"151","land-id":"09278","name":"Mitterfels","population":2792,"area":14.23,"centroid_coordinates":[12.668315279138582,48.96910624786057]}},{"type":"Feature","geometry":{"type":"Point","coordinates":[12.765400670356838,48.98228213078836]},"properties":{"id":"154","land-id":"09278","name":"Neukirchen","population":1821,"area":24.45,"centroid_coordinates":[12.765400670356838,48.98228213078836]}},{"type":"Feature","geometry":{"type":"Point","coordinates":[12.79294042616252,48.8733235144038]},"properties":{"id":"159","land-id":"09278","name":"Niederwinkling","population":2925,"area":25.65,"centroid_coordinates":[12.79294042616252,48.8733235144038]}},{"type":"Feature","geometry":{"type":"Point","coordinates":[12.654368307666205,48.7812497498618]},"properties":{"id":"167","land-id":"09278","name":"Oberschneiding","population":3285,"area":60.76,"centroid_coordinates":[12.654368307666205,48.7812497498618]}},{"type":"Feature","geometry":{"type":"Point","coordinates":[12.605100617523211,48.92011639182178]},"properties":{"id":"170","land-id":"09278","name":"Parkstetten","population":3320,"area":19.48,"centroid_coordinates":[12.605100617523211,48.92011639182178]}},{"type":"Feature","geometry":{"type":"Point","coordinates":[12.811387915663081,48.95529225255041]},"properties":{"id":"171","land-id":"09278","name":"Perasdorf","population":517,"area":16.04,"centroid_coordinates":[12.811387915663081,48.95529225255041]}},{"type":"Feature","geometry":{"type":"Point","coordinates":[12.444058168323778,48.86483379875797]},"properties":{"id":"172","land-id":"09278","name":"Perkam","population":1601,"area":14.26,"centroid_coordinates":[12.444058168323778,48.86483379875797]}},{"type":"Feature","geometry":{"type":"Point","coordinates":[12.45776576084,48.89894634733676]},"properties":{"id":"177","land-id":"09278","name":"Rain","population":2941,"area":14.29,"centroid_coordinates":[12.45776576084,48.89894634733676]}},{"type":"Feature","geometry":{"type":"Point","coordinates":[12.763687700536995,49.079665599977325]},"properties":{"id":"178","land-id":"09278","name":"Rattenberg","population":1658,"area":30.2,"centroid_coordinates":[12.763687700536995,49.079665599977325]}},{"type":"Feature","geometry":{"type":"Point","coordinates":[12.630612524759487,49.034719290361195]},"properties":{"id":"179","land-id":"09278","name":"Rattiszell","population":1507,"area":22.19,"centroid_coordinates":[12.630612524759487,49.034719290361195]}},{"type":"Feature","geometry":{"type":"Point","coordinates":[12.58375403122334,48.809422742747216]},"properties":{"id":"182","land-id":"09278","name":"Salching","population":2774,"area":21.96,"centroid_coordinates":[12.58375403122334,48.809422742747216]}},{"type":"Feature","geometry":{"type":"Point","coordinates":[12.820758726073363,49.004175289064065]},"properties":{"id":"184","land-id":"09278","name":"Sankt Englmar","population":1842,"area":36.91,"centroid_coordinates":[12.820758726073363,49.004175289064065]}},{"type":"Feature","geometry":{"type":"Point","coordinates":[12.839036680728787,48.9263952867797]},"properties":{"id":"187","land-id":"09278","name":"Schwarzach","population":2938,"area":33.2,"centroid_coordinates":[12.839036680728787,48.9263952867797]}},{"type":"Feature","geometry":{"type":"Point","coordinates":[12.643299677572541,49.06644654137269]},"properties":{"id":"189","land-id":"09278","name":"Stallwang","population":1424,"area":20.58,"centroid_coordinates":[12.643299677572541,49.06644654137269]}},{"type":"Feature","geometry":{"type":"Point","coordinates":[12.603259864578018,48.95354601594228]},"properties":{"id":"190","land-id":"09278","name":"Steinach","population":3403,"area":23.22,"centroid_coordinates":[12.603259864578018,48.95354601594228]}},{"type":"Feature","geometry":{"type":"Point","coordinates":[12.710302370950851,48.829761453652196]},"properties":{"id":"192","land-id":"09278","name":"Stra\u00dfkirchen","population":3486,"area":38.39,"centroid_coordinates":[12.710302370950851,48.829761453652196]}},{"type":"Feature","geometry":{"type":"Point","coordinates":[12.545003727285756,49.03682704896404]},"properties":{"id":"197","land-id":"09278","name":"Wiesenfelden","population":3932,"area":78.14,"centroid_coordinates":[12.545003727285756,49.03682704896404]}},{"type":"Feature","geometry":{"type":"Point","coordinates":[12.76088038206638,48.94402611866605]},"properties":{"id":"198","land-id":"09278","name":"Windberg","population":1030,"area":7.96,"centroid_coordinates":[12.76088038206638,48.94402611866605]}},{"type":"Feature","geometry":{"type":"Point","coordinates":[12.479640770347737,48.62104966938452]},"properties":{"id":"112","land-id":"09279","name":"Dingolfing","population":20819,"area":44.17,"centroid_coordinates":[12.479640770347737,48.62104966938452]}},{"type":"Feature","geometry":{"type":"Point","coordinates":[12.845123484123512,48.63340449290039]},"properties":{"id":"113","land-id":"09279","name":"Eichendorf","population":6680,"area":98.15,"centroid_coordinates":[12.845123484123512,48.63340449290039]}},{"type":"Feature","geometry":{"type":"Point","coordinates":[12.527463168811511,48.52124354090404]},"properties":{"id":"115","land-id":"09279","name":"Frontenhausen","population":4832,"area":30.42,"centroid_coordinates":[12.527463168811511,48.52124354090404]}},{"type":"Feature","geometry":{"type":"Point","coordinates":[12.535461360059394,48.62913084151806]},"properties":{"id":"116","land-id":"09279","name":"Gottfrieding","population":2602,"area":27.04,"centroid_coordinates":[12.535461360059394,48.62913084151806]}},{"type":"Feature","geometry":{"type":"Point","coordinates":[12.715743661230063,48.65807619711372]},"properties":{"id":"122","land-id":"09279","name":"Landau a.d.Isar","population":14759,"area":84.47,"centroid_coordinates":[12.715743661230063,48.65807619711372]}},{"type":"Feature","geometry":{"type":"Point","coordinates":[12.428449680016325,48.59072228743696]},"properties":{"id":"124","land-id":"09279","name":"Loiching","population":3789,"area":38.86,"centroid_coordinates":[12.428449680016325,48.59072228743696]}},{"type":"Feature","geometry":{"type":"Point","coordinates":[12.6024903564569,48.64238689761888]},"properties":{"id":"125","land-id":"09279","name":"Mamming","population":3331,"area":41.49,"centroid_coordinates":[12.6024903564569,48.64238689761888]}},{"type":"Feature","geometry":{"type":"Point","coordinates":[12.555451176969365,48.56017063889535]},"properties":{"id":"126","land-id":"09279","name":"Marklkofen","population":3877,"area":40.66,"centroid_coordinates":[12.555451176969365,48.56017063889535]}},{"type":"Feature","geometry":{"type":"Point","coordinates":[12.429373015323225,48.72497298360599]},"properties":{"id":"127","land-id":"09279","name":"Mengkofen","population":6083,"area":84.68,"centroid_coordinates":[12.429373015323225,48.72497298360599]}},{"type":"Feature","geometry":{"type":"Point","coordinates":[12.48018589853198,48.68272044418681]},"properties":{"id":"128","land-id":"09279","name":"Moosthenning","population":5262,"area":70.31,"centroid_coordinates":[12.48018589853198,48.68272044418681]}},{"type":"Feature","geometry":{"type":"Point","coordinates":[12.383118123769028,48.602093159171844]},"properties":{"id":"130","land-id":"09279","name":"Niederviehbach","population":2678,"area":29.65,"centroid_coordinates":[12.383118123769028,48.602093159171844]}},{"type":"Feature","geometry":{"type":"Point","coordinates":[12.631927826839915,48.707955020598455]},"properties":{"id":"132","land-id":"09279","name":"Pilsting","population":7161,"area":71.11,"centroid_coordinates":[12.631927826839915,48.707955020598455]}},{"type":"Feature","geometry":{"type":"Point","coordinates":[12.63257636976544,48.56818737048459]},"properties":{"id":"134","land-id":"09279","name":"Reisbach","population":7775,"area":94.25,"centroid_coordinates":[12.63257636976544,48.56818737048459]}},{"type":"Feature","geometry":{"type":"Point","coordinates":[12.71959084315048,48.56109909195262]},"properties":{"id":"135","land-id":"09279","name":"Simbach","population":4175,"area":51.17,"centroid_coordinates":[12.71959084315048,48.56109909195262]}},{"type":"Feature","geometry":{"type":"Point","coordinates":[12.752173056254184,48.73553509186394]},"properties":{"id":"137","land-id":"09279","name":"Wallersdorf","population":7226,"area":71.15,"centroid_coordinates":[12.752173056254184,48.73553509186394]}}]}