{
  "type": "FeatureCollection",
  "features": [
    {
      "type": "Feature",
      "geometry": {
        "type": "Point",
        "coordinates": [
          11.203770099450674,
          48.84423850873205
        ]
      },
      "properties": {
        "id": "111",
        "land-id": "09176",
        "name": "Adelschlag",
        "population": 3025,
        "area": 51.87,
        "centroid_coordinates": [
          11.203770099450674,
          48.84423850873205
        ]
      }
    },
    {
      "type": "Feature",
      "geometry": {
        "type": "Point",
        "coordinates": [
          11.617833927888494,
          48.90841576677414
        ]
      },
      "properties": {
        "id": "112",
        "land-id": "09176",
        "name": "Altmannstein",
        "population": 7180,
        "area": 114.15,
        "centroid_coordinates": [
          11.617833927888494,
          48.90841576677414
        ]
      }
    },
    {
      "type": "Feature",
      "geometry": {
        "type": "Point",
        "coordinates": [
          11.49593383691475,
          49.01304622667974
        ]
      },
      "properties": {
        "id": "114",
        "land-id": "09176",
        "name": "Beilngries",
        "population": 10133,
        "area": 100.02,
        "centroid_coordinates": [
          11.49593383691475,
          49.01304622667974
        ]
      }
    },
    {
      "type": "Feature",
      "geometry": {
        "type": "Point",
        "coordinates": [
          11.370094723507508,
          48.86991310171138
        ]
      },
      "properties": {
        "id": "116",
        "land-id": "09176",
        "name": "Böhmfeld",
        "population": 1701,
        "area": 16.27,
        "centroid_coordinates": [
          11.370094723507508,
          48.86991310171138
        ]
      }
    },
    {
      "type": "Feature",
      "geometry": {
        "type": "Point",
        "coordinates": [
          11.286436731224878,
          48.81432854846206
        ]
      },
      "properties": {
        "id": "118",
        "land-id": "09176",
        "name": "Buxheim",
        "population": 3733,
        "area": 22.49,
        "centroid_coordinates": [
          11.286436731224878,
          48.81432854846206
        ]
      }
    },
    {
      "type": "Feature",
      "geometry": {
        "type": "Point",
        "coordinates": [
          11.469378063118661,
          48.927594525587644
        ]
      },
      "properties": {
        "id": "120",
        "land-id": "09176",
        "name": "Denkendorf",
        "population": 5037,
        "area": 47.78,
        "centroid_coordinates": [
          11.469378063118661,
          48.927594525587644
        ]
      }
    },
    {
      "type": "Feature",
      "geometry": {
        "type": "Point",
        "coordinates": [
          11.090900221385327,
          48.870671425224934
        ]
      },
      "properties": {
        "id": "121",
        "land-id": "09176",
        "name": "Dollnstein",
        "population": 2910,
        "area": 40.55,
        "centroid_coordinates": [
          11.090900221385327,
          48.870671425224934
        ]
      }
    },
    {
      "type": "Feature",
      "geometry": {
        "type": "Point",
        "coordinates": [
          11.224681842301843,
          48.78719174636778
        ]
      },
      "properties": {
        "id": "122",
        "land-id": "09176",
        "name": "Egweil",
        "population": 1241,
        "area": 9.4,
        "centroid_coordinates": [
          11.224681842301843,
          48.78719174636778
        ]
      }
    },
    {
      "type": "Feature",
      "geometry": {
        "type": "Point",
        "coordinates": [
          11.195405954523562,
          48.889216018572085
        ]
      },
      "properties": {
        "id": "123",
        "land-id": "09176",
        "name": "Eichstätt",
        "population": 13802,
        "area": 47.8,
        "centroid_coordinates": [
          11.195405954523562,
          48.889216018572085
        ]
      }
    },
    {
      "type": "Feature",
      "geometry": {
        "type": "Point",
        "coordinates": [
          11.315008288943039,
          48.82628985408055
        ]
      },
      "properties": {
        "id": "124",
        "land-id": "09176",
        "name": "Eitensheim",
        "population": 2992,
        "area": 15.7,
        "centroid_coordinates": [
          11.315008288943039,
          48.82628985408055
        ]
      }
    },
    {
      "type": "Feature",
      "geometry": {
        "type": "Point",
        "coordinates": [
          11.36400972905655,
          48.813647759944125
        ]
      },
      "properties": {
        "id": "126",
        "land-id": "09176",
        "name": "Gaimersheim",
        "population": 12527,
        "area": 28.21,
        "centroid_coordinates": [
          11.36400972905655,
          48.813647759944125
        ]
      }
    },
    {
      "type": "Feature",
      "geometry": {
        "type": "Point",
        "coordinates": [
          11.543377734429031,
          48.780465669199124
        ]
      },
      "properties": {
        "id": "129",
        "land-id": "09176",
        "name": "Großmehring",
        "population": 7478,
        "area": 47.47,
        "centroid_coordinates": [
          11.543377734429031,
          48.780465669199124
        ]
      }
    },
    {
      "type": "Feature",
      "geometry": {
        "type": "Point",
        "coordinates": [
          11.46048771247952,
          48.827910123331414
        ]
      },
      "properties": {
        "id": "131",
        "land-id": "09176",
        "name": "Hepberg",
        "population": 3025,
        "area": 4.17,
        "centroid_coordinates": [
          11.46048771247952,
          48.827910123331414
        ]
      }
    },
    {
      "type": "Feature",
      "geometry": {
        "type": "Point",
        "coordinates": [
          11.315882075989384,
          48.87463969424668
        ]
      },
      "properties": {
        "id": "132",
        "land-id": "09176",
        "name": "Hitzhofen",
        "population": 3002,
        "area": 33.69,
        "centroid_coordinates": [
          11.315882075989384,
          48.87463969424668
        ]
      }
    },
    {
      "type": "Feature",
      "geometry": {
        "type": "Point",
        "coordinates": [
          11.377494780456754,
          48.99903885470107
        ]
      },
      "properties": {
        "id": "137",
        "land-id": "09176",
        "name": "Kinding",
        "population": 2527,
        "area": 51.66,
        "centroid_coordinates": [
          11.377494780456754,
          48.99903885470107
        ]
      }
    },
    {
      "type": "Feature",
      "geometry": {
        "type": "Point",
        "coordinates": [
          11.38266278153991,
          48.93891855392054
        ]
      },
      "properties": {
        "id": "138",
        "land-id": "09176",
        "name": "Kipfenberg",
        "population": 5774,
        "area": 81.38,
        "centroid_coordinates": [
          11.38266278153991,
          48.93891855392054
        ]
      }
    },
    {
      "type": "Feature",
      "geometry": {
        "type": "Point",
        "coordinates": [
          11.521659670086411,
          48.84043626734559
        ]
      },
      "properties": {
        "id": "139",
        "land-id": "09176",
        "name": "Kösching",
        "population": 9716,
        "area": 55.64,
        "centroid_coordinates": [
          11.521659670086411,
          48.84043626734559
        ]
      }
    },
    {
      "type": "Feature",
      "geometry": {
        "type": "Point",
        "coordinates": [
          11.454890312543382,
          48.80931637348443
        ]
      },
      "properties": {
        "id": "143",
        "land-id": "09176",
        "name": "Lenting",
        "population": 4926,
        "area": 8.48,
        "centroid_coordinates": [
          11.454890312543382,
          48.80931637348443
        ]
      }
    },
    {
      "type": "Feature",
      "geometry": {
        "type": "Point",
        "coordinates": [
          11.636568515283532,
          48.85403696678155
        ]
      },
      "properties": {
        "id": "147",
        "land-id": "09176",
        "name": "Mindelstetten",
        "population": 1820,
        "area": 22.73,
        "centroid_coordinates": [
          11.636568515283532,
          48.85403696678155
        ]
      }
    },
    {
      "type": "Feature",
      "geometry": {
        "type": "Point",
        "coordinates": [
          11.011683773775534,
          48.856333258035185
        ]
      },
      "properties": {
        "id": "148",
        "land-id": "09176",
        "name": "Mörnsheim",
        "population": 1568,
        "area": 33.48,
        "centroid_coordinates": [
          11.011683773775534,
          48.856333258035185
        ]
      }
    },
    {
      "type": "Feature",
      "geometry": {
        "type": "Point",
        "coordinates": [
          11.221668291591302,
          48.80544712035653
        ]
      },
      "properties": {
        "id": "149",
        "land-id": "09176",
        "name": "Nassenfels",
        "population": 2360,
        "area": 18.49,
        "centroid_coordinates": [
          11.221668291591302,
          48.80544712035653
        ]
      }
    },
    {
      "type": "Feature",
      "geometry": {
        "type": "Point",
        "coordinates": [
          11.597326269198724,
          48.836221148886644
        ]
      },
      "properties": {
        "id": "150",
        "land-id": "09176",
        "name": "Oberdolling",
        "population": 1357,
        "area": 19.31,
        "centroid_coordinates": [
          11.597326269198724,
          48.836221148886644
        ]
      }
    },
    {
      "type": "Feature",
      "geometry": {
        "type": "Point",
        "coordinates": [
          11.687631094347402,
          48.81969045914055
        ]
      },
      "properties": {
        "id": "153",
        "land-id": "09176",
        "name": "Pförring",
        "population": 4156,
        "area": 43.4,
        "centroid_coordinates": [
          11.687631094347402,
          48.81969045914055
        ]
      }
    },
    {
      "type": "Feature",
      "geometry": {
        "type": "Point",
        "coordinates": [
          11.211442978177457,
          48.944524075201464
        ]
      },
      "properties": {
        "id": "155",
        "land-id": "09176",
        "name": "Pollenfeld",
        "population": 3033,
        "area": 45.67,
        "centroid_coordinates": [
          11.211442978177457,
          48.944524075201464
        ]
      }
    },
    {
      "type": "Feature",
      "geometry": {
        "type": "Point",
        "coordinates": [
          11.106807576421124,
          48.92575477607597
        ]
      },
      "properties": {
        "id": "160",
        "land-id": "09176",
        "name": "Schernfeld",
        "population": 3267,
        "area": 52.32,
        "centroid_coordinates": [
          11.106807576421124,
          48.92575477607597
        ]
      }
    },
    {
      "type": "Feature",
      "geometry": {
        "type": "Point",
        "coordinates": [
          11.462956622240371,
          48.86703940299689
        ]
      },
      "properties": {
        "id": "161",
        "land-id": "09176",
        "name": "Stammham",
        "population": 4122,
        "area": 39.16,
        "centroid_coordinates": [
          11.462956622240371,
          48.86703940299689
        ]
      }
    },
    {
      "type": "Feature",
      "geometry": {
        "type": "Point",
        "coordinates": [
          11.217567232633842,
          49.000871716628346
        ]
      },
      "properties": {
        "id": "164",
        "land-id": "09176",
        "name": "Titting",
        "population": 2719,
        "area": 71.07,
        "centroid_coordinates": [
          11.217567232633842,
          49.000871716628346
        ]
      }
    },
    {
      "type": "Feature",
      "geometry": {
        "type": "Point",
        "coordinates": [
          11.303471503089302,
          48.92038229073347
        ]
      },
      "properties": {
        "id": "165",
        "land-id": "09176",
        "name": "Walting",
        "population": 2330,
        "area": 39.78,
        "centroid_coordinates": [
          11.303471503089302,
          48.92038229073347
        ]
      }
    },
    {
      "type": "Feature",
      "geometry": {
        "type": "Point",
        "coordinates": [
          11.099659803976152,
          48.81896070522126
        ]
      },
      "properties": {
        "id": "166",
        "land-id": "09176",
        "name": "Wellheim",
        "population": 2773,
        "area": 33.73,
        "centroid_coordinates": [
          11.099659803976152,
          48.81896070522126
        ]
      }
    },
    {
      "type": "Feature",
      "geometry": {
        "type": "Point",
        "coordinates": [
          11.411146233222812,
          48.83382917753185
        ]
      },
      "properties": {
        "id": "167",
        "land-id": "09176",
        "name": "Wettstetten",
        "population": 5018,
        "area": 12.41,
        "centroid_coordinates": [
          11.411146233222812,
          48.83382917753185
        ]
      }
    }
  ]
}