{
  "type": "FeatureCollection",
  "features": [
    {
      "type": "Feature",
      "geometry": {
        "type": "Point",
        "coordinates": [
          10.89973766376833,
          49.70949443471401
        ]
      },
      "properties": {
        "id": "111",
        "land-id": "09572",
        "name": "Adelsdorf",
        "population": 9112,
        "area": 31.7,
        "centroid_coordinates": [
          10.89973766376833,
          49.70949443471401
        ]
      }
    },
    {
      "type": "Feature",
      "geometry": {
        "type": "Point",
        "coordinates": [
          10.817545459507297,
          49.579850884672524
        ]
      },
      "properties": {
        "id": "114",
        "land-id": "09572",
        "name": "Aurachtal",
        "population": 3092,
        "area": 18.37,
        "centroid_coordinates": [
          10.817545459507297,
          49.579850884672524
        ]
      }
    },
    {
      "type": "Feature",
      "geometry": {
        "type": "Point",
        "coordinates": [
          11.029704072646497,
          49.658262631920266
        ]
      },
      "properties": {
        "id": "115",
        "land-id": "09572",
        "name": "Baiersdorf",
        "population": 7876,
        "area": 11.79,
        "centroid_coordinates": [
          11.029704072646497,
          49.658262631920266
        ]
      }
    },
    {
      "type": "Feature",
      "geometry": {
        "type": "Point",
        "coordinates": [
          11.015110274252706,
          49.62402187036268
        ]
      },
      "properties": {
        "id": "119",
        "land-id": "09572",
        "name": "Bubenreuth",
        "population": 4525,
        "area": 4.16,
        "centroid_coordinates": [
          11.015110274252706,
          49.62402187036268
        ]
      }
    },
    {
      "type": "Feature",
      "geometry": {
        "type": "Point",
        "coordinates": [
          11.055490154993633,
          49.59219395152517
        ]
      },
      "properties": {
        "id": "120",
        "land-id": "09572",
        "name": "Buckenhof",
        "population": 3161,
        "area": 1.36,
        "centroid_coordinates": [
          11.055490154993633,
          49.59219395152517
        ]
      }
    },
    {
      "type": "Feature",
      "geometry": {
        "type": "Point",
        "coordinates": [
          11.218127396449864,
          49.58339151346018
        ]
      },
      "properties": {
        "id": "121",
        "land-id": "09572",
        "name": "Eckental",
        "population": 14562,
        "area": 29.71,
        "centroid_coordinates": [
          11.218127396449864,
          49.58339151346018
        ]
      }
    },
    {
      "type": "Feature",
      "geometry": {
        "type": "Point",
        "coordinates": [
          10.84893923467238,
          49.68424792622755
        ]
      },
      "properties": {
        "id": "126",
        "land-id": "09572",
        "name": "Gremsdorf",
        "population": 1631,
        "area": 12.93,
        "centroid_coordinates": [
          10.84893923467238,
          49.68424792622755
        ]
      }
    },
    {
      "type": "Feature",
      "geometry": {
        "type": "Point",
        "coordinates": [
          10.875785696618605,
          49.62454392523299
        ]
      },
      "properties": {
        "id": "127",
        "land-id": "09572",
        "name": "Großenseebach",
        "population": 2393,
        "area": 7.12,
        "centroid_coordinates": [
          10.875785696618605,
          49.62454392523299
        ]
      }
    },
    {
      "type": "Feature",
      "geometry": {
        "type": "Point",
        "coordinates": [
          10.942817428023885,
          49.688453967372254
        ]
      },
      "properties": {
        "id": "130",
        "land-id": "09572",
        "name": "Hemhofen",
        "population": 5196,
        "area": 6.74,
        "centroid_coordinates": [
          10.942817428023885,
          49.688453967372254
        ]
      }
    },
    {
      "type": "Feature",
      "geometry": {
        "type": "Point",
        "coordinates": [
          11.16213332277248,
          49.543479254727636
        ]
      },
      "properties": {
        "id": "131",
        "land-id": "09572",
        "name": "Heroldsberg",
        "population": 8283,
        "area": 11.05,
        "centroid_coordinates": [
          11.16213332277248,
          49.543479254727636
        ]
      }
    },
    {
      "type": "Feature",
      "geometry": {
        "type": "Point",
        "coordinates": [
          10.878719756287923,
          49.570622600452005
        ]
      },
      "properties": {
        "id": "132",
        "land-id": "09572",
        "name": "Herzogenaurach",
        "population": 24317,
        "area": 47.64,
        "centroid_coordinates": [
          10.878719756287923,
          49.570622600452005
        ]
      }
    },
    {
      "type": "Feature",
      "geometry": {
        "type": "Point",
        "coordinates": [
          10.894226261144922,
          49.63846520348217
        ]
      },
      "properties": {
        "id": "133",
        "land-id": "09572",
        "name": "Heßdorf",
        "population": 3777,
        "area": 24.8,
        "centroid_coordinates": [
          10.894226261144922,
          49.63846520348217
        ]
      }
    },
    {
      "type": "Feature",
      "geometry": {
        "type": "Point",
        "coordinates": [
          10.833391051295807,
          49.71472492302487
        ]
      },
      "properties": {
        "id": "135",
        "land-id": "09572",
        "name": "Höchstadt a.d.Aisch",
        "population": 13899,
        "area": 70.92,
        "centroid_coordinates": [
          10.833391051295807,
          49.71472492302487
        ]
      }
    },
    {
      "type": "Feature",
      "geometry": {
        "type": "Point",
        "coordinates": [
          11.13259906097889,
          49.559774544809024
        ]
      },
      "properties": {
        "id": "137",
        "land-id": "09572",
        "name": "Kalchreuth",
        "population": 3008,
        "area": 10.88,
        "centroid_coordinates": [
          11.13259906097889,
          49.559774544809024
        ]
      }
    },
    {
      "type": "Feature",
      "geometry": {
        "type": "Point",
        "coordinates": [
          10.742733033040846,
          49.704276342963716
        ]
      },
      "properties": {
        "id": "139",
        "land-id": "09572",
        "name": "Lonnerstadt",
        "population": 2043,
        "area": 22.7,
        "centroid_coordinates": [
          10.742733033040846,
          49.704276342963716
        ]
      }
    },
    {
      "type": "Feature",
      "geometry": {
        "type": "Point",
        "coordinates": [
          11.05539223109361,
          49.62292254602978
        ]
      },
      "properties": {
        "id": "141",
        "land-id": "09572",
        "name": "Marloffstein",
        "population": 1548,
        "area": 6.6,
        "centroid_coordinates": [
          11.05539223109361,
          49.62292254602978
        ]
      }
    },
    {
      "type": "Feature",
      "geometry": {
        "type": "Point",
        "coordinates": [
          10.992528814939787,
          49.64048304175091
        ]
      },
      "properties": {
        "id": "142",
        "land-id": "09572",
        "name": "Möhrendorf",
        "population": 4718,
        "area": 13.2,
        "centroid_coordinates": [
          10.992528814939787,
          49.64048304175091
        ]
      }
    },
    {
      "type": "Feature",
      "geometry": {
        "type": "Point",
        "coordinates": [
          10.760105111699124,
          49.75674947448277
        ]
      },
      "properties": {
        "id": "143",
        "land-id": "09572",
        "name": "Mühlhausen",
        "population": 1824,
        "area": 16.61,
        "centroid_coordinates": [
          10.760105111699124,
          49.75674947448277
        ]
      }
    },
    {
      "type": "Feature",
      "geometry": {
        "type": "Point",
        "coordinates": [
          10.769944549682199,
          49.59407800929124
        ]
      },
      "properties": {
        "id": "147",
        "land-id": "09572",
        "name": "Oberreichenbach",
        "population": 1346,
        "area": 4.83,
        "centroid_coordinates": [
          10.769944549682199,
          49.59407800929124
        ]
      }
    },
    {
      "type": "Feature",
      "geometry": {
        "type": "Point",
        "coordinates": [
          10.918298956839084,
          49.66813847779123
        ]
      },
      "properties": {
        "id": "149",
        "land-id": "09572",
        "name": "Röttenbach",
        "population": 4662,
        "area": 7.77,
        "centroid_coordinates": [
          10.918298956839084,
          49.66813847779123
        ]
      }
    },
    {
      "type": "Feature",
      "geometry": {
        "type": "Point",
        "coordinates": [
          11.054539270546204,
          49.60855726699172
        ]
      },
      "properties": {
        "id": "154",
        "land-id": "09572",
        "name": "Spardorf",
        "population": 2201,
        "area": 3.19,
        "centroid_coordinates": [
          11.054539270546204,
          49.60855726699172
        ]
      }
    },
    {
      "type": "Feature",
      "geometry": {
        "type": "Point",
        "coordinates": [
          11.084065859656599,
          49.59614578939879
        ]
      },
      "properties": {
        "id": "158",
        "land-id": "09572",
        "name": "Uttenreuth",
        "population": 4814,
        "area": 5.93,
        "centroid_coordinates": [
          11.084065859656599,
          49.59614578939879
        ]
      }
    },
    {
      "type": "Feature",
      "geometry": {
        "type": "Point",
        "coordinates": [
          10.654367274385383,
          49.70091474591976
        ]
      },
      "properties": {
        "id": "159",
        "land-id": "09572",
        "name": "Vestenbergsgreuth",
        "population": 1587,
        "area": 31.8,
        "centroid_coordinates": [
          10.654367274385383,
          49.70091474591976
        ]
      }
    },
    {
      "type": "Feature",
      "geometry": {
        "type": "Point",
        "coordinates": [
          10.71356231672473,
          49.74734892969069
        ]
      },
      "properties": {
        "id": "160",
        "land-id": "09572",
        "name": "Wachenroth",
        "population": 2300,
        "area": 23.15,
        "centroid_coordinates": [
          10.71356231672473,
          49.74734892969069
        ]
      }
    },
    {
      "type": "Feature",
      "geometry": {
        "type": "Point",
        "coordinates": [
          10.815213845614014,
          49.62712325540984
        ]
      },
      "properties": {
        "id": "164",
        "land-id": "09572",
        "name": "Weisendorf",
        "population": 6593,
        "area": 36.76,
        "centroid_coordinates": [
          10.815213845614014,
          49.62712325540984
        ]
      }
    }
  ]
}