{
  "type": "FeatureCollection",
  "features": [
    {
      "type": "Feature",
      "geometry": {
        "type": "Point",
        "coordinates": [
          10.932357026213998,
          49.23480121036781
        ]
      },
      "properties": {
        "id": "111",
        "land-id": "09576",
        "name": "Abenberg",
        "population": 5569,
        "area": 48.37,
        "centroid_coordinates": [
          10.932357026213998,
          49.23480121036781
        ]
      }
    },
    {
      "type": "Feature",
      "geometry": {
        "type": "Point",
        "coordinates": [
          11.237440998102988,
          49.24307526491869
        ]
      },
      "properties": {
        "id": "113",
        "land-id": "09576",
        "name": "Allersberg",
        "population": 8523,
        "area": 59.76,
        "centroid_coordinates": [
          11.237440998102988,
          49.24307526491869
        ]
      }
    },
    {
      "type": "Feature",
      "geometry": {
        "type": "Point",
        "coordinates": [
          11.02761748060477,
          49.266326607508226
        ]
      },
      "properties": {
        "id": "117",
        "land-id": "09576",
        "name": "Büchenbach",
        "population": 5480,
        "area": 30.75,
        "centroid_coordinates": [
          11.02761748060477,
          49.266326607508226
        ]
      }
    },
    {
      "type": "Feature",
      "geometry": {
        "type": "Point",
        "coordinates": [
          11.025240247962346,
          49.19515737832283
        ]
      },
      "properties": {
        "id": "121",
        "land-id": "09576",
        "name": "Georgensgmünd",
        "population": 6910,
        "area": 46.91,
        "centroid_coordinates": [
          11.025240247962346,
          49.19515737832283
        ]
      }
    },
    {
      "type": "Feature",
      "geometry": {
        "type": "Point",
        "coordinates": [
          11.328306840940284,
          49.059671974501455
        ]
      },
      "properties": {
        "id": "122",
        "land-id": "09576",
        "name": "Greding",
        "population": 7152,
        "area": 103.77,
        "centroid_coordinates": [
          11.328306840940284,
          49.059671974501455
        ]
      }
    },
    {
      "type": "Feature",
      "geometry": {
        "type": "Point",
        "coordinates": [
          11.121565461563764,
          49.13055901178486
        ]
      },
      "properties": {
        "id": "126",
        "land-id": "09576",
        "name": "Heideck",
        "population": 4637,
        "area": 58.53,
        "centroid_coordinates": [
          11.121565461563764,
          49.13055901178486
        ]
      }
    },
    {
      "type": "Feature",
      "geometry": {
        "type": "Point",
        "coordinates": [
          11.228926971685205,
          49.17089146575895
        ]
      },
      "properties": {
        "id": "127",
        "land-id": "09576",
        "name": "Hilpoltstein",
        "population": 13634,
        "area": 89.71,
        "centroid_coordinates": [
          11.228926971685205,
          49.17089146575895
        ]
      }
    },
    {
      "type": "Feature",
      "geometry": {
        "type": "Point",
        "coordinates": [
          10.952659604725635,
          49.29617689763315
        ]
      },
      "properties": {
        "id": "128",
        "land-id": "09576",
        "name": "Kammerstein",
        "population": 3074,
        "area": 37.04,
        "centroid_coordinates": [
          10.952659604725635,
          49.29617689763315
        ]
      }
    },
    {
      "type": "Feature",
      "geometry": {
        "type": "Point",
        "coordinates": [
          11.138034653661183,
          49.30506237302239
        ]
      },
      "properties": {
        "id": "132",
        "land-id": "09576",
        "name": "Schwanstetten",
        "population": 7190,
        "area": 32.34,
        "centroid_coordinates": [
          11.138034653661183,
          49.30506237302239
        ]
      }
    },
    {
      "type": "Feature",
      "geometry": {
        "type": "Point",
        "coordinates": [
          11.068801594129974,
          49.29826240052286
        ]
      },
      "properties": {
        "id": "137",
        "land-id": "09576",
        "name": "Rednitzhembach",
        "population": 6988,
        "area": 13.0,
        "centroid_coordinates": [
          11.068801594129974,
          49.29826240052286
        ]
      }
    },
    {
      "type": "Feature",
      "geometry": {
        "type": "Point",
        "coordinates": [
          11.024426420761063,
          49.15310551037035
        ]
      },
      "properties": {
        "id": "141",
        "land-id": "09576",
        "name": "Röttenbach",
        "population": 3362,
        "area": 21.62,
        "centroid_coordinates": [
          11.024426420761063,
          49.15310551037035
        ]
      }
    },
    {
      "type": "Feature",
      "geometry": {
        "type": "Point",
        "coordinates": [
          10.928915487828153,
          49.34323021126234
        ]
      },
      "properties": {
        "id": "142",
        "land-id": "09576",
        "name": "Rohr",
        "population": 3781,
        "area": 46.55,
        "centroid_coordinates": [
          10.928915487828153,
          49.34323021126234
        ]
      }
    },
    {
      "type": "Feature",
      "geometry": {
        "type": "Point",
        "coordinates": [
          11.116105094905272,
          49.233385352968256
        ]
      },
      "properties": {
        "id": "143",
        "land-id": "09576",
        "name": "Roth",
        "population": 25389,
        "area": 96.29,
        "centroid_coordinates": [
          11.116105094905272,
          49.233385352968256
        ]
      }
    },
    {
      "type": "Feature",
      "geometry": {
        "type": "Point",
        "coordinates": [
          10.917290249964053,
          49.17630377261455
        ]
      },
      "properties": {
        "id": "147",
        "land-id": "09576",
        "name": "Spalt",
        "population": 5198,
        "area": 55.68,
        "centroid_coordinates": [
          10.917290249964053,
          49.17630377261455
        ]
      }
    },
    {
      "type": "Feature",
      "geometry": {
        "type": "Point",
        "coordinates": [
          11.223814587505288,
          49.09757922949886
        ]
      },
      "properties": {
        "id": "148",
        "land-id": "09576",
        "name": "Thalmässing",
        "population": 5328,
        "area": 80.55,
        "centroid_coordinates": [
          11.223814587505288,
          49.09757922949886
        ]
      }
    },
    {
      "type": "Feature",
      "geometry": {
        "type": "Point",
        "coordinates": [
          11.172198985093763,
          49.338743630166185
        ]
      },
      "properties": {
        "id": "151",
        "land-id": "09576",
        "name": "Wendelstein",
        "population": 16469,
        "area": 50.76,
        "centroid_coordinates": [
          11.172198985093763,
          49.338743630166185
        ]
      }
    }
  ]
}