{
  "type": "FeatureCollection",
  "features": [
    {
      "type": "Feature",
      "geometry": {
        "type": "Point",
        "coordinates": [
          11.104563207104935,
          48.19252808183247
        ]
      },
      "properties": {
        "id": "111",
        "land-id": "09179",
        "name": "Adelshofen",
        "population": 1869,
        "area": 13.29,
        "centroid_coordinates": [
          11.104563207104935,
          48.19252808183247
        ]
      }
    },
    {
      "type": "Feature",
      "geometry": {
        "type": "Point",
        "coordinates": [
          11.279005755238648,
          48.14308411949265
        ]
      },
      "properties": {
        "id": "113",
        "land-id": "09179",
        "name": "Alling",
        "population": 4096,
        "area": 21.04,
        "centroid_coordinates": [
          11.279005755238648,
          48.14308411949265
        ]
      }
    },
    {
      "type": "Feature",
      "geometry": {
        "type": "Point",
        "coordinates": [
          11.070433838643162,
          48.22591991181421
        ]
      },
      "properties": {
        "id": "114",
        "land-id": "09179",
        "name": "Althegnenberg",
        "population": 2033,
        "area": 16.07,
        "centroid_coordinates": [
          11.070433838643162,
          48.22591991181421
        ]
      }
    },
    {
      "type": "Feature",
      "geometry": {
        "type": "Point",
        "coordinates": [
          11.185129975360557,
          48.26071648782062
        ]
      },
      "properties": {
        "id": "117",
        "land-id": "09179",
        "name": "Egenhofen",
        "population": 3442,
        "area": 33.43,
        "centroid_coordinates": [
          11.185129975360557,
          48.26071648782062
        ]
      }
    },
    {
      "type": "Feature",
      "geometry": {
        "type": "Point",
        "coordinates": [
          11.314961923925873,
          48.16524549464101
        ]
      },
      "properties": {
        "id": "118",
        "land-id": "09179",
        "name": "Eichenau",
        "population": 11573,
        "area": 6.93,
        "centroid_coordinates": [
          11.314961923925873,
          48.16524549464101
        ]
      }
    },
    {
      "type": "Feature",
      "geometry": {
        "type": "Point",
        "coordinates": [
          11.294649492591503,
          48.1815517446544
        ]
      },
      "properties": {
        "id": "119",
        "land-id": "09179",
        "name": "Emmering",
        "population": 6715,
        "area": 10.91,
        "centroid_coordinates": [
          11.294649492591503,
          48.1815517446544
        ]
      }
    },
    {
      "type": "Feature",
      "geometry": {
        "type": "Point",
        "coordinates": [
          11.229448265545594,
          48.17793352626157
        ]
      },
      "properties": {
        "id": "121",
        "land-id": "09179",
        "name": "Fürstenfeldbruck",
        "population": 36809,
        "area": 32.64,
        "centroid_coordinates": [
          11.229448265545594,
          48.17793352626157
        ]
      }
    },
    {
      "type": "Feature",
      "geometry": {
        "type": "Point",
        "coordinates": [
          11.360341934979402,
          48.12898965720481
        ]
      },
      "properties": {
        "id": "123",
        "land-id": "09179",
        "name": "Germering",
        "population": 40735,
        "area": 21.6,
        "centroid_coordinates": [
          11.360341934979402,
          48.12898965720481
        ]
      }
    },
    {
      "type": "Feature",
      "geometry": {
        "type": "Point",
        "coordinates": [
          11.166981806258224,
          48.12297844044038
        ]
      },
      "properties": {
        "id": "125",
        "land-id": "09179",
        "name": "Grafrath",
        "population": 3855,
        "area": 14.4,
        "centroid_coordinates": [
          11.166981806258224,
          48.12297844044038
        ]
      }
    },
    {
      "type": "Feature",
      "geometry": {
        "type": "Point",
        "coordinates": [
          11.37533596698634,
          48.19357549916266
        ]
      },
      "properties": {
        "id": "126",
        "land-id": "09179",
        "name": "Gröbenzell",
        "population": 19221,
        "area": 6.39,
        "centroid_coordinates": [
          11.37533596698634,
          48.19357549916266
        ]
      }
    },
    {
      "type": "Feature",
      "geometry": {
        "type": "Point",
        "coordinates": [
          11.113619621972262,
          48.22324141404785
        ]
      },
      "properties": {
        "id": "128",
        "land-id": "09179",
        "name": "Hattenhofen",
        "population": 1534,
        "area": 7.18,
        "centroid_coordinates": [
          11.113619621972262,
          48.22324141404785
        ]
      }
    },
    {
      "type": "Feature",
      "geometry": {
        "type": "Point",
        "coordinates": [
          11.133516517075405,
          48.16313341300675
        ]
      },
      "properties": {
        "id": "130",
        "land-id": "09179",
        "name": "Jesenwang",
        "population": 1667,
        "area": 15.31,
        "centroid_coordinates": [
          11.133516517075405,
          48.16313341300675
        ]
      }
    },
    {
      "type": "Feature",
      "geometry": {
        "type": "Point",
        "coordinates": [
          11.127768185566648,
          48.122425163650384
        ]
      },
      "properties": {
        "id": "131",
        "land-id": "09179",
        "name": "Kottgeisering",
        "population": 1571,
        "area": 8.26,
        "centroid_coordinates": [
          11.127768185566648,
          48.122425163650384
        ]
      }
    },
    {
      "type": "Feature",
      "geometry": {
        "type": "Point",
        "coordinates": [
          11.17311451623966,
          48.16007350986825
        ]
      },
      "properties": {
        "id": "132",
        "land-id": "09179",
        "name": "Landsberied",
        "population": 1568,
        "area": 10.48,
        "centroid_coordinates": [
          11.17311451623966,
          48.16007350986825
        ]
      }
    },
    {
      "type": "Feature",
      "geometry": {
        "type": "Point",
        "coordinates": [
          11.25454348038052,
          48.230323667340436
        ]
      },
      "properties": {
        "id": "134",
        "land-id": "09179",
        "name": "Maisach",
        "population": 13920,
        "area": 53.36,
        "centroid_coordinates": [
          11.25454348038052,
          48.230323667340436
        ]
      }
    },
    {
      "type": "Feature",
      "geometry": {
        "type": "Point",
        "coordinates": [
          11.161118524702994,
          48.207558016868816
        ]
      },
      "properties": {
        "id": "136",
        "land-id": "09179",
        "name": "Mammendorf",
        "population": 4985,
        "area": 21.2,
        "centroid_coordinates": [
          11.161118524702994,
          48.207558016868816
        ]
      }
    },
    {
      "type": "Feature",
      "geometry": {
        "type": "Point",
        "coordinates": [
          11.099328679113245,
          48.25476996845308
        ]
      },
      "properties": {
        "id": "137",
        "land-id": "09179",
        "name": "Mittelstetten",
        "population": 1660,
        "area": 18.62,
        "centroid_coordinates": [
          11.099328679113245,
          48.25476996845308
        ]
      }
    },
    {
      "type": "Feature",
      "geometry": {
        "type": "Point",
        "coordinates": [
          11.064262293772519,
          48.16158160108439
        ]
      },
      "properties": {
        "id": "138",
        "land-id": "09179",
        "name": "Moorenweis",
        "population": 4109,
        "area": 45.36,
        "centroid_coordinates": [
          11.064262293772519,
          48.16158160108439
        ]
      }
    },
    {
      "type": "Feature",
      "geometry": {
        "type": "Point",
        "coordinates": [
          11.14665523672782,
          48.24051820136239
        ]
      },
      "properties": {
        "id": "140",
        "land-id": "09179",
        "name": "Oberschweinbach",
        "population": 1680,
        "area": 7.27,
        "centroid_coordinates": [
          11.14665523672782,
          48.24051820136239
        ]
      }
    },
    {
      "type": "Feature",
      "geometry": {
        "type": "Point",
        "coordinates": [
          11.34741044884176,
          48.209416413553555
        ]
      },
      "properties": {
        "id": "142",
        "land-id": "09179",
        "name": "Olching",
        "population": 27297,
        "area": 29.86,
        "centroid_coordinates": [
          11.34741044884176,
          48.209416413553555
        ]
      }
    },
    {
      "type": "Feature",
      "geometry": {
        "type": "Point",
        "coordinates": [
          11.346239596149315,
          48.16106890154832
        ]
      },
      "properties": {
        "id": "145",
        "land-id": "09179",
        "name": "Puchheim",
        "population": 20859,
        "area": 12.22,
        "centroid_coordinates": [
          11.346239596149315,
          48.16106890154832
        ]
      }
    },
    {
      "type": "Feature",
      "geometry": {
        "type": "Point",
        "coordinates": [
          11.205078948347841,
          48.13426601341246
        ]
      },
      "properties": {
        "id": "147",
        "land-id": "09179",
        "name": "Schöngeising",
        "population": 1944,
        "area": 12.93,
        "centroid_coordinates": [
          11.205078948347841,
          48.13426601341246
        ]
      }
    },
    {
      "type": "Feature",
      "geometry": {
        "type": "Point",
        "coordinates": [
          11.093807467145805,
          48.10838788499315
        ]
      },
      "properties": {
        "id": "149",
        "land-id": "09179",
        "name": "Türkenfeld",
        "population": 3590,
        "area": 15.93,
        "centroid_coordinates": [
          11.093807467145805,
          48.10838788499315
        ]
      }
    }
  ]
}