{
  "type": "FeatureCollection",
  "features": [
    {
      "type": "Feature",
      "geometry": {
        "type": "Point",
        "coordinates": [
          12.817911293316843,
          49.265047985476244
        ]
      },
      "properties": {
        "id": "112",
        "land-id": "09372",
        "name": "Arnschwang",
        "population": 1972,
        "area": 28.26,
        "centroid_coordinates": [
          12.817911293316843,
          49.265047985476244
        ]
      }
    },
    {
      "type": "Feature",
      "geometry": {
        "type": "Point",
        "coordinates": [
          12.993837377557716,
          49.193129858977336
        ]
      },
      "properties": {
        "id": "113",
        "land-id": "09372",
        "name": "Arrach",
        "population": 2308,
        "area": 28.82,
        "centroid_coordinates": [
          12.993837377557716,
          49.193129858977336
        ]
      }
    },
    {
      "type": "Feature",
      "geometry": {
        "type": "Point",
        "coordinates": [
          12.814714882119612,
          49.162597850375754
        ]
      },
      "properties": {
        "id": "115",
        "land-id": "09372",
        "name": "Blaibach",
        "population": 1885,
        "area": 17.0,
        "centroid_coordinates": [
          12.814714882119612,
          49.162597850375754
        ]
      }
    },
    {
      "type": "Feature",
      "geometry": {
        "type": "Point",
        "coordinates": [
          12.665700274615608,
          49.20997443999233
        ]
      },
      "properties": {
        "id": "116",
        "land-id": "09372",
        "name": "Cham",
        "population": 17467,
        "area": 80.7,
        "centroid_coordinates": [
          12.665700274615608,
          49.20997443999233
        ]
      }
    },
    {
      "type": "Feature",
      "geometry": {
        "type": "Point",
        "coordinates": [
          12.769491464799055,
          49.19644547549553
        ]
      },
      "properties": {
        "id": "117",
        "land-id": "09372",
        "name": "Chamerau",
        "population": 2517,
        "area": 23.43,
        "centroid_coordinates": [
          12.769491464799055,
          49.19644547549553
        ]
      }
    },
    {
      "type": "Feature",
      "geometry": {
        "type": "Point",
        "coordinates": [
          12.937381641567612,
          49.2981172365971
        ]
      },
      "properties": {
        "id": "124",
        "land-id": "09372",
        "name": "Eschlkam",
        "population": 3347,
        "area": 60.45,
        "centroid_coordinates": [
          12.937381641567612,
          49.2981172365971
        ]
      }
    },
    {
      "type": "Feature",
      "geometry": {
        "type": "Point",
        "coordinates": [
          12.484552050350969,
          49.10151700719143
        ]
      },
      "properties": {
        "id": "125",
        "land-id": "09372",
        "name": "Falkenstein",
        "population": 3405,
        "area": 45.5,
        "centroid_coordinates": [
          12.484552050350969,
          49.10151700719143
        ]
      }
    },
    {
      "type": "Feature",
      "geometry": {
        "type": "Point",
        "coordinates": [
          12.834642333307594,
          49.30953592763291
        ]
      },
      "properties": {
        "id": "126",
        "land-id": "09372",
        "name": "Furth im Wald",
        "population": 8697,
        "area": 67.04,
        "centroid_coordinates": [
          12.834642333307594,
          49.30953592763291
        ]
      }
    },
    {
      "type": "Feature",
      "geometry": {
        "type": "Point",
        "coordinates": [
          12.74368817903406,
          49.32472690664739
        ]
      },
      "properties": {
        "id": "128",
        "land-id": "09372",
        "name": "Gleißenberg",
        "population": 806,
        "area": 15.31,
        "centroid_coordinates": [
          12.74368817903406,
          49.32472690664739
        ]
      }
    },
    {
      "type": "Feature",
      "geometry": {
        "type": "Point",
        "coordinates": [
          12.879557091866019,
          49.20345688951417
        ]
      },
      "properties": {
        "id": "130",
        "land-id": "09372",
        "name": "Grafenwiesen",
        "population": 1534,
        "area": 10.19,
        "centroid_coordinates": [
          12.879557091866019,
          49.20345688951417
        ]
      }
    },
    {
      "type": "Feature",
      "geometry": {
        "type": "Point",
        "coordinates": [
          12.938012222891446,
          49.20160999445791
        ]
      },
      "properties": {
        "id": "135",
        "land-id": "09372",
        "name": "Hohenwarth",
        "population": 1905,
        "area": 24.25,
        "centroid_coordinates": [
          12.938012222891446,
          49.20160999445791
        ]
      }
    },
    {
      "type": "Feature",
      "geometry": {
        "type": "Point",
        "coordinates": [
          12.879018520736407,
          49.170349040057935
        ]
      },
      "properties": {
        "id": "137",
        "land-id": "09372",
        "name": "Bad Kötzting",
        "population": 7487,
        "area": 62.18,
        "centroid_coordinates": [
          12.879018520736407,
          49.170349040057935
        ]
      }
    },
    {
      "type": "Feature",
      "geometry": {
        "type": "Point",
        "coordinates": [
          13.053227410671273,
          49.1990643181653
        ]
      },
      "properties": {
        "id": "138",
        "land-id": "09372",
        "name": "Lam",
        "population": 2594,
        "area": 33.27,
        "centroid_coordinates": [
          13.053227410671273,
          49.1990643181653
        ]
      }
    },
    {
      "type": "Feature",
      "geometry": {
        "type": "Point",
        "coordinates": [
          12.541324102731673,
          49.12180794636298
        ]
      },
      "properties": {
        "id": "142",
        "land-id": "09372",
        "name": "Michelsneukirchen",
        "population": 1739,
        "area": 32.85,
        "centroid_coordinates": [
          12.541324102731673,
          49.12180794636298
        ]
      }
    },
    {
      "type": "Feature",
      "geometry": {
        "type": "Point",
        "coordinates": [
          12.774625237777993,
          49.145743819687084
        ]
      },
      "properties": {
        "id": "143",
        "land-id": "09372",
        "name": "Miltach",
        "population": 2270,
        "area": 25.25,
        "centroid_coordinates": [
          12.774625237777993,
          49.145743819687084
        ]
      }
    },
    {
      "type": "Feature",
      "geometry": {
        "type": "Point",
        "coordinates": [
          13.001060432435711,
          49.255257462605314
        ]
      },
      "properties": {
        "id": "144",
        "land-id": "09372",
        "name": "Neukirchen b.Hl.Blut",
        "population": 3659,
        "area": 59.87,
        "centroid_coordinates": [
          13.001060432435711,
          49.255257462605314
        ]
      }
    },
    {
      "type": "Feature",
      "geometry": {
        "type": "Point",
        "coordinates": [
          12.607769889668639,
          49.27550800232788
        ]
      },
      "properties": {
        "id": "146",
        "land-id": "09372",
        "name": "Pemfling",
        "population": 2173,
        "area": 44.57,
        "centroid_coordinates": [
          12.607769889668639,
          49.27550800232788
        ]
      }
    },
    {
      "type": "Feature",
      "geometry": {
        "type": "Point",
        "coordinates": [
          12.550377072607318,
          49.233940230829205
        ]
      },
      "properties": {
        "id": "147",
        "land-id": "09372",
        "name": "Pösing",
        "population": 1015,
        "area": 9.16,
        "centroid_coordinates": [
          12.550377072607318,
          49.233940230829205
        ]
      }
    },
    {
      "type": "Feature",
      "geometry": {
        "type": "Point",
        "coordinates": [
          12.347102635575327,
          49.17903716367405
        ]
      },
      "properties": {
        "id": "149",
        "land-id": "09372",
        "name": "Reichenbach",
        "population": 1297,
        "area": 10.5,
        "centroid_coordinates": [
          12.347102635575327,
          49.17903716367405
        ]
      }
    },
    {
      "type": "Feature",
      "geometry": {
        "type": "Point",
        "coordinates": [
          12.45693408331779,
          49.06363334505417
        ]
      },
      "properties": {
        "id": "150",
        "land-id": "09372",
        "name": "Rettenbach",
        "population": 1812,
        "area": 27.12,
        "centroid_coordinates": [
          12.45693408331779,
          49.06363334505417
        ]
      }
    },
    {
      "type": "Feature",
      "geometry": {
        "type": "Point",
        "coordinates": [
          12.885688611199585,
          49.23453660425753
        ]
      },
      "properties": {
        "id": "151",
        "land-id": "09372",
        "name": "Rimbach",
        "population": 1793,
        "area": 24.74,
        "centroid_coordinates": [
          12.885688611199585,
          49.23453660425753
        ]
      }
    },
    {
      "type": "Feature",
      "geometry": {
        "type": "Point",
        "coordinates": [
          12.480437981364249,
          49.20597094137424
        ]
      },
      "properties": {
        "id": "153",
        "land-id": "09372",
        "name": "Roding",
        "population": 12933,
        "area": 119.71,
        "centroid_coordinates": [
          12.480437981364249,
          49.20597094137424
        ]
      }
    },
    {
      "type": "Feature",
      "geometry": {
        "type": "Point",
        "coordinates": [
          12.530871155008267,
          49.35245437352901
        ]
      },
      "properties": {
        "id": "154",
        "land-id": "09372",
        "name": "Rötz",
        "population": 3213,
        "area": 66.65,
        "centroid_coordinates": [
          12.530871155008267,
          49.35245437352901
        ]
      }
    },
    {
      "type": "Feature",
      "geometry": {
        "type": "Point",
        "coordinates": [
          12.757031230656503,
          49.222243667665154
        ]
      },
      "properties": {
        "id": "155",
        "land-id": "09372",
        "name": "Runding",
        "population": 2234,
        "area": 20.96,
        "centroid_coordinates": [
          12.757031230656503,
          49.222243667665154
        ]
      }
    },
    {
      "type": "Feature",
      "geometry": {
        "type": "Point",
        "coordinates": [
          12.602032121606282,
          49.35400465654307
        ]
      },
      "properties": {
        "id": "157",
        "land-id": "09372",
        "name": "Schönthal",
        "population": 1962,
        "area": 43.65,
        "centroid_coordinates": [
          12.602032121606282,
          49.35400465654307
        ]
      }
    },
    {
      "type": "Feature",
      "geometry": {
        "type": "Point",
        "coordinates": [
          12.596061751550295,
          49.16752066381212
        ]
      },
      "properties": {
        "id": "158",
        "land-id": "09372",
        "name": "Schorndorf",
        "population": 3002,
        "area": 38.56,
        "centroid_coordinates": [
          12.596061751550295,
          49.16752066381212
        ]
      }
    },
    {
      "type": "Feature",
      "geometry": {
        "type": "Point",
        "coordinates": [
          12.523547937406695,
          49.27412962971982
        ]
      },
      "properties": {
        "id": "161",
        "land-id": "09372",
        "name": "Stamsried",
        "population": 2218,
        "area": 43.42,
        "centroid_coordinates": [
          12.523547937406695,
          49.27412962971982
        ]
      }
    },
    {
      "type": "Feature",
      "geometry": {
        "type": "Point",
        "coordinates": [
          12.590016478740157,
          49.44237715402195
        ]
      },
      "properties": {
        "id": "163",
        "land-id": "09372",
        "name": "Tiefenbach",
        "population": 1877,
        "area": 45.77,
        "centroid_coordinates": [
          12.590016478740157,
          49.44237715402195
        ]
      }
    },
    {
      "type": "Feature",
      "geometry": {
        "type": "Point",
        "coordinates": [
          12.647424318763306,
          49.131221807303824
        ]
      },
      "properties": {
        "id": "164",
        "land-id": "09372",
        "name": "Traitsching",
        "population": 4232,
        "area": 45.34,
        "centroid_coordinates": [
          12.647424318763306,
          49.131221807303824
        ]
      }
    },
    {
      "type": "Feature",
      "geometry": {
        "type": "Point",
        "coordinates": [
          12.625980290978067,
          49.41831816725038
        ]
      },
      "properties": {
        "id": "165",
        "land-id": "09372",
        "name": "Treffelstein",
        "population": 978,
        "area": 20.89,
        "centroid_coordinates": [
          12.625980290978067,
          49.41831816725038
        ]
      }
    },
    {
      "type": "Feature",
      "geometry": {
        "type": "Point",
        "coordinates": [
          12.416216395191297,
          49.140660804302215
        ]
      },
      "properties": {
        "id": "167",
        "land-id": "09372",
        "name": "Zell",
        "population": 1817,
        "area": 32.9,
        "centroid_coordinates": [
          12.416216395191297,
          49.140660804302215
        ]
      }
    },
    {
      "type": "Feature",
      "geometry": {
        "type": "Point",
        "coordinates": [
          12.667123266293292,
          49.28498473320118
        ]
      },
      "properties": {
        "id": "168",
        "land-id": "09372",
        "name": "Waffenbrunn",
        "population": 2045,
        "area": 25.14,
        "centroid_coordinates": [
          12.667123266293292,
          49.28498473320118
        ]
      }
    },
    {
      "type": "Feature",
      "geometry": {
        "type": "Point",
        "coordinates": [
          12.351624400047323,
          49.12841333740377
        ]
      },
      "properties": {
        "id": "169",
        "land-id": "09372",
        "name": "Wald",
        "population": 2984,
        "area": 37.79,
        "centroid_coordinates": [
          12.351624400047323,
          49.12841333740377
        ]
      }
    },
    {
      "type": "Feature",
      "geometry": {
        "type": "Point",
        "coordinates": [
          12.391163772380787,
          49.19809039250652
        ]
      },
      "properties": {
        "id": "170",
        "land-id": "09372",
        "name": "Walderbach",
        "population": 2333,
        "area": 34.96,
        "centroid_coordinates": [
          12.391163772380787,
          49.19809039250652
        ]
      }
    },
    {
      "type": "Feature",
      "geometry": {
        "type": "Point",
        "coordinates": [
          12.697324130636046,
          49.367903667287955
        ]
      },
      "properties": {
        "id": "171",
        "land-id": "09372",
        "name": "Waldmünchen",
        "population": 6591,
        "area": 101.19,
        "centroid_coordinates": [
          12.697324130636046,
          49.367903667287955
        ]
      }
    },
    {
      "type": "Feature",
      "geometry": {
        "type": "Point",
        "coordinates": [
          12.751931441725187,
          49.26774012024441
        ]
      },
      "properties": {
        "id": "174",
        "land-id": "09372",
        "name": "Weiding",
        "population": 2415,
        "area": 28.19,
        "centroid_coordinates": [
          12.751931441725187,
          49.26774012024441
        ]
      }
    },
    {
      "type": "Feature",
      "geometry": {
        "type": "Point",
        "coordinates": [
          12.682688191562903,
          49.25053760732877
        ]
      },
      "properties": {
        "id": "175",
        "land-id": "09372",
        "name": "Willmering",
        "population": 1997,
        "area": 10.31,
        "centroid_coordinates": [
          12.682688191562903,
          49.25053760732877
        ]
      }
    },
    {
      "type": "Feature",
      "geometry": {
        "type": "Point",
        "coordinates": [
          12.723899966985627,
          49.143621374848586
        ]
      },
      "properties": {
        "id": "177",
        "land-id": "09372",
        "name": "Zandt",
        "population": 2061,
        "area": 21.62,
        "centroid_coordinates": [
          12.723899966985627,
          49.143621374848586
        ]
      }
    },
    {
      "type": "Feature",
      "geometry": {
        "type": "Point",
        "coordinates": [
          13.108022669578537,
          49.15998353400532
        ]
      },
      "properties": {
        "id": "178",
        "land-id": "09372",
        "name": "Lohberg",
        "population": 1794,
        "area": 59.33,
        "centroid_coordinates": [
          13.108022669578537,
          49.15998353400532
        ]
      }
    }
  ]
}