{
  "type": "FeatureCollection",
  "features": [
    {
      "type": "Feature",
      "geometry": {
        "type": "Point",
        "coordinates": [
          12.479640770347737,
          48.62104966938452
        ]
      },
      "properties": {
        "id": "112",
        "land-id": "09279",
        "name": "Dingolfing",
        "population": 20819,
        "area": 44.17,
        "centroid_coordinates": [
          12.479640770347737,
          48.62104966938452
        ]
      }
    },
    {
      "type": "Feature",
      "geometry": {
        "type": "Point",
        "coordinates": [
          12.845123484123512,
          48.63340449290039
        ]
      },
      "properties": {
        "id": "113",
        "land-id": "09279",
        "name": "Eichendorf",
        "population": 6680,
        "area": 98.15,
        "centroid_coordinates": [
          12.845123484123512,
          48.63340449290039
        ]
      }
    },
    {
      "type": "Feature",
      "geometry": {
        "type": "Point",
        "coordinates": [
          12.527463168811511,
          48.52124354090404
        ]
      },
      "properties": {
        "id": "115",
        "land-id": "09279",
        "name": "Frontenhausen",
        "population": 4832,
        "area": 30.42,
        "centroid_coordinates": [
          12.527463168811511,
          48.52124354090404
        ]
      }
    },
    {
      "type": "Feature",
      "geometry": {
        "type": "Point",
        "coordinates": [
          12.535461360059394,
          48.62913084151806
        ]
      },
      "properties": {
        "id": "116",
        "land-id": "09279",
        "name": "Gottfrieding",
        "population": 2602,
        "area": 27.04,
        "centroid_coordinates": [
          12.535461360059394,
          48.62913084151806
        ]
      }
    },
    {
      "type": "Feature",
      "geometry": {
        "type": "Point",
        "coordinates": [
          12.715743661230063,
          48.65807619711372
        ]
      },
      "properties": {
        "id": "122",
        "land-id": "09279",
        "name": "Landau a.d.Isar",
        "population": 14759,
        "area": 84.47,
        "centroid_coordinates": [
          12.715743661230063,
          48.65807619711372
        ]
      }
    },
    {
      "type": "Feature",
      "geometry": {
        "type": "Point",
        "coordinates": [
          12.428449680016325,
          48.59072228743696
        ]
      },
      "properties": {
        "id": "124",
        "land-id": "09279",
        "name": "Loiching",
        "population": 3789,
        "area": 38.86,
        "centroid_coordinates": [
          12.428449680016325,
          48.59072228743696
        ]
      }
    },
    {
      "type": "Feature",
      "geometry": {
        "type": "Point",
        "coordinates": [
          12.6024903564569,
          48.64238689761888
        ]
      },
      "properties": {
        "id": "125",
        "land-id": "09279",
        "name": "Mamming",
        "population": 3331,
        "area": 41.49,
        "centroid_coordinates": [
          12.6024903564569,
          48.64238689761888
        ]
      }
    },
    {
      "type": "Feature",
      "geometry": {
        "type": "Point",
        "coordinates": [
          12.555451176969365,
          48.56017063889535
        ]
      },
      "properties": {
        "id": "126",
        "land-id": "09279",
        "name": "Marklkofen",
        "population": 3877,
        "area": 40.66,
        "centroid_coordinates": [
          12.555451176969365,
          48.56017063889535
        ]
      }
    },
    {
      "type": "Feature",
      "geometry": {
        "type": "Point",
        "coordinates": [
          12.429373015323225,
          48.72497298360599
        ]
      },
      "properties": {
        "id": "127",
        "land-id": "09279",
        "name": "Mengkofen",
        "population": 6083,
        "area": 84.68,
        "centroid_coordinates": [
          12.429373015323225,
          48.72497298360599
        ]
      }
    },
    {
      "type": "Feature",
      "geometry": {
        "type": "Point",
        "coordinates": [
          12.48018589853198,
          48.68272044418681
        ]
      },
      "properties": {
        "id": "128",
        "land-id": "09279",
        "name": "Moosthenning",
        "population": 5262,
        "area": 70.31,
        "centroid_coordinates": [
          12.48018589853198,
          48.68272044418681
        ]
      }
    },
    {
      "type": "Feature",
      "geometry": {
        "type": "Point",
        "coordinates": [
          12.383118123769028,
          48.602093159171844
        ]
      },
      "properties": {
        "id": "130",
        "land-id": "09279",
        "name": "Niederviehbach",
        "population": 2678,
        "area": 29.65,
        "centroid_coordinates": [
          12.383118123769028,
          48.602093159171844
        ]
      }
    },
    {
      "type": "Feature",
      "geometry": {
        "type": "Point",
        "coordinates": [
          12.631927826839915,
          48.707955020598455
        ]
      },
      "properties": {
        "id": "132",
        "land-id": "09279",
        "name": "Pilsting",
        "population": 7161,
        "area": 71.11,
        "centroid_coordinates": [
          12.631927826839915,
          48.707955020598455
        ]
      }
    },
    {
      "type": "Feature",
      "geometry": {
        "type": "Point",
        "coordinates": [
          12.63257636976544,
          48.56818737048459
        ]
      },
      "properties": {
        "id": "134",
        "land-id": "09279",
        "name": "Reisbach",
        "population": 7775,
        "area": 94.25,
        "centroid_coordinates": [
          12.63257636976544,
          48.56818737048459
        ]
      }
    },
    {
      "type": "Feature",
      "geometry": {
        "type": "Point",
        "coordinates": [
          12.71959084315048,
          48.56109909195262
        ]
      },
      "properties": {
        "id": "135",
        "land-id": "09279",
        "name": "Simbach",
        "population": 4175,
        "area": 51.17,
        "centroid_coordinates": [
          12.71959084315048,
          48.56109909195262
        ]
      }
    },
    {
      "type": "Feature",
      "geometry": {
        "type": "Point",
        "coordinates": [
          12.752173056254184,
          48.73553509186394
        ]
      },
      "properties": {
        "id": "137",
        "land-id": "09279",
        "name": "Wallersdorf",
        "population": 7226,
        "area": 71.15,
        "centroid_coordinates": [
          12.752173056254184,
          48.73553509186394
        ]
      }
    }
  ]
}