{
  "type": "FeatureCollection",
  "features": [
    {
      "type": "Feature",
      "geometry": {
        "type": "Point",
        "coordinates": [
          11.236085485943411,
          50.11624890471366
        ]
      },
      "properties": {
        "id": "111",
        "land-id": "09478",
        "name": "Altenkunstadt",
        "population": 5506,
        "area": 32.83,
        "centroid_coordinates": [
          11.236085485943411,
          50.11624890471366
        ]
      }
    },
    {
      "type": "Feature",
      "geometry": {
        "type": "Point",
        "coordinates": [
          11.287384004416,
          50.14347264330675
        ]
      },
      "properties": {
        "id": "116",
        "land-id": "09478",
        "name": "Burgkunstadt",
        "population": 6448,
        "area": 40.63,
        "centroid_coordinates": [
          11.287384004416,
          50.14347264330675
        ]
      }
    },
    {
      "type": "Feature",
      "geometry": {
        "type": "Point",
        "coordinates": [
          10.96297751551608,
          50.06442487676993
        ]
      },
      "properties": {
        "id": "120",
        "land-id": "09478",
        "name": "Ebensfeld",
        "population": 5621,
        "area": 68.72,
        "centroid_coordinates": [
          10.96297751551608,
          50.06442487676993
        ]
      }
    },
    {
      "type": "Feature",
      "geometry": {
        "type": "Point",
        "coordinates": [
          11.169221665802256,
          50.13804460204129
        ]
      },
      "properties": {
        "id": "127",
        "land-id": "09478",
        "name": "Hochstadt a.Main",
        "population": 1569,
        "area": 13.84,
        "centroid_coordinates": [
          11.169221665802256,
          50.13804460204129
        ]
      }
    },
    {
      "type": "Feature",
      "geometry": {
        "type": "Point",
        "coordinates": [
          11.084352330849134,
          50.13820820935379
        ]
      },
      "properties": {
        "id": "139",
        "land-id": "09478",
        "name": "Lichtenfels",
        "population": 20548,
        "area": 122.16,
        "centroid_coordinates": [
          11.084352330849134,
          50.13820820935379
        ]
      }
    },
    {
      "type": "Feature",
      "geometry": {
        "type": "Point",
        "coordinates": [
          11.19215001705214,
          50.18577810851862
        ]
      },
      "properties": {
        "id": "143",
        "land-id": "09478",
        "name": "Marktgraitz",
        "population": 1130,
        "area": 3.73,
        "centroid_coordinates": [
          11.19215001705214,
          50.18577810851862
        ]
      }
    },
    {
      "type": "Feature",
      "geometry": {
        "type": "Point",
        "coordinates": [
          11.177690338149075,
          50.16513929823098
        ]
      },
      "properties": {
        "id": "144",
        "land-id": "09478",
        "name": "Marktzeuln",
        "population": 1620,
        "area": 6.79,
        "centroid_coordinates": [
          11.177690338149075,
          50.16513929823098
        ]
      }
    },
    {
      "type": "Feature",
      "geometry": {
        "type": "Point",
        "coordinates": [
          11.127091365377467,
          50.17495043488375
        ]
      },
      "properties": {
        "id": "145",
        "land-id": "09478",
        "name": "Michelau i.OFr.",
        "population": 6004,
        "area": 19.34,
        "centroid_coordinates": [
          11.127091365377467,
          50.17495043488375
        ]
      }
    },
    {
      "type": "Feature",
      "geometry": {
        "type": "Point",
        "coordinates": [
          11.218608311711106,
          50.17766625149898
        ]
      },
      "properties": {
        "id": "155",
        "land-id": "09478",
        "name": "Redwitz a.d.Rodach",
        "population": 3442,
        "area": 14.69,
        "centroid_coordinates": [
          11.218608311711106,
          50.17766625149898
        ]
      }
    },
    {
      "type": "Feature",
      "geometry": {
        "type": "Point",
        "coordinates": [
          11.021101948746459,
          50.100234116468535
        ]
      },
      "properties": {
        "id": "165",
        "land-id": "09478",
        "name": "Bad Staffelstein",
        "population": 10823,
        "area": 99.39,
        "centroid_coordinates": [
          11.021101948746459,
          50.100234116468535
        ]
      }
    },
    {
      "type": "Feature",
      "geometry": {
        "type": "Point",
        "coordinates": [
          11.235498538471903,
          50.055775704954094
        ]
      },
      "properties": {
        "id": "176",
        "land-id": "09478",
        "name": "Weismain",
        "population": 4836,
        "area": 90.14,
        "centroid_coordinates": [
          11.235498538471903,
          50.055775704954094
        ]
      }
    }
  ]
}