{
  "type": "FeatureCollection",
  "features": [
    {
      "type": "Feature",
      "geometry": {
        "type": "Point",
        "coordinates": [
          10.011503373130028,
          50.1708184392081
        ]
      },
      "properties": {
        "id": "111",
        "land-id": "09672",
        "name": "Aura a.d.Saale",
        "population": 857,
        "area": 10.06,
        "centroid_coordinates": [
          10.011503373130028,
          50.1708184392081
        ]
      }
    },
    {
      "type": "Feature",
      "geometry": {
        "type": "Point",
        "coordinates": [
          10.069283599389529,
          50.27336894187702
        ]
      },
      "properties": {
        "id": "112",
        "land-id": "09672",
        "name": "Bad Bocklet",
        "population": 4717,
        "area": 37.85,
        "centroid_coordinates": [
          10.069283599389529,
          50.27336894187702
        ]
      }
    },
    {
      "type": "Feature",
      "geometry": {
        "type": "Point",
        "coordinates": [
          9.776817971252605,
          50.30707665514419
        ]
      },
      "properties": {
        "id": "113",
        "land-id": "09672",
        "name": "Bad Brückenau",
        "population": 6477,
        "area": 23.64,
        "centroid_coordinates": [
          9.776817971252605,
          50.30707665514419
        ]
      }
    },
    {
      "type": "Feature",
      "geometry": {
        "type": "Point",
        "coordinates": [
          10.058974193306534,
          50.202634919411985
        ]
      },
      "properties": {
        "id": "114",
        "land-id": "09672",
        "name": "Bad Kissingen",
        "population": 23100,
        "area": 69.85,
        "centroid_coordinates": [
          10.058974193306534,
          50.202634919411985
        ]
      }
    },
    {
      "type": "Feature",
      "geometry": {
        "type": "Point",
        "coordinates": [
          9.977047367284927,
          50.284419275138504
        ]
      },
      "properties": {
        "id": "117",
        "land-id": "09672",
        "name": "Burkardroth",
        "population": 7393,
        "area": 68.99,
        "centroid_coordinates": [
          9.977047367284927,
          50.284419275138504
        ]
      }
    },
    {
      "type": "Feature",
      "geometry": {
        "type": "Point",
        "coordinates": [
          9.974508639169503,
          50.12943372597206
        ]
      },
      "properties": {
        "id": "121",
        "land-id": "09672",
        "name": "Elfershausen",
        "population": 2834,
        "area": 34.87,
        "centroid_coordinates": [
          9.974508639169503,
          50.12943372597206
        ]
      }
    },
    {
      "type": "Feature",
      "geometry": {
        "type": "Point",
        "coordinates": [
          10.041531209325452,
          50.155875524070936
        ]
      },
      "properties": {
        "id": "122",
        "land-id": "09672",
        "name": "Euerdorf",
        "population": 1504,
        "area": 16.35,
        "centroid_coordinates": [
          10.041531209325452,
          50.155875524070936
        ]
      }
    },
    {
      "type": "Feature",
      "geometry": {
        "type": "Point",
        "coordinates": [
          9.936339736756766,
          50.092173801460845
        ]
      },
      "properties": {
        "id": "124",
        "land-id": "09672",
        "name": "Fuchsstadt",
        "population": 1898,
        "area": 18.3,
        "centroid_coordinates": [
          9.936339736756766,
          50.092173801460845
        ]
      }
    },
    {
      "type": "Feature",
      "geometry": {
        "type": "Point",
        "coordinates": [
          9.900450222665201,
          50.28845211982767
        ]
      },
      "properties": {
        "id": "126",
        "land-id": "09672",
        "name": "Geroda",
        "population": 801,
        "area": 16.82,
        "centroid_coordinates": [
          9.900450222665201,
          50.28845211982767
        ]
      }
    },
    {
      "type": "Feature",
      "geometry": {
        "type": "Point",
        "coordinates": [
          9.874257012596285,
          50.10381341018408
        ]
      },
      "properties": {
        "id": "127",
        "land-id": "09672",
        "name": "Hammelburg",
        "population": 10733,
        "area": 128.8,
        "centroid_coordinates": [
          9.874257012596285,
          50.10381341018408
        ]
      }
    },
    {
      "type": "Feature",
      "geometry": {
        "type": "Point",
        "coordinates": [
          10.25788002952041,
          50.194004761552534
        ]
      },
      "properties": {
        "id": "131",
        "land-id": "09672",
        "name": "Maßbach",
        "population": 4365,
        "area": 59.22,
        "centroid_coordinates": [
          10.25788002952041,
          50.194004761552534
        ]
      }
    },
    {
      "type": "Feature",
      "geometry": {
        "type": "Point",
        "coordinates": [
          9.770089415849503,
          50.38751503924781
        ]
      },
      "properties": {
        "id": "134",
        "land-id": "09672",
        "name": "Motten",
        "population": 1713,
        "area": 23.78,
        "centroid_coordinates": [
          9.770089415849503,
          50.38751503924781
        ]
      }
    },
    {
      "type": "Feature",
      "geometry": {
        "type": "Point",
        "coordinates": [
          10.24475606754648,
          50.25243363885817
        ]
      },
      "properties": {
        "id": "135",
        "land-id": "09672",
        "name": "Münnerstadt",
        "population": 7546,
        "area": 93.06,
        "centroid_coordinates": [
          10.24475606754648,
          50.25243363885817
        ]
      }
    },
    {
      "type": "Feature",
      "geometry": {
        "type": "Point",
        "coordinates": [
          10.135559886124874,
          50.21887149814377
        ]
      },
      "properties": {
        "id": "136",
        "land-id": "09672",
        "name": "Nüdlingen",
        "population": 3908,
        "area": 26.33,
        "centroid_coordinates": [
          10.135559886124874,
          50.21887149814377
        ]
      }
    },
    {
      "type": "Feature",
      "geometry": {
        "type": "Point",
        "coordinates": [
          9.804340858740918,
          50.27633308849276
        ]
      },
      "properties": {
        "id": "138",
        "land-id": "09672",
        "name": "Oberleichtersbach",
        "population": 2052,
        "area": 27.51,
        "centroid_coordinates": [
          9.804340858740918,
          50.27633308849276
        ]
      }
    },
    {
      "type": "Feature",
      "geometry": {
        "type": "Point",
        "coordinates": [
          9.933642703560196,
          50.195885195631526
        ]
      },
      "properties": {
        "id": "139",
        "land-id": "09672",
        "name": "Oberthulba",
        "population": 4954,
        "area": 52.34,
        "centroid_coordinates": [
          9.933642703560196,
          50.195885195631526
        ]
      }
    },
    {
      "type": "Feature",
      "geometry": {
        "type": "Point",
        "coordinates": [
          10.1351866139044,
          50.14929066091393
        ]
      },
      "properties": {
        "id": "140",
        "land-id": "09672",
        "name": "Oerlenbach",
        "population": 5040,
        "area": 33.44,
        "centroid_coordinates": [
          10.1351866139044,
          50.14929066091393
        ]
      }
    },
    {
      "type": "Feature",
      "geometry": {
        "type": "Point",
        "coordinates": [
          10.0778309996052,
          50.129182408098714
        ]
      },
      "properties": {
        "id": "142",
        "land-id": "09672",
        "name": "Ramsthal",
        "population": 1110,
        "area": 10.39,
        "centroid_coordinates": [
          10.0778309996052,
          50.129182408098714
        ]
      }
    },
    {
      "type": "Feature",
      "geometry": {
        "type": "Point",
        "coordinates": [
          10.20382219020471,
          50.16937928083754
        ]
      },
      "properties": {
        "id": "143",
        "land-id": "09672",
        "name": "Rannungen",
        "population": 1100,
        "area": 17.44,
        "centroid_coordinates": [
          10.20382219020471,
          50.16937928083754
        ]
      }
    },
    {
      "type": "Feature",
      "geometry": {
        "type": "Point",
        "coordinates": [
          9.884958281426293,
          50.32192789304745
        ]
      },
      "properties": {
        "id": "145",
        "land-id": "09672",
        "name": "Riedenberg",
        "population": 933,
        "area": 13.22,
        "centroid_coordinates": [
          9.884958281426293,
          50.32192789304745
        ]
      }
    },
    {
      "type": "Feature",
      "geometry": {
        "type": "Point",
        "coordinates": [
          9.853388112362602,
          50.25877093588676
        ]
      },
      "properties": {
        "id": "149",
        "land-id": "09672",
        "name": "Schondra",
        "population": 1615,
        "area": 28.5,
        "centroid_coordinates": [
          9.853388112362602,
          50.25877093588676
        ]
      }
    },
    {
      "type": "Feature",
      "geometry": {
        "type": "Point",
        "coordinates": [
          10.041651513428201,
          50.12037950041065
        ]
      },
      "properties": {
        "id": "155",
        "land-id": "09672",
        "name": "Sulzthal",
        "population": 858,
        "area": 15.01,
        "centroid_coordinates": [
          10.041651513428201,
          50.12037950041065
        ]
      }
    },
    {
      "type": "Feature",
      "geometry": {
        "type": "Point",
        "coordinates": [
          10.32528747030215,
          50.20043098798612
        ]
      },
      "properties": {
        "id": "157",
        "land-id": "09672",
        "name": "Thundorf i.UFr.",
        "population": 987,
        "area": 15.56,
        "centroid_coordinates": [
          10.32528747030215,
          50.20043098798612
        ]
      }
    },
    {
      "type": "Feature",
      "geometry": {
        "type": "Point",
        "coordinates": [
          9.790985794612547,
          50.16876999598007
        ]
      },
      "properties": {
        "id": "161",
        "land-id": "09672",
        "name": "Wartmannsroth",
        "population": 2128,
        "area": 53.4,
        "centroid_coordinates": [
          9.790985794612547,
          50.16876999598007
        ]
      }
    },
    {
      "type": "Feature",
      "geometry": {
        "type": "Point",
        "coordinates": [
          9.86660507349194,
          50.373057848865194
        ]
      },
      "properties": {
        "id": "163",
        "land-id": "09672",
        "name": "Wildflecken",
        "population": 2839,
        "area": 77.7,
        "centroid_coordinates": [
          9.86660507349194,
          50.373057848865194
        ]
      }
    },
    {
      "type": "Feature",
      "geometry": {
        "type": "Point",
        "coordinates": [
          9.72187023294522,
          50.254580907429855
        ]
      },
      "properties": {
        "id": "166",
        "land-id": "09672",
        "name": "Zeitlofs",
        "population": 2025,
        "area": 40.86,
        "centroid_coordinates": [
          9.72187023294522,
          50.254580907429855
        ]
      }
    }
  ]
}