{
  "type": "FeatureCollection",
  "features": [
    {
      "type": "Feature",
      "geometry": {
        "type": "Point",
        "coordinates": [
          10.149126476556265,
          49.45159032665718
        ]
      },
      "properties": {
        "id": "111",
        "land-id": "09571",
        "name": "Adelshofen",
        "population": 909,
        "area": 27.2,
        "centroid_coordinates": [
          10.149126476556265,
          49.45159032665718
        ]
      }
    },
    {
      "type": "Feature",
      "geometry": {
        "type": "Point",
        "coordinates": [
          10.630535795908527,
          49.13489995729227
        ]
      },
      "properties": {
        "id": "113",
        "land-id": "09571",
        "name": "Arberg",
        "population": 2241,
        "area": 31.33,
        "centroid_coordinates": [
          10.630535795908527,
          49.13489995729227
        ]
      }
    },
    {
      "type": "Feature",
      "geometry": {
        "type": "Point",
        "coordinates": [
          10.396347497349575,
          49.240061986083546
        ]
      },
      "properties": {
        "id": "114",
        "land-id": "09571",
        "name": "Aurach",
        "population": 3124,
        "area": 36.68,
        "centroid_coordinates": [
          10.396347497349575,
          49.240061986083546
        ]
      }
    },
    {
      "type": "Feature",
      "geometry": {
        "type": "Point",
        "coordinates": [
          10.556365115513202,
          49.17070870234495
        ]
      },
      "properties": {
        "id": "115",
        "land-id": "09571",
        "name": "Bechhofen",
        "population": 6346,
        "area": 61.77,
        "centroid_coordinates": [
          10.556365115513202,
          49.17070870234495
        ]
      }
    },
    {
      "type": "Feature",
      "geometry": {
        "type": "Point",
        "coordinates": [
          10.691262172942546,
          49.34992502332105
        ]
      },
      "properties": {
        "id": "122",
        "land-id": "09571",
        "name": "Bruckberg",
        "population": 1264,
        "area": 7.63,
        "centroid_coordinates": [
          10.691262172942546,
          49.34992502332105
        ]
      }
    },
    {
      "type": "Feature",
      "geometry": {
        "type": "Point",
        "coordinates": [
          10.309693101965008,
          49.319095980793186
        ]
      },
      "properties": {
        "id": "125",
        "land-id": "09571",
        "name": "Buch a.Wald",
        "population": 1003,
        "area": 26.46,
        "centroid_coordinates": [
          10.309693101965008,
          49.319095980793186
        ]
      }
    },
    {
      "type": "Feature",
      "geometry": {
        "type": "Point",
        "coordinates": [
          10.586231058899912,
          49.222674608127996
        ]
      },
      "properties": {
        "id": "127",
        "land-id": "09571",
        "name": "Burgoberbach",
        "population": 3762,
        "area": 12.65,
        "centroid_coordinates": [
          10.586231058899912,
          49.222674608127996
        ]
      }
    },
    {
      "type": "Feature",
      "geometry": {
        "type": "Point",
        "coordinates": [
          10.482493101057834,
          49.13875775481879
        ]
      },
      "properties": {
        "id": "128",
        "land-id": "09571",
        "name": "Burk",
        "population": 1109,
        "area": 14.09,
        "centroid_coordinates": [
          10.482493101057834,
          49.13875775481879
        ]
      }
    },
    {
      "type": "Feature",
      "geometry": {
        "type": "Point",
        "coordinates": [
          10.401157173952893,
          49.36677662817871
        ]
      },
      "properties": {
        "id": "130",
        "land-id": "09571",
        "name": "Colmberg",
        "population": 2164,
        "area": 38.32,
        "centroid_coordinates": [
          10.401157173952893,
          49.36677662817871
        ]
      }
    },
    {
      "type": "Feature",
      "geometry": {
        "type": "Point",
        "coordinates": [
          10.422074016670948,
          49.14399663545248
        ]
      },
      "properties": {
        "id": "132",
        "land-id": "09571",
        "name": "Dentlein a.Forst",
        "population": 2330,
        "area": 18.02,
        "centroid_coordinates": [
          10.422074016670948,
          49.14399663545248
        ]
      }
    },
    {
      "type": "Feature",
      "geometry": {
        "type": "Point",
        "coordinates": [
          10.20938314415581,
          49.297786079121
        ]
      },
      "properties": {
        "id": "134",
        "land-id": "09571",
        "name": "Diebach",
        "population": 1195,
        "area": 22.41,
        "centroid_coordinates": [
          10.20938314415581,
          49.297786079121
        ]
      }
    },
    {
      "type": "Feature",
      "geometry": {
        "type": "Point",
        "coordinates": [
          10.684915189878373,
          49.40096306256565
        ]
      },
      "properties": {
        "id": "135",
        "land-id": "09571",
        "name": "Dietenhofen",
        "population": 5737,
        "area": 63.89,
        "centroid_coordinates": [
          10.684915189878373,
          49.40096306256565
        ]
      }
    },
    {
      "type": "Feature",
      "geometry": {
        "type": "Point",
        "coordinates": [
          10.310413238948527,
          49.07524568317468
        ]
      },
      "properties": {
        "id": "136",
        "land-id": "09571",
        "name": "Dinkelsbühl",
        "population": 12307,
        "area": 75.14,
        "centroid_coordinates": [
          10.310413238948527,
          49.07524568317468
        ]
      }
    },
    {
      "type": "Feature",
      "geometry": {
        "type": "Point",
        "coordinates": [
          10.29770176845946,
          49.25504209478501
        ]
      },
      "properties": {
        "id": "137",
        "land-id": "09571",
        "name": "Dombühl",
        "population": 1965,
        "area": 17.88,
        "centroid_coordinates": [
          10.29770176845946,
          49.25504209478501
        ]
      }
    },
    {
      "type": "Feature",
      "geometry": {
        "type": "Point",
        "coordinates": [
          10.379241480128886,
          49.102700790747775
        ]
      },
      "properties": {
        "id": "139",
        "land-id": "09571",
        "name": "Dürrwangen",
        "population": 2535,
        "area": 23.02,
        "centroid_coordinates": [
          10.379241480128886,
          49.102700790747775
        ]
      }
    },
    {
      "type": "Feature",
      "geometry": {
        "type": "Point",
        "coordinates": [
          10.544090500240053,
          49.097002033731044
        ]
      },
      "properties": {
        "id": "141",
        "land-id": "09571",
        "name": "Ehingen",
        "population": 1924,
        "area": 47.6,
        "centroid_coordinates": [
          10.544090500240053,
          49.097002033731044
        ]
      }
    },
    {
      "type": "Feature",
      "geometry": {
        "type": "Point",
        "coordinates": [
          10.321350976414685,
          49.175297073051134
        ]
      },
      "properties": {
        "id": "145",
        "land-id": "09571",
        "name": "Feuchtwangen",
        "population": 12521,
        "area": 137.14,
        "centroid_coordinates": [
          10.321350976414685,
          49.175297073051134
        ]
      }
    },
    {
      "type": "Feature",
      "geometry": {
        "type": "Point",
        "coordinates": [
          10.519894020643546,
          49.40471376888853
        ]
      },
      "properties": {
        "id": "146",
        "land-id": "09571",
        "name": "Flachslanden",
        "population": 2442,
        "area": 40.85,
        "centroid_coordinates": [
          10.519894020643546,
          49.40471376888853
        ]
      }
    },
    {
      "type": "Feature",
      "geometry": {
        "type": "Point",
        "coordinates": [
          10.2143133162317,
          49.34235606428688
        ]
      },
      "properties": {
        "id": "152",
        "land-id": "09571",
        "name": "Gebsattel",
        "population": 1721,
        "area": 19.1,
        "centroid_coordinates": [
          10.2143133162317,
          49.34235606428688
        ]
      }
    },
    {
      "type": "Feature",
      "geometry": {
        "type": "Point",
        "coordinates": [
          10.51111027135822,
          49.048979587462426
        ]
      },
      "properties": {
        "id": "154",
        "land-id": "09571",
        "name": "Gerolfingen",
        "population": 909,
        "area": 12.64,
        "centroid_coordinates": [
          10.51111027135822,
          49.048979587462426
        ]
      }
    },
    {
      "type": "Feature",
      "geometry": {
        "type": "Point",
        "coordinates": [
          10.310178701207569,
          49.36071533970021
        ]
      },
      "properties": {
        "id": "155",
        "land-id": "09571",
        "name": "Geslau",
        "population": 1360,
        "area": 41.98,
        "centroid_coordinates": [
          10.310178701207569,
          49.36071533970021
        ]
      }
    },
    {
      "type": "Feature",
      "geometry": {
        "type": "Point",
        "coordinates": [
          10.80026303789596,
          49.34734582074836
        ]
      },
      "properties": {
        "id": "165",
        "land-id": "09571",
        "name": "Heilsbronn",
        "population": 9782,
        "area": 62.2,
        "centroid_coordinates": [
          10.80026303789596,
          49.34734582074836
        ]
      }
    },
    {
      "type": "Feature",
      "geometry": {
        "type": "Point",
        "coordinates": [
          10.481466434474033,
          49.227882100588445
        ]
      },
      "properties": {
        "id": "166",
        "land-id": "09571",
        "name": "Herrieden",
        "population": 8310,
        "area": 81.66,
        "centroid_coordinates": [
          10.481466434474033,
          49.227882100588445
        ]
      }
    },
    {
      "type": "Feature",
      "geometry": {
        "type": "Point",
        "coordinates": [
          10.162587891800815,
          49.31274106110331
        ]
      },
      "properties": {
        "id": "169",
        "land-id": "09571",
        "name": "Insingen",
        "population": 1224,
        "area": 21.24,
        "centroid_coordinates": [
          10.162587891800815,
          49.31274106110331
        ]
      }
    },
    {
      "type": "Feature",
      "geometry": {
        "type": "Point",
        "coordinates": [
          10.453948362832584,
          49.10195479218292
        ]
      },
      "properties": {
        "id": "170",
        "land-id": "09571",
        "name": "Langfurth",
        "population": 2024,
        "area": 21.17,
        "centroid_coordinates": [
          10.453948362832584,
          49.10195479218292
        ]
      }
    },
    {
      "type": "Feature",
      "geometry": {
        "type": "Point",
        "coordinates": [
          10.498804530516171,
          49.35850313141883
        ]
      },
      "properties": {
        "id": "171",
        "land-id": "09571",
        "name": "Lehrberg",
        "population": 3083,
        "area": 50.8,
        "centroid_coordinates": [
          10.498804530516171,
          49.35850313141883
        ]
      }
    },
    {
      "type": "Feature",
      "geometry": {
        "type": "Point",
        "coordinates": [
          10.397386574709719,
          49.29666203411229
        ]
      },
      "properties": {
        "id": "174",
        "land-id": "09571",
        "name": "Leutershausen",
        "population": 5583,
        "area": 84.02,
        "centroid_coordinates": [
          10.397386574709719,
          49.29666203411229
        ]
      }
    },
    {
      "type": "Feature",
      "geometry": {
        "type": "Point",
        "coordinates": [
          10.704995922418975,
          49.2655207245945
        ]
      },
      "properties": {
        "id": "175",
        "land-id": "09571",
        "name": "Lichtenau",
        "population": 3791,
        "area": 41.35,
        "centroid_coordinates": [
          10.704995922418975,
          49.2655207245945
        ]
      }
    },
    {
      "type": "Feature",
      "geometry": {
        "type": "Point",
        "coordinates": [
          10.689855612138222,
          49.20308037357236
        ]
      },
      "properties": {
        "id": "177",
        "land-id": "09571",
        "name": "Merkendorf",
        "population": 3019,
        "area": 26.12,
        "centroid_coordinates": [
          10.689855612138222,
          49.20308037357236
        ]
      }
    },
    {
      "type": "Feature",
      "geometry": {
        "type": "Point",
        "coordinates": [
          10.802578269889556,
          49.212106412870334
        ]
      },
      "properties": {
        "id": "178",
        "land-id": "09571",
        "name": "Mitteleschenbach",
        "population": 1693,
        "area": 10.54,
        "centroid_coordinates": [
          10.802578269889556,
          49.212106412870334
        ]
      }
    },
    {
      "type": "Feature",
      "geometry": {
        "type": "Point",
        "coordinates": [
          10.35693780874945,
          49.026104295908276
        ]
      },
      "properties": {
        "id": "179",
        "land-id": "09571",
        "name": "Mönchsroth",
        "population": 1663,
        "area": 11.9,
        "centroid_coordinates": [
          10.35693780874945,
          49.026104295908276
        ]
      }
    },
    {
      "type": "Feature",
      "geometry": {
        "type": "Point",
        "coordinates": [
          10.808409046615356,
          49.28740727806981
        ]
      },
      "properties": {
        "id": "180",
        "land-id": "09571",
        "name": "Neuendettelsau",
        "population": 8081,
        "area": 33.86,
        "centroid_coordinates": [
          10.808409046615356,
          49.28740727806981
        ]
      }
    },
    {
      "type": "Feature",
      "geometry": {
        "type": "Point",
        "coordinates": [
          10.229446665543687,
          49.378467163573504
        ]
      },
      "properties": {
        "id": "181",
        "land-id": "09571",
        "name": "Neusitz",
        "population": 1996,
        "area": 13.64,
        "centroid_coordinates": [
          10.229446665543687,
          49.378467163573504
        ]
      }
    },
    {
      "type": "Feature",
      "geometry": {
        "type": "Point",
        "coordinates": [
          10.435481366526679,
          49.407801040422356
        ]
      },
      "properties": {
        "id": "183",
        "land-id": "09571",
        "name": "Oberdachstetten",
        "population": 1613,
        "area": 23.64,
        "centroid_coordinates": [
          10.435481366526679,
          49.407801040422356
        ]
      }
    },
    {
      "type": "Feature",
      "geometry": {
        "type": "Point",
        "coordinates": [
          10.213705104266191,
          49.469761707182464
        ]
      },
      "properties": {
        "id": "188",
        "land-id": "09571",
        "name": "Ohrenbach",
        "population": 566,
        "area": 22.71,
        "centroid_coordinates": [
          10.213705104266191,
          49.469761707182464
        ]
      }
    },
    {
      "type": "Feature",
      "geometry": {
        "type": "Point",
        "coordinates": [
          10.655239985275115,
          49.173035320035545
        ]
      },
      "properties": {
        "id": "189",
        "land-id": "09571",
        "name": "Ornbau",
        "population": 1730,
        "area": 15.13,
        "centroid_coordinates": [
          10.655239985275115,
          49.173035320035545
        ]
      }
    },
    {
      "type": "Feature",
      "geometry": {
        "type": "Point",
        "coordinates": [
          10.723541227569596,
          49.32062971575768
        ]
      },
      "properties": {
        "id": "190",
        "land-id": "09571",
        "name": "Petersaurach",
        "population": 5031,
        "area": 41.82,
        "centroid_coordinates": [
          10.723541227569596,
          49.32062971575768
        ]
      }
    },
    {
      "type": "Feature",
      "geometry": {
        "type": "Point",
        "coordinates": [
          10.555129764878373,
          49.052452778450636
        ]
      },
      "properties": {
        "id": "192",
        "land-id": "09571",
        "name": "Röckingen",
        "population": 742,
        "area": 10.87,
        "centroid_coordinates": [
          10.555129764878373,
          49.052452778450636
        ]
      }
    },
    {
      "type": "Feature",
      "geometry": {
        "type": "Point",
        "coordinates": [
          10.158269936095849,
          49.36963922234226
        ]
      },
      "properties": {
        "id": "193",
        "land-id": "09571",
        "name": "Rothenburg ob der Tauber",
        "population": 11374,
        "area": 41.74,
        "centroid_coordinates": [
          10.158269936095849,
          49.36963922234226
        ]
      }
    },
    {
      "type": "Feature",
      "geometry": {
        "type": "Point",
        "coordinates": [
          10.578178855897422,
          49.41817737139352
        ]
      },
      "properties": {
        "id": "194",
        "land-id": "09571",
        "name": "Rügland",
        "population": 1273,
        "area": 20.96,
        "centroid_coordinates": [
          10.578178855897422,
          49.41817737139352
        ]
      }
    },
    {
      "type": "Feature",
      "geometry": {
        "type": "Point",
        "coordinates": [
          10.654292566585553,
          49.28607990865981
        ]
      },
      "properties": {
        "id": "196",
        "land-id": "09571",
        "name": "Sachsen b.Ansbach",
        "population": 3664,
        "area": 20.91,
        "centroid_coordinates": [
          10.654292566585553,
          49.28607990865981
        ]
      }
    },
    {
      "type": "Feature",
      "geometry": {
        "type": "Point",
        "coordinates": [
          10.269929822773527,
          49.29337495774029
        ]
      },
      "properties": {
        "id": "198",
        "land-id": "09571",
        "name": "Schillingsfürst",
        "population": 2799,
        "area": 27.46,
        "centroid_coordinates": [
          10.269929822773527,
          49.29337495774029
        ]
      }
    },
    {
      "type": "Feature",
      "geometry": {
        "type": "Point",
        "coordinates": [
          10.185541319673613,
          49.2031544215837
        ]
      },
      "properties": {
        "id": "199",
        "land-id": "09571",
        "name": "Schnelldorf",
        "population": 3558,
        "area": 51.41,
        "centroid_coordinates": [
          10.185541319673613,
          49.2031544215837
        ]
      }
    },
    {
      "type": "Feature",
      "geometry": {
        "type": "Point",
        "coordinates": [
          10.302612061296855,
          49.11220562046208
        ]
      },
      "properties": {
        "id": "200",
        "land-id": "09571",
        "name": "Schopfloch",
        "population": 2898,
        "area": 15.29,
        "centroid_coordinates": [
          10.302612061296855,
          49.11220562046208
        ]
      }
    },
    {
      "type": "Feature",
      "geometry": {
        "type": "Point",
        "coordinates": [
          10.210413045131956,
          49.42669978154776
        ]
      },
      "properties": {
        "id": "205",
        "land-id": "09571",
        "name": "Steinsfeld",
        "population": 1245,
        "area": 31.76,
        "centroid_coordinates": [
          10.210413045131956,
          49.42669978154776
        ]
      }
    },
    {
      "type": "Feature",
      "geometry": {
        "type": "Point",
        "coordinates": [
          10.619009399266806,
          49.092303767835396
        ]
      },
      "properties": {
        "id": "208",
        "land-id": "09571",
        "name": "Unterschwaningen",
        "population": 859,
        "area": 18.55,
        "centroid_coordinates": [
          10.619009399266806,
          49.092303767835396
        ]
      }
    },
    {
      "type": "Feature",
      "geometry": {
        "type": "Point",
        "coordinates": [
          10.608967733794247,
          49.040977437687815
        ]
      },
      "properties": {
        "id": "214",
        "land-id": "09571",
        "name": "Wassertrüdingen",
        "population": 6318,
        "area": 53.52,
        "centroid_coordinates": [
          10.608967733794247,
          49.040977437687815
        ]
      }
    },
    {
      "type": "Feature",
      "geometry": {
        "type": "Point",
        "coordinates": [
          10.63022905081019,
          49.210816469447145
        ]
      },
      "properties": {
        "id": "216",
        "land-id": "09571",
        "name": "Weidenbach",
        "population": 2445,
        "area": 21.68,
        "centroid_coordinates": [
          10.63022905081019,
          49.210816469447145
        ]
      }
    },
    {
      "type": "Feature",
      "geometry": {
        "type": "Point",
        "coordinates": [
          10.621111291246,
          49.358273027510705
        ]
      },
      "properties": {
        "id": "217",
        "land-id": "09571",
        "name": "Weihenzell",
        "population": 3011,
        "area": 45.17,
        "centroid_coordinates": [
          10.621111291246,
          49.358273027510705
        ]
      }
    },
    {
      "type": "Feature",
      "geometry": {
        "type": "Point",
        "coordinates": [
          10.453224191578338,
          49.030519166862646
        ]
      },
      "properties": {
        "id": "218",
        "land-id": "09571",
        "name": "Weiltingen",
        "population": 1413,
        "area": 24.06,
        "centroid_coordinates": [
          10.453224191578338,
          49.030519166862646
        ]
      }
    },
    {
      "type": "Feature",
      "geometry": {
        "type": "Point",
        "coordinates": [
          10.166242842623605,
          49.260089331079456
        ]
      },
      "properties": {
        "id": "222",
        "land-id": "09571",
        "name": "Wettringen",
        "population": 991,
        "area": 21.34,
        "centroid_coordinates": [
          10.166242842623605,
          49.260089331079456
        ]
      }
    },
    {
      "type": "Feature",
      "geometry": {
        "type": "Point",
        "coordinates": [
          10.474522765712148,
          49.16880955773421
        ]
      },
      "properties": {
        "id": "223",
        "land-id": "09571",
        "name": "Wieseth",
        "population": 1325,
        "area": 20.57,
        "centroid_coordinates": [
          10.474522765712148,
          49.16880955773421
        ]
      }
    },
    {
      "type": "Feature",
      "geometry": {
        "type": "Point",
        "coordinates": [
          10.39803392293697,
          49.01838307783439
        ]
      },
      "properties": {
        "id": "224",
        "land-id": "09571",
        "name": "Wilburgstetten",
        "population": 2052,
        "area": 25.27,
        "centroid_coordinates": [
          10.39803392293697,
          49.01838307783439
        ]
      }
    },
    {
      "type": "Feature",
      "geometry": {
        "type": "Point",
        "coordinates": [
          10.293918323427155,
          49.400891120629325
        ]
      },
      "properties": {
        "id": "225",
        "land-id": "09571",
        "name": "Windelsbach",
        "population": 1085,
        "area": 38.43,
        "centroid_coordinates": [
          10.293918323427155,
          49.400891120629325
        ]
      }
    },
    {
      "type": "Feature",
      "geometry": {
        "type": "Point",
        "coordinates": [
          10.843270387588113,
          49.252773651689836
        ]
      },
      "properties": {
        "id": "226",
        "land-id": "09571",
        "name": "Windsbach",
        "population": 6102,
        "area": 68.04,
        "centroid_coordinates": [
          10.843270387588113,
          49.252773651689836
        ]
      }
    },
    {
      "type": "Feature",
      "geometry": {
        "type": "Point",
        "coordinates": [
          10.458612444729386,
          49.06683932006009
        ]
      },
      "properties": {
        "id": "227",
        "land-id": "09571",
        "name": "Wittelshofen",
        "population": 1235,
        "area": 24.16,
        "centroid_coordinates": [
          10.458612444729386,
          49.06683932006009
        ]
      }
    },
    {
      "type": "Feature",
      "geometry": {
        "type": "Point",
        "coordinates": [
          10.229861782685557,
          49.244310395443186
        ]
      },
      "properties": {
        "id": "228",
        "land-id": "09571",
        "name": "Wörnitz",
        "population": 1810,
        "area": 24.45,
        "centroid_coordinates": [
          10.229861782685557,
          49.244310395443186
        ]
      }
    },
    {
      "type": "Feature",
      "geometry": {
        "type": "Point",
        "coordinates": [
          10.733896724342838,
          49.221986117807496
        ]
      },
      "properties": {
        "id": "229",
        "land-id": "09571",
        "name": "Wolframs-Eschenbach",
        "population": 3272,
        "area": 25.49,
        "centroid_coordinates": [
          10.733896724342838,
          49.221986117807496
        ]
      }
    }
  ]
}