{
  "type": "FeatureCollection",
  "features": [
    {
      "type": "Feature",
      "geometry": {
        "type": "Point",
        "coordinates": [
          11.294566746600216,
          48.52353544512301
        ]
      },
      "properties": {
        "id": "113",
        "land-id": "09185",
        "name": "Aresing",
        "population": 3004,
        "area": 29.95,
        "centroid_coordinates": [
          11.294566746600216,
          48.52353544512301
        ]
      }
    },
    {
      "type": "Feature",
      "geometry": {
        "type": "Point",
        "coordinates": [
          11.249957024041194,
          48.63673034197997
        ]
      },
      "properties": {
        "id": "116",
        "land-id": "09185",
        "name": "Berg im Gau",
        "population": 1377,
        "area": 22.55,
        "centroid_coordinates": [
          11.249957024041194,
          48.63673034197997
        ]
      }
    },
    {
      "type": "Feature",
      "geometry": {
        "type": "Point",
        "coordinates": [
          11.23259826248752,
          48.76397508810911
        ]
      },
      "properties": {
        "id": "118",
        "land-id": "09185",
        "name": "Bergheim",
        "population": 1968,
        "area": 28.88,
        "centroid_coordinates": [
          11.23259826248752,
          48.76397508810911
        ]
      }
    },
    {
      "type": "Feature",
      "geometry": {
        "type": "Point",
        "coordinates": [
          11.331857743403624,
          48.6343236324535
        ]
      },
      "properties": {
        "id": "123",
        "land-id": "09185",
        "name": "Brunnen",
        "population": 1817,
        "area": 32.17,
        "centroid_coordinates": [
          11.331857743403624,
          48.6343236324535
        ]
      }
    },
    {
      "type": "Feature",
      "geometry": {
        "type": "Point",
        "coordinates": [
          11.038443178272095,
          48.69084440770993
        ]
      },
      "properties": {
        "id": "125",
        "land-id": "09185",
        "name": "Burgheim",
        "population": 4665,
        "area": 49.75,
        "centroid_coordinates": [
          11.038443178272095,
          48.69084440770993
        ]
      }
    },
    {
      "type": "Feature",
      "geometry": {
        "type": "Point",
        "coordinates": [
          11.097838611619993,
          48.63769228210256
        ]
      },
      "properties": {
        "id": "127",
        "land-id": "09185",
        "name": "Ehekirchen",
        "population": 3704,
        "area": 62.72,
        "centroid_coordinates": [
          11.097838611619993,
          48.63769228210256
        ]
      }
    },
    {
      "type": "Feature",
      "geometry": {
        "type": "Point",
        "coordinates": [
          11.249543201661316,
          48.50394654570611
        ]
      },
      "properties": {
        "id": "131",
        "land-id": "09185",
        "name": "Gachenbach",
        "population": 2594,
        "area": 30.2,
        "centroid_coordinates": [
          11.249543201661316,
          48.50394654570611
        ]
      }
    },
    {
      "type": "Feature",
      "geometry": {
        "type": "Point",
        "coordinates": [
          11.29069514190778,
          48.677132926953306
        ]
      },
      "properties": {
        "id": "139",
        "land-id": "09185",
        "name": "Karlshuld",
        "population": 5944,
        "area": 29.17,
        "centroid_coordinates": [
          11.29069514190778,
          48.677132926953306
        ]
      }
    },
    {
      "type": "Feature",
      "geometry": {
        "type": "Point",
        "coordinates": [
          11.399539915729456,
          48.668303328084924
        ]
      },
      "properties": {
        "id": "140",
        "land-id": "09185",
        "name": "Karlskron",
        "population": 4917,
        "area": 38.51,
        "centroid_coordinates": [
          11.399539915729456,
          48.668303328084924
        ]
      }
    },
    {
      "type": "Feature",
      "geometry": {
        "type": "Point",
        "coordinates": [
          11.210340901967765,
          48.60425350050006
        ]
      },
      "properties": {
        "id": "143",
        "land-id": "09185",
        "name": "Langenmosen",
        "population": 1652,
        "area": 23.84,
        "centroid_coordinates": [
          11.210340901967765,
          48.60425350050006
        ]
      }
    },
    {
      "type": "Feature",
      "geometry": {
        "type": "Point",
        "coordinates": [
          11.194897940596125,
          48.73636596291595
        ]
      },
      "properties": {
        "id": "149",
        "land-id": "09185",
        "name": "Neuburg a.d.Donau",
        "population": 30209,
        "area": 81.27,
        "centroid_coordinates": [
          11.194897940596125,
          48.73636596291595
        ]
      }
    },
    {
      "type": "Feature",
      "geometry": {
        "type": "Point",
        "coordinates": [
          11.109805760590422,
          48.70816548638044
        ]
      },
      "properties": {
        "id": "150",
        "land-id": "09185",
        "name": "Oberhausen",
        "population": 3234,
        "area": 31.97,
        "centroid_coordinates": [
          11.109805760590422,
          48.70816548638044
        ]
      }
    },
    {
      "type": "Feature",
      "geometry": {
        "type": "Point",
        "coordinates": [
          11.047839239205732,
          48.77316029110179
        ]
      },
      "properties": {
        "id": "153",
        "land-id": "09185",
        "name": "Rennertshofen",
        "population": 4843,
        "area": 93.08,
        "centroid_coordinates": [
          11.047839239205732,
          48.77316029110179
        ]
      }
    },
    {
      "type": "Feature",
      "geometry": {
        "type": "Point",
        "coordinates": [
          11.16429961908727,
          48.688605456977314
        ]
      },
      "properties": {
        "id": "157",
        "land-id": "09185",
        "name": "Rohrenfels",
        "population": 1629,
        "area": 17.49,
        "centroid_coordinates": [
          11.16429961908727,
          48.688605456977314
        ]
      }
    },
    {
      "type": "Feature",
      "geometry": {
        "type": "Point",
        "coordinates": [
          11.23370258894722,
          48.57181404376193
        ]
      },
      "properties": {
        "id": "158",
        "land-id": "09185",
        "name": "Schrobenhausen",
        "population": 17891,
        "area": 75.16,
        "centroid_coordinates": [
          11.23370258894722,
          48.57181404376193
        ]
      }
    },
    {
      "type": "Feature",
      "geometry": {
        "type": "Point",
        "coordinates": [
          11.195305098835508,
          48.65125192232771
        ]
      },
      "properties": {
        "id": "163",
        "land-id": "09185",
        "name": "Königsmoos",
        "population": 4962,
        "area": 40.84,
        "centroid_coordinates": [
          11.195305098835508,
          48.65125192232771
        ]
      }
    },
    {
      "type": "Feature",
      "geometry": {
        "type": "Point",
        "coordinates": [
          11.3359840544636,
          48.57801937578274
        ]
      },
      "properties": {
        "id": "166",
        "land-id": "09185",
        "name": "Waidhofen",
        "population": 2267,
        "area": 27.31,
        "centroid_coordinates": [
          11.3359840544636,
          48.57801937578274
        ]
      }
    },
    {
      "type": "Feature",
      "geometry": {
        "type": "Point",
        "coordinates": [
          11.328973447302985,
          48.70943856275599
        ]
      },
      "properties": {
        "id": "168",
        "land-id": "09185",
        "name": "Weichering",
        "population": 2429,
        "area": 24.52,
        "centroid_coordinates": [
          11.328973447302985,
          48.70943856275599
        ]
      }
    }
  ]
}