{
  "type": "FeatureCollection",
  "features": [
    {
      "type": "Feature",
      "geometry": {
        "type": "Point",
        "coordinates": [
          10.13058244868062,
          48.16802058159475
        ]
      },
      "properties": {
        "id": "111",
        "land-id": "09775",
        "name": "Altenstadt",
        "population": 5397,
        "area": 31.3,
        "centroid_coordinates": [
          10.13058244868062,
          48.16802058159475
        ]
      }
    },
    {
      "type": "Feature",
      "geometry": {
        "type": "Point",
        "coordinates": [
          10.096520656782303,
          48.25845221329974
        ]
      },
      "properties": {
        "id": "115",
        "land-id": "09775",
        "name": "Bellenberg",
        "population": 4666,
        "area": 5.13,
        "centroid_coordinates": [
          10.096520656782303,
          48.25845221329974
        ]
      }
    },
    {
      "type": "Feature",
      "geometry": {
        "type": "Point",
        "coordinates": [
          10.196308491943531,
          48.230482892829365
        ]
      },
      "properties": {
        "id": "118",
        "land-id": "09775",
        "name": "Buch",
        "population": 4310,
        "area": 40.07,
        "centroid_coordinates": [
          10.196308491943531,
          48.230482892829365
        ]
      }
    },
    {
      "type": "Feature",
      "geometry": {
        "type": "Point",
        "coordinates": [
          10.11064099565731,
          48.3791839450199
        ]
      },
      "properties": {
        "id": "126",
        "land-id": "09775",
        "name": "Holzheim",
        "population": 2009,
        "area": 7.61,
        "centroid_coordinates": [
          10.11064099565731,
          48.3791839450199
        ]
      }
    },
    {
      "type": "Feature",
      "geometry": {
        "type": "Point",
        "coordinates": [
          10.115208850999107,
          48.227320198016294
        ]
      },
      "properties": {
        "id": "129",
        "land-id": "09775",
        "name": "Illertissen",
        "population": 18342,
        "area": 36.35,
        "centroid_coordinates": [
          10.115208850999107,
          48.227320198016294
        ]
      }
    },
    {
      "type": "Feature",
      "geometry": {
        "type": "Point",
        "coordinates": [
          10.136767325421719,
          48.12898748611543
        ]
      },
      "properties": {
        "id": "132",
        "land-id": "09775",
        "name": "Kellmünz a.d.Iller",
        "population": 1559,
        "area": 8.54,
        "centroid_coordinates": [
          10.136767325421719,
          48.12898748611543
        ]
      }
    },
    {
      "type": "Feature",
      "geometry": {
        "type": "Point",
        "coordinates": [
          10.138701543695626,
          48.424232840846535
        ]
      },
      "properties": {
        "id": "134",
        "land-id": "09775",
        "name": "Nersingen",
        "population": 9825,
        "area": 24.24,
        "centroid_coordinates": [
          10.138701543695626,
          48.424232840846535
        ]
      }
    },
    {
      "type": "Feature",
      "geometry": {
        "type": "Point",
        "coordinates": [
          10.052587067105998,
          48.38063307084551
        ]
      },
      "properties": {
        "id": "135",
        "land-id": "09775",
        "name": "Neu-Ulm",
        "population": 62200,
        "area": 80.95,
        "centroid_coordinates": [
          10.052587067105998,
          48.38063307084551
        ]
      }
    },
    {
      "type": "Feature",
      "geometry": {
        "type": "Point",
        "coordinates": [
          10.08416189404104,
          48.44874654810916
        ]
      },
      "properties": {
        "id": "139",
        "land-id": "09775",
        "name": "Elchingen",
        "population": 9882,
        "area": 24.85,
        "centroid_coordinates": [
          10.08416189404104,
          48.44874654810916
        ]
      }
    },
    {
      "type": "Feature",
      "geometry": {
        "type": "Point",
        "coordinates": [
          10.196201851664624,
          48.170814734388635
        ]
      },
      "properties": {
        "id": "141",
        "land-id": "09775",
        "name": "Oberroth",
        "population": 995,
        "area": 9.92,
        "centroid_coordinates": [
          10.196201851664624,
          48.170814734388635
        ]
      }
    },
    {
      "type": "Feature",
      "geometry": {
        "type": "Point",
        "coordinates": [
          10.17808611953999,
          48.14020180213039
        ]
      },
      "properties": {
        "id": "142",
        "land-id": "09775",
        "name": "Osterberg",
        "population": 921,
        "area": 13.81,
        "centroid_coordinates": [
          10.17808611953999,
          48.14020180213039
        ]
      }
    },
    {
      "type": "Feature",
      "geometry": {
        "type": "Point",
        "coordinates": [
          10.161742296636032,
          48.36112979589352
        ]
      },
      "properties": {
        "id": "143",
        "land-id": "09775",
        "name": "Pfaffenhofen a.d.Roth",
        "population": 7310,
        "area": 42.65,
        "centroid_coordinates": [
          10.161742296636032,
          48.36112979589352
        ]
      }
    },
    {
      "type": "Feature",
      "geometry": {
        "type": "Point",
        "coordinates": [
          10.22658749496061,
          48.279986855826586
        ]
      },
      "properties": {
        "id": "149",
        "land-id": "09775",
        "name": "Roggenburg",
        "population": 2698,
        "area": 27.55,
        "centroid_coordinates": [
          10.22658749496061,
          48.279986855826586
        ]
      }
    },
    {
      "type": "Feature",
      "geometry": {
        "type": "Point",
        "coordinates": [
          10.068924862468037,
          48.322482333695156
        ]
      },
      "properties": {
        "id": "152",
        "land-id": "09775",
        "name": "Senden",
        "population": 23591,
        "area": 25.17,
        "centroid_coordinates": [
          10.068924862468037,
          48.322482333695156
        ]
      }
    },
    {
      "type": "Feature",
      "geometry": {
        "type": "Point",
        "coordinates": [
          10.18915887561117,
          48.196222229229164
        ]
      },
      "properties": {
        "id": "161",
        "land-id": "09775",
        "name": "Unterroth",
        "population": 1079,
        "area": 15.35,
        "centroid_coordinates": [
          10.18915887561117,
          48.196222229229164
        ]
      }
    },
    {
      "type": "Feature",
      "geometry": {
        "type": "Point",
        "coordinates": [
          10.091146453025706,
          48.28986243286741
        ]
      },
      "properties": {
        "id": "162",
        "land-id": "09775",
        "name": "Vöhringen",
        "population": 13997,
        "area": 23.67,
        "centroid_coordinates": [
          10.091146453025706,
          48.28986243286741
        ]
      }
    },
    {
      "type": "Feature",
      "geometry": {
        "type": "Point",
        "coordinates": [
          10.173616131162957,
          48.304535833978264
        ]
      },
      "properties": {
        "id": "164",
        "land-id": "09775",
        "name": "Weißenhorn",
        "population": 14181,
        "area": 53.65,
        "centroid_coordinates": [
          10.173616131162957,
          48.304535833978264
        ]
      }
    }
  ]
}