{
  "type": "FeatureCollection",
  "features": [
    {
      "type": "Feature",
      "geometry": {
        "type": "Point",
        "coordinates": [
          11.119058251544976,
          49.598938129604456
        ]
      },
      "properties": {
        "id": "119",
        "land-id": "09474",
        "name": "Dormitz",
        "population": 1959,
        "area": 4.56,
        "centroid_coordinates": [
          11.119058251544976,
          49.598938129604456
        ]
      }
    },
    {
      "type": "Feature",
      "geometry": {
        "type": "Point",
        "coordinates": [
          11.19513258301726,
          49.781585807833736
        ]
      },
      "properties": {
        "id": "121",
        "land-id": "09474",
        "name": "Ebermannstadt",
        "population": 6661,
        "area": 49.96,
        "centroid_coordinates": [
          11.19513258301726,
          49.781585807833736
        ]
      }
    },
    {
      "type": "Feature",
      "geometry": {
        "type": "Point",
        "coordinates": [
          11.107912459401213,
          49.662968324040484
        ]
      },
      "properties": {
        "id": "122",
        "land-id": "09474",
        "name": "Effeltrich",
        "population": 2453,
        "area": 11.93,
        "centroid_coordinates": [
          11.107912459401213,
          49.662968324040484
        ]
      }
    },
    {
      "type": "Feature",
      "geometry": {
        "type": "Point",
        "coordinates": [
          11.08780835926174,
          49.785042397565164
        ]
      },
      "properties": {
        "id": "123",
        "land-id": "09474",
        "name": "Eggolsheim",
        "population": 6408,
        "area": 48.81,
        "centroid_coordinates": [
          11.08780835926174,
          49.785042397565164
        ]
      }
    },
    {
      "type": "Feature",
      "geometry": {
        "type": "Point",
        "coordinates": [
          11.262942974149473,
          49.713893281034956
        ]
      },
      "properties": {
        "id": "124",
        "land-id": "09474",
        "name": "Egloffstein",
        "population": 2111,
        "area": 28.1,
        "centroid_coordinates": [
          11.262942974149473,
          49.713893281034956
        ]
      }
    },
    {
      "type": "Feature",
      "geometry": {
        "type": "Point",
        "coordinates": [
          11.063388674125191,
          49.72003690484447
        ]
      },
      "properties": {
        "id": "126",
        "land-id": "09474",
        "name": "Forchheim",
        "population": 32964,
        "area": 44.56,
        "centroid_coordinates": [
          11.063388674125191,
          49.72003690484447
        ]
      }
    },
    {
      "type": "Feature",
      "geometry": {
        "type": "Point",
        "coordinates": [
          11.322998409567457,
          49.761292077185466
        ]
      },
      "properties": {
        "id": "129",
        "land-id": "09474",
        "name": "Gößweinstein",
        "population": 4337,
        "area": 57.76,
        "centroid_coordinates": [
          11.322998409567457,
          49.761292077185466
        ]
      }
    },
    {
      "type": "Feature",
      "geometry": {
        "type": "Point",
        "coordinates": [
          11.244422294333122,
          49.662374236243345
        ]
      },
      "properties": {
        "id": "132",
        "land-id": "09474",
        "name": "Gräfenberg",
        "population": 4175,
        "area": 37.82,
        "centroid_coordinates": [
          11.244422294333122,
          49.662374236243345
        ]
      }
    },
    {
      "type": "Feature",
      "geometry": {
        "type": "Point",
        "coordinates": [
          10.976339352563626,
          49.75234214555242
        ]
      },
      "properties": {
        "id": "133",
        "land-id": "09474",
        "name": "Hallerndorf",
        "population": 4136,
        "area": 41.35,
        "centroid_coordinates": [
          10.976339352563626,
          49.75234214555242
        ]
      }
    },
    {
      "type": "Feature",
      "geometry": {
        "type": "Point",
        "coordinates": [
          11.019377274648559,
          49.69759948273385
        ]
      },
      "properties": {
        "id": "134",
        "land-id": "09474",
        "name": "Hausen",
        "population": 3733,
        "area": 13.45,
        "centroid_coordinates": [
          11.019377274648559,
          49.69759948273385
        ]
      }
    },
    {
      "type": "Feature",
      "geometry": {
        "type": "Point",
        "coordinates": [
          10.97390998165083,
          49.700705743760615
        ]
      },
      "properties": {
        "id": "135",
        "land-id": "09474",
        "name": "Heroldsbach",
        "population": 5082,
        "area": 15.64,
        "centroid_coordinates": [
          10.97390998165083,
          49.700705743760615
        ]
      }
    },
    {
      "type": "Feature",
      "geometry": {
        "type": "Point",
        "coordinates": [
          11.129910357758172,
          49.641104173063376
        ]
      },
      "properties": {
        "id": "137",
        "land-id": "09474",
        "name": "Hetzles",
        "population": 1369,
        "area": 11.76,
        "centroid_coordinates": [
          11.129910357758172,
          49.641104173063376
        ]
      }
    },
    {
      "type": "Feature",
      "geometry": {
        "type": "Point",
        "coordinates": [
          11.315911830499568,
          49.66295462004162
        ]
      },
      "properties": {
        "id": "138",
        "land-id": "09474",
        "name": "Hiltpoltstein",
        "population": 1471,
        "area": 25.54,
        "centroid_coordinates": [
          11.315911830499568,
          49.66295462004162
        ]
      }
    },
    {
      "type": "Feature",
      "geometry": {
        "type": "Point",
        "coordinates": [
          11.217729944872955,
          49.62133083414467
        ]
      },
      "properties": {
        "id": "140",
        "land-id": "09474",
        "name": "Igensdorf",
        "population": 5057,
        "area": 28.9,
        "centroid_coordinates": [
          11.217729944872955,
          49.62133083414467
        ]
      }
    },
    {
      "type": "Feature",
      "geometry": {
        "type": "Point",
        "coordinates": [
          11.153976931653782,
          49.73171001602181
        ]
      },
      "properties": {
        "id": "143",
        "land-id": "09474",
        "name": "Kirchehrenbach",
        "population": 2177,
        "area": 8.21,
        "centroid_coordinates": [
          11.153976931653782,
          49.73171001602181
        ]
      }
    },
    {
      "type": "Feature",
      "geometry": {
        "type": "Point",
        "coordinates": [
          11.164047753520949,
          49.59943517500965
        ]
      },
      "properties": {
        "id": "144",
        "land-id": "09474",
        "name": "Kleinsendelbach",
        "population": 1443,
        "area": 7.47,
        "centroid_coordinates": [
          11.164047753520949,
          49.59943517500965
        ]
      }
    },
    {
      "type": "Feature",
      "geometry": {
        "type": "Point",
        "coordinates": [
          11.158659356586968,
          49.67277419874077
        ]
      },
      "properties": {
        "id": "145",
        "land-id": "09474",
        "name": "Kunreuth",
        "population": 1394,
        "area": 9.78,
        "centroid_coordinates": [
          11.158659356586968,
          49.67277419874077
        ]
      }
    },
    {
      "type": "Feature",
      "geometry": {
        "type": "Point",
        "coordinates": [
          11.06330695166435,
          49.639677562501895
        ]
      },
      "properties": {
        "id": "146",
        "land-id": "09474",
        "name": "Langensendelbach",
        "population": 3030,
        "area": 9.59,
        "centroid_coordinates": [
          11.06330695166435,
          49.639677562501895
        ]
      }
    },
    {
      "type": "Feature",
      "geometry": {
        "type": "Point",
        "coordinates": [
          11.18569446620043,
          49.69626459584629
        ]
      },
      "properties": {
        "id": "147",
        "land-id": "09474",
        "name": "Leutenbach",
        "population": 1644,
        "area": 19.4,
        "centroid_coordinates": [
          11.18569446620043,
          49.69626459584629
        ]
      }
    },
    {
      "type": "Feature",
      "geometry": {
        "type": "Point",
        "coordinates": [
          11.141723865627112,
          49.623811516831715
        ]
      },
      "properties": {
        "id": "154",
        "land-id": "09474",
        "name": "Neunkirchen a.Brand",
        "population": 8015,
        "area": 26.44,
        "centroid_coordinates": [
          11.141723865627112,
          49.623811516831715
        ]
      }
    },
    {
      "type": "Feature",
      "geometry": {
        "type": "Point",
        "coordinates": [
          11.330876376591988,
          49.7007545869472
        ]
      },
      "properties": {
        "id": "156",
        "land-id": "09474",
        "name": "Obertrubach",
        "population": 2180,
        "area": 21.12,
        "centroid_coordinates": [
          11.330876376591988,
          49.7007545869472
        ]
      }
    },
    {
      "type": "Feature",
      "geometry": {
        "type": "Point",
        "coordinates": [
          11.110621664834046,
          49.692145693015036
        ]
      },
      "properties": {
        "id": "158",
        "land-id": "09474",
        "name": "Pinzberg",
        "population": 1941,
        "area": 13.26,
        "centroid_coordinates": [
          11.110621664834046,
          49.692145693015036
        ]
      }
    },
    {
      "type": "Feature",
      "geometry": {
        "type": "Point",
        "coordinates": [
          11.065793526503773,
          49.667415277808225
        ]
      },
      "properties": {
        "id": "160",
        "land-id": "09474",
        "name": "Poxdorf",
        "population": 1597,
        "area": 5.15,
        "centroid_coordinates": [
          11.065793526503773,
          49.667415277808225
        ]
      }
    },
    {
      "type": "Feature",
      "geometry": {
        "type": "Point",
        "coordinates": [
          11.20137028722684,
          49.742240830778506
        ]
      },
      "properties": {
        "id": "161",
        "land-id": "09474",
        "name": "Pretzfeld",
        "population": 2386,
        "area": 24.17,
        "centroid_coordinates": [
          11.20137028722684,
          49.742240830778506
        ]
      }
    },
    {
      "type": "Feature",
      "geometry": {
        "type": "Point",
        "coordinates": [
          11.17091200098608,
          49.82741325591673
        ]
      },
      "properties": {
        "id": "168",
        "land-id": "09474",
        "name": "Unterleinleiter",
        "population": 1212,
        "area": 12.41,
        "centroid_coordinates": [
          11.17091200098608,
          49.82741325591673
        ]
      }
    },
    {
      "type": "Feature",
      "geometry": {
        "type": "Point",
        "coordinates": [
          11.131628780757804,
          49.7511605443694
        ]
      },
      "properties": {
        "id": "171",
        "land-id": "09474",
        "name": "Weilersbach",
        "population": 1979,
        "area": 8.55,
        "centroid_coordinates": [
          11.131628780757804,
          49.7511605443694
        ]
      }
    },
    {
      "type": "Feature",
      "geometry": {
        "type": "Point",
        "coordinates": [
          11.270475290018343,
          49.62589606106962
        ]
      },
      "properties": {
        "id": "173",
        "land-id": "09474",
        "name": "Weißenohe",
        "population": 1157,
        "area": 4.65,
        "centroid_coordinates": [
          11.270475290018343,
          49.62589606106962
        ]
      }
    },
    {
      "type": "Feature",
      "geometry": {
        "type": "Point",
        "coordinates": [
          11.14089432672988,
          49.70987492472073
        ]
      },
      "properties": {
        "id": "175",
        "land-id": "09474",
        "name": "Wiesenthau",
        "population": 1592,
        "area": 6.46,
        "centroid_coordinates": [
          11.14089432672988,
          49.70987492472073
        ]
      }
    },
    {
      "type": "Feature",
      "geometry": {
        "type": "Point",
        "coordinates": [
          11.249254569219207,
          49.818146385696146
        ]
      },
      "properties": {
        "id": "176",
        "land-id": "09474",
        "name": "Wiesenttal",
        "population": 2542,
        "area": 45.84,
        "centroid_coordinates": [
          11.249254569219207,
          49.818146385696146
        ]
      }
    }
  ]
}