{
  "type": "FeatureCollection",
  "features": [
    {
      "type": "Feature",
      "geometry": {
        "type": "Point",
        "coordinates": [
          10.38841635500726,
          49.7699981710184
        ]
      },
      "properties": {
        "id": "111",
        "land-id": "09675",
        "name": "Abtswind",
        "population": 827,
        "area": 12.76,
        "centroid_coordinates": [
          10.38841635500726,
          49.7699981710184
        ]
      }
    },
    {
      "type": "Feature",
      "geometry": {
        "type": "Point",
        "coordinates": [
          10.165836252461709,
          49.77036522411241
        ]
      },
      "properties": {
        "id": "112",
        "land-id": "09675",
        "name": "Albertshofen",
        "population": 2161,
        "area": 3.8,
        "centroid_coordinates": [
          10.165836252461709,
          49.77036522411241
        ]
      }
    },
    {
      "type": "Feature",
      "geometry": {
        "type": "Point",
        "coordinates": [
          10.077852026351344,
          49.747103676606486
        ]
      },
      "properties": {
        "id": "113",
        "land-id": "09675",
        "name": "Biebelried",
        "population": 1222,
        "area": 22.72,
        "centroid_coordinates": [
          10.077852026351344,
          49.747103676606486
        ]
      }
    },
    {
      "type": "Feature",
      "geometry": {
        "type": "Point",
        "coordinates": [
          10.128165925416729,
          49.76064168221658
        ]
      },
      "properties": {
        "id": "114",
        "land-id": "09675",
        "name": "Buchbrunn",
        "population": 1093,
        "area": 4.58,
        "centroid_coordinates": [
          10.128165925416729,
          49.76064168221658
        ]
      }
    },
    {
      "type": "Feature",
      "geometry": {
        "type": "Point",
        "coordinates": [
          10.37573359776242,
          49.74185478831233
        ]
      },
      "properties": {
        "id": "116",
        "land-id": "09675",
        "name": "Castell",
        "population": 844,
        "area": 22.87,
        "centroid_coordinates": [
          10.37573359776242,
          49.74185478831233
        ]
      }
    },
    {
      "type": "Feature",
      "geometry": {
        "type": "Point",
        "coordinates": [
          10.13094202108758,
          49.81138471362597
        ]
      },
      "properties": {
        "id": "117",
        "land-id": "09675",
        "name": "Dettelbach",
        "population": 6910,
        "area": 60.88,
        "centroid_coordinates": [
          10.13094202108758,
          49.81138471362597
        ]
      }
    },
    {
      "type": "Feature",
      "geometry": {
        "type": "Point",
        "coordinates": [
          10.478481273629445,
          49.77550333224858
        ]
      },
      "properties": {
        "id": "127",
        "land-id": "09675",
        "name": "Geiselwind",
        "population": 2715,
        "area": 48.77,
        "centroid_coordinates": [
          10.478481273629445,
          49.77550333224858
        ]
      }
    },
    {
      "type": "Feature",
      "geometry": {
        "type": "Point",
        "coordinates": [
          10.244345995019719,
          49.75410154177905
        ]
      },
      "properties": {
        "id": "131",
        "land-id": "09675",
        "name": "Großlangheim",
        "population": 1560,
        "area": 14.66,
        "centroid_coordinates": [
          10.244345995019719,
          49.75410154177905
        ]
      }
    },
    {
      "type": "Feature",
      "geometry": {
        "type": "Point",
        "coordinates": [
          10.31537115588923,
          49.675179368289456
        ]
      },
      "properties": {
        "id": "139",
        "land-id": "09675",
        "name": "Iphofen",
        "population": 4822,
        "area": 77.96,
        "centroid_coordinates": [
          10.31537115588923,
          49.675179368289456
        ]
      }
    },
    {
      "type": "Feature",
      "geometry": {
        "type": "Point",
        "coordinates": [
          10.167168436107064,
          49.74432789280999
        ]
      },
      "properties": {
        "id": "141",
        "land-id": "09675",
        "name": "Kitzingen",
        "population": 22844,
        "area": 46.98,
        "centroid_coordinates": [
          10.167168436107064,
          49.74432789280999
        ]
      }
    },
    {
      "type": "Feature",
      "geometry": {
        "type": "Point",
        "coordinates": [
          10.278884055432279,
          49.77382509177736
        ]
      },
      "properties": {
        "id": "142",
        "land-id": "09675",
        "name": "Kleinlangheim",
        "population": 1628,
        "area": 19.1,
        "centroid_coordinates": [
          10.278884055432279,
          49.77382509177736
        ]
      }
    },
    {
      "type": "Feature",
      "geometry": {
        "type": "Point",
        "coordinates": [
          10.212294732353607,
          49.7050518313379
        ]
      },
      "properties": {
        "id": "144",
        "land-id": "09675",
        "name": "Mainbernheim",
        "population": 2242,
        "area": 12.15,
        "centroid_coordinates": [
          10.212294732353607,
          49.7050518313379
        ]
      }
    },
    {
      "type": "Feature",
      "geometry": {
        "type": "Point",
        "coordinates": [
          10.12800316422795,
          49.775984699436265
        ]
      },
      "properties": {
        "id": "146",
        "land-id": "09675",
        "name": "Mainstockheim",
        "population": 1917,
        "area": 8.48,
        "centroid_coordinates": [
          10.12800316422795,
          49.775984699436265
        ]
      }
    },
    {
      "type": "Feature",
      "geometry": {
        "type": "Point",
        "coordinates": [
          10.122383577867797,
          49.65366550554421
        ]
      },
      "properties": {
        "id": "147",
        "land-id": "09675",
        "name": "Marktbreit",
        "population": 3758,
        "area": 20.16,
        "centroid_coordinates": [
          10.122383577867797,
          49.65366550554421
        ]
      }
    },
    {
      "type": "Feature",
      "geometry": {
        "type": "Point",
        "coordinates": [
          10.304987861813288,
          49.68693831657746
        ]
      },
      "properties": {
        "id": "148",
        "land-id": "09675",
        "name": "Markt Einersheim",
        "population": 1218,
        "area": 7.78,
        "centroid_coordinates": [
          10.304987861813288,
          49.68693831657746
        ]
      }
    },
    {
      "type": "Feature",
      "geometry": {
        "type": "Point",
        "coordinates": [
          10.160540207737732,
          49.696992148498566
        ]
      },
      "properties": {
        "id": "149",
        "land-id": "09675",
        "name": "Marktsteft",
        "population": 1815,
        "area": 10.55,
        "centroid_coordinates": [
          10.160540207737732,
          49.696992148498566
        ]
      }
    },
    {
      "type": "Feature",
      "geometry": {
        "type": "Point",
        "coordinates": [
          10.160842927439749,
          49.621047439099875
        ]
      },
      "properties": {
        "id": "150",
        "land-id": "09675",
        "name": "Martinsheim",
        "population": 959,
        "area": 23.16,
        "centroid_coordinates": [
          10.160842927439749,
          49.621047439099875
        ]
      }
    },
    {
      "type": "Feature",
      "geometry": {
        "type": "Point",
        "coordinates": [
          10.18668588705182,
          49.85185024116244
        ]
      },
      "properties": {
        "id": "155",
        "land-id": "09675",
        "name": "Nordheim a.Main",
        "population": 990,
        "area": 5.29,
        "centroid_coordinates": [
          10.18668588705182,
          49.85185024116244
        ]
      }
    },
    {
      "type": "Feature",
      "geometry": {
        "type": "Point",
        "coordinates": [
          10.171789181954665,
          49.658405164680154
        ]
      },
      "properties": {
        "id": "156",
        "land-id": "09675",
        "name": "Obernbreit",
        "population": 1671,
        "area": 9.85,
        "centroid_coordinates": [
          10.171789181954665,
          49.658405164680154
        ]
      }
    },
    {
      "type": "Feature",
      "geometry": {
        "type": "Point",
        "coordinates": [
          10.366144527458044,
          49.82829359075477
        ]
      },
      "properties": {
        "id": "158",
        "land-id": "09675",
        "name": "Prichsenstadt",
        "population": 3034,
        "area": 48.8,
        "centroid_coordinates": [
          10.366144527458044,
          49.82829359075477
        ]
      }
    },
    {
      "type": "Feature",
      "geometry": {
        "type": "Point",
        "coordinates": [
          10.251452639724828,
          49.7286001923382
        ]
      },
      "properties": {
        "id": "161",
        "land-id": "09675",
        "name": "Rödelsee",
        "population": 1912,
        "area": 11.54,
        "centroid_coordinates": [
          10.251452639724828,
          49.7286001923382
        ]
      }
    },
    {
      "type": "Feature",
      "geometry": {
        "type": "Point",
        "coordinates": [
          10.338880821127177,
          49.7653742964205
        ]
      },
      "properties": {
        "id": "162",
        "land-id": "09675",
        "name": "Rüdenhausen",
        "population": 863,
        "area": 6.93,
        "centroid_coordinates": [
          10.338880821127177,
          49.7653742964205
        ]
      }
    },
    {
      "type": "Feature",
      "geometry": {
        "type": "Point",
        "coordinates": [
          10.233811436759778,
          49.80323339247873
        ]
      },
      "properties": {
        "id": "165",
        "land-id": "09675",
        "name": "Schwarzach a.Main",
        "population": 3677,
        "area": 21.11,
        "centroid_coordinates": [
          10.233811436759778,
          49.80323339247873
        ]
      }
    },
    {
      "type": "Feature",
      "geometry": {
        "type": "Point",
        "coordinates": [
          10.136110032751976,
          49.67765006506556
        ]
      },
      "properties": {
        "id": "166",
        "land-id": "09675",
        "name": "Segnitz",
        "population": 806,
        "area": 2.73,
        "centroid_coordinates": [
          10.136110032751976,
          49.67765006506556
        ]
      }
    },
    {
      "type": "Feature",
      "geometry": {
        "type": "Point",
        "coordinates": [
          10.211992534631204,
          49.64635593898332
        ]
      },
      "properties": {
        "id": "167",
        "land-id": "09675",
        "name": "Seinsheim",
        "population": 1061,
        "area": 17.43,
        "centroid_coordinates": [
          10.211992534631204,
          49.64635593898332
        ]
      }
    },
    {
      "type": "Feature",
      "geometry": {
        "type": "Point",
        "coordinates": [
          10.207130951734552,
          49.832816068996536
        ]
      },
      "properties": {
        "id": "169",
        "land-id": "09675",
        "name": "Sommerach",
        "population": 1462,
        "area": 5.69,
        "centroid_coordinates": [
          10.207130951734552,
          49.832816068996536
        ]
      }
    },
    {
      "type": "Feature",
      "geometry": {
        "type": "Point",
        "coordinates": [
          10.120478592985174,
          49.70869648743193
        ]
      },
      "properties": {
        "id": "170",
        "land-id": "09675",
        "name": "Sulzfeld a.Main",
        "population": 1241,
        "area": 7.66,
        "centroid_coordinates": [
          10.120478592985174,
          49.70869648743193
        ]
      }
    },
    {
      "type": "Feature",
      "geometry": {
        "type": "Point",
        "coordinates": [
          10.241399461079153,
          49.86335749631624
        ]
      },
      "properties": {
        "id": "174",
        "land-id": "09675",
        "name": "Volkach",
        "population": 8584,
        "area": 60.14,
        "centroid_coordinates": [
          10.241399461079153,
          49.86335749631624
        ]
      }
    },
    {
      "type": "Feature",
      "geometry": {
        "type": "Point",
        "coordinates": [
          10.304516854847671,
          49.7430374239965
        ]
      },
      "properties": {
        "id": "177",
        "land-id": "09675",
        "name": "Wiesenbronn",
        "population": 1080,
        "area": 10.63,
        "centroid_coordinates": [
          10.304516854847671,
          49.7430374239965
        ]
      }
    },
    {
      "type": "Feature",
      "geometry": {
        "type": "Point",
        "coordinates": [
          10.334147148607006,
          49.79877179033162
        ]
      },
      "properties": {
        "id": "178",
        "land-id": "09675",
        "name": "Wiesentheid",
        "population": 4902,
        "area": 33.32,
        "centroid_coordinates": [
          10.334147148607006,
          49.79877179033162
        ]
      }
    },
    {
      "type": "Feature",
      "geometry": {
        "type": "Point",
        "coordinates": [
          10.241872475401006,
          49.664412457396224
        ]
      },
      "properties": {
        "id": "179",
        "land-id": "09675",
        "name": "Willanzheim",
        "population": 1589,
        "area": 25.08,
        "centroid_coordinates": [
          10.241872475401006,
          49.664412457396224
        ]
      }
    }
  ]
}