{
  "type": "FeatureCollection",
  "features": [
    {
      "type": "Feature",
      "geometry": {
        "type": "Point",
        "coordinates": [
          11.003648822606738,
          49.7947763779013
        ]
      },
      "properties": {
        "id": "111",
        "land-id": "09471",
        "name": "Altendorf",
        "population": 2172,
        "area": 8.72,
        "centroid_coordinates": [
          11.003648822606738,
          49.7947763779013
        ]
      }
    },
    {
      "type": "Feature",
      "geometry": {
        "type": "Point",
        "coordinates": [
          10.821039042429566,
          49.995519320100875
        ]
      },
      "properties": {
        "id": "115",
        "land-id": "09471",
        "name": "Baunach",
        "population": 3955,
        "area": 32.14,
        "centroid_coordinates": [
          10.821039042429566,
          49.995519320100875
        ]
      }
    },
    {
      "type": "Feature",
      "geometry": {
        "type": "Point",
        "coordinates": [
          10.802683254704935,
          49.9013097606284
        ]
      },
      "properties": {
        "id": "117",
        "land-id": "09471",
        "name": "Bischberg",
        "population": 6092,
        "area": 17.57,
        "centroid_coordinates": [
          10.802683254704935,
          49.9013097606284
        ]
      }
    },
    {
      "type": "Feature",
      "geometry": {
        "type": "Point",
        "coordinates": [
          10.913136339704096,
          49.975928294818154
        ]
      },
      "properties": {
        "id": "119",
        "land-id": "09471",
        "name": "Breitengüßbach",
        "population": 4474,
        "area": 16.8,
        "centroid_coordinates": [
          10.913136339704096,
          49.975928294818154
        ]
      }
    },
    {
      "type": "Feature",
      "geometry": {
        "type": "Point",
        "coordinates": [
          10.729960666227715,
          49.820842545319344
        ]
      },
      "properties": {
        "id": "120",
        "land-id": "09471",
        "name": "Burgebrach",
        "population": 7106,
        "area": 87.88,
        "centroid_coordinates": [
          10.729960666227715,
          49.820842545319344
        ]
      }
    },
    {
      "type": "Feature",
      "geometry": {
        "type": "Point",
        "coordinates": [
          10.591064797944409,
          49.825973176090066
        ]
      },
      "properties": {
        "id": "122",
        "land-id": "09471",
        "name": "Burgwindheim",
        "population": 1278,
        "area": 37.56,
        "centroid_coordinates": [
          10.591064797944409,
          49.825973176090066
        ]
      }
    },
    {
      "type": "Feature",
      "geometry": {
        "type": "Point",
        "coordinates": [
          11.067482191370841,
          49.82355842543181
        ]
      },
      "properties": {
        "id": "123",
        "land-id": "09471",
        "name": "Buttenheim",
        "population": 3695,
        "area": 30.11,
        "centroid_coordinates": [
          11.067482191370841,
          49.82355842543181
        ]
      }
    },
    {
      "type": "Feature",
      "geometry": {
        "type": "Point",
        "coordinates": [
          10.490394007642475,
          49.829451774556794
        ]
      },
      "properties": {
        "id": "128",
        "land-id": "09471",
        "name": "Ebrach",
        "population": 1863,
        "area": 29.53,
        "centroid_coordinates": [
          10.490394007642475,
          49.829451774556794
        ]
      }
    },
    {
      "type": "Feature",
      "geometry": {
        "type": "Point",
        "coordinates": [
          10.87032209716602,
          49.81065364716132
        ]
      },
      "properties": {
        "id": "131",
        "land-id": "09471",
        "name": "Frensdorf",
        "population": 5159,
        "area": 43.95,
        "centroid_coordinates": [
          10.87032209716602,
          49.81065364716132
        ]
      }
    },
    {
      "type": "Feature",
      "geometry": {
        "type": "Point",
        "coordinates": [
          10.792447270443775,
          50.03102810583175
        ]
      },
      "properties": {
        "id": "133",
        "land-id": "09471",
        "name": "Gerach",
        "population": 1037,
        "area": 7.76,
        "centroid_coordinates": [
          10.792447270443775,
          50.03102810583175
        ]
      }
    },
    {
      "type": "Feature",
      "geometry": {
        "type": "Point",
        "coordinates": [
          10.921284424779717,
          49.936820219190444
        ]
      },
      "properties": {
        "id": "137",
        "land-id": "09471",
        "name": "Gundelsheim",
        "population": 3559,
        "area": 3.8,
        "centroid_coordinates": [
          10.921284424779717,
          49.936820219190444
        ]
      }
    },
    {
      "type": "Feature",
      "geometry": {
        "type": "Point",
        "coordinates": [
          10.873176284743282,
          49.930578820480015
        ]
      },
      "properties": {
        "id": "140",
        "land-id": "09471",
        "name": "Hallstadt",
        "population": 8820,
        "area": 14.59,
        "centroid_coordinates": [
          10.873176284743282,
          49.930578820480015
        ]
      }
    },
    {
      "type": "Feature",
      "geometry": {
        "type": "Point",
        "coordinates": [
          11.15120666930859,
          49.874885664895096
        ]
      },
      "properties": {
        "id": "142",
        "land-id": "09471",
        "name": "Heiligenstadt i.OFr.",
        "population": 3632,
        "area": 76.85,
        "centroid_coordinates": [
          11.15120666930859,
          49.874885664895096
        ]
      }
    },
    {
      "type": "Feature",
      "geometry": {
        "type": "Point",
        "coordinates": [
          10.978122253046834,
          49.81139959682243
        ]
      },
      "properties": {
        "id": "145",
        "land-id": "09471",
        "name": "Hirschaid",
        "population": 12468,
        "area": 41.01,
        "centroid_coordinates": [
          10.978122253046834,
          49.81139959682243
        ]
      }
    },
    {
      "type": "Feature",
      "geometry": {
        "type": "Point",
        "coordinates": [
          10.866985614599336,
          49.956899390925564
        ]
      },
      "properties": {
        "id": "150",
        "land-id": "09471",
        "name": "Kemmern",
        "population": 2494,
        "area": 8.24,
        "centroid_coordinates": [
          10.866985614599336,
          49.956899390925564
        ]
      }
    },
    {
      "type": "Feature",
      "geometry": {
        "type": "Point",
        "coordinates": [
          11.161104712729072,
          49.93969874750184
        ]
      },
      "properties": {
        "id": "151",
        "land-id": "09471",
        "name": "Königsfeld",
        "population": 1259,
        "area": 42.85,
        "centroid_coordinates": [
          11.161104712729072,
          49.93969874750184
        ]
      }
    },
    {
      "type": "Feature",
      "geometry": {
        "type": "Point",
        "coordinates": [
          10.778016183024404,
          49.97719791157053
        ]
      },
      "properties": {
        "id": "152",
        "land-id": "09471",
        "name": "Lauter",
        "population": 1189,
        "area": 12.4,
        "centroid_coordinates": [
          10.778016183024404,
          49.97719791157053
        ]
      }
    },
    {
      "type": "Feature",
      "geometry": {
        "type": "Point",
        "coordinates": [
          10.730403403678057,
          49.88979502126824
        ]
      },
      "properties": {
        "id": "154",
        "land-id": "09471",
        "name": "Lisberg",
        "population": 1749,
        "area": 8.36,
        "centroid_coordinates": [
          10.730403403678057,
          49.88979502126824
        ]
      }
    },
    {
      "type": "Feature",
      "geometry": {
        "type": "Point",
        "coordinates": [
          11.039341888107089,
          49.915069442601926
        ]
      },
      "properties": {
        "id": "155",
        "land-id": "09471",
        "name": "Litzendorf",
        "population": 6278,
        "area": 25.88,
        "centroid_coordinates": [
          11.039341888107089,
          49.915069442601926
        ]
      }
    },
    {
      "type": "Feature",
      "geometry": {
        "type": "Point",
        "coordinates": [
          10.971367262147213,
          49.94251256766942
        ]
      },
      "properties": {
        "id": "159",
        "land-id": "09471",
        "name": "Memmelsdorf",
        "population": 8884,
        "area": 26.27,
        "centroid_coordinates": [
          10.971367262147213,
          49.94251256766942
        ]
      }
    },
    {
      "type": "Feature",
      "geometry": {
        "type": "Point",
        "coordinates": [
          10.792638446853864,
          49.944210691966795
        ]
      },
      "properties": {
        "id": "165",
        "land-id": "09471",
        "name": "Oberhaid",
        "population": 4562,
        "area": 27.0,
        "centroid_coordinates": [
          10.792638446853864,
          49.944210691966795
        ]
      }
    },
    {
      "type": "Feature",
      "geometry": {
        "type": "Point",
        "coordinates": [
          10.928838580543554,
          49.83097741361782
        ]
      },
      "properties": {
        "id": "169",
        "land-id": "09471",
        "name": "Pettstadt",
        "population": 2227,
        "area": 9.87,
        "centroid_coordinates": [
          10.928838580543554,
          49.83097741361782
        ]
      }
    },
    {
      "type": "Feature",
      "geometry": {
        "type": "Point",
        "coordinates": [
          10.81707333127814,
          49.77291260437438
        ]
      },
      "properties": {
        "id": "172",
        "land-id": "09471",
        "name": "Pommersfelden",
        "population": 3113,
        "area": 35.65,
        "centroid_coordinates": [
          10.81707333127814,
          49.77291260437438
        ]
      }
    },
    {
      "type": "Feature",
      "geometry": {
        "type": "Point",
        "coordinates": [
          10.708370765641952,
          49.90380164180459
        ]
      },
      "properties": {
        "id": "173",
        "land-id": "09471",
        "name": "Priesendorf",
        "population": 1517,
        "area": 8.38,
        "centroid_coordinates": [
          10.708370765641952,
          49.90380164180459
        ]
      }
    },
    {
      "type": "Feature",
      "geometry": {
        "type": "Point",
        "coordinates": [
          10.880857961492302,
          50.03765486216758
        ]
      },
      "properties": {
        "id": "174",
        "land-id": "09471",
        "name": "Rattelsdorf",
        "population": 4575,
        "area": 39.53,
        "centroid_coordinates": [
          10.880857961492302,
          50.03765486216758
        ]
      }
    },
    {
      "type": "Feature",
      "geometry": {
        "type": "Point",
        "coordinates": [
          10.832540852183785,
          50.0276819553937
        ]
      },
      "properties": {
        "id": "175",
        "land-id": "09471",
        "name": "Reckendorf",
        "population": 2001,
        "area": 13.0,
        "centroid_coordinates": [
          10.832540852183785,
          50.0276819553937
        ]
      }
    },
    {
      "type": "Feature",
      "geometry": {
        "type": "Point",
        "coordinates": [
          11.050170314489748,
          49.98077735527145
        ]
      },
      "properties": {
        "id": "185",
        "land-id": "09471",
        "name": "Scheßlitz",
        "population": 7141,
        "area": 94.84,
        "centroid_coordinates": [
          11.050170314489748,
          49.98077735527145
        ]
      }
    },
    {
      "type": "Feature",
      "geometry": {
        "type": "Point",
        "coordinates": [
          10.68106838711114,
          49.866009927255185
        ]
      },
      "properties": {
        "id": "186",
        "land-id": "09471",
        "name": "Schönbrunn i.Steigerwald",
        "population": 1886,
        "area": 24.74,
        "centroid_coordinates": [
          10.68106838711114,
          49.866009927255185
        ]
      }
    },
    {
      "type": "Feature",
      "geometry": {
        "type": "Point",
        "coordinates": [
          11.175588098124926,
          49.99005533345333
        ]
      },
      "properties": {
        "id": "189",
        "land-id": "09471",
        "name": "Stadelhofen",
        "population": 1251,
        "area": 41.08,
        "centroid_coordinates": [
          11.175588098124926,
          49.99005533345333
        ]
      }
    },
    {
      "type": "Feature",
      "geometry": {
        "type": "Point",
        "coordinates": [
          10.842865307918338,
          49.857820947611444
        ]
      },
      "properties": {
        "id": "191",
        "land-id": "09471",
        "name": "Stegaurach",
        "population": 6897,
        "area": 23.87,
        "centroid_coordinates": [
          10.842865307918338,
          49.857820947611444
        ]
      }
    },
    {
      "type": "Feature",
      "geometry": {
        "type": "Point",
        "coordinates": [
          11.006847244115612,
          49.861604058100205
        ]
      },
      "properties": {
        "id": "195",
        "land-id": "09471",
        "name": "Strullendorf",
        "population": 7762,
        "area": 31.61,
        "centroid_coordinates": [
          11.006847244115612,
          49.861604058100205
        ]
      }
    },
    {
      "type": "Feature",
      "geometry": {
        "type": "Point",
        "coordinates": [
          10.755361179727696,
          49.92288319516932
        ]
      },
      "properties": {
        "id": "207",
        "land-id": "09471",
        "name": "Viereth-Trunstadt",
        "population": 3640,
        "area": 15.8,
        "centroid_coordinates": [
          10.755361179727696,
          49.92288319516932
        ]
      }
    },
    {
      "type": "Feature",
      "geometry": {
        "type": "Point",
        "coordinates": [
          10.772758554368266,
          49.875345746898155
        ]
      },
      "properties": {
        "id": "208",
        "land-id": "09471",
        "name": "Walsdorf",
        "population": 2635,
        "area": 16.2,
        "centroid_coordinates": [
          10.772758554368266,
          49.875345746898155
        ]
      }
    },
    {
      "type": "Feature",
      "geometry": {
        "type": "Point",
        "coordinates": [
          11.136236199917501,
          50.029850120870144
        ]
      },
      "properties": {
        "id": "209",
        "land-id": "09471",
        "name": "Wattendorf",
        "population": 633,
        "area": 22.27,
        "centroid_coordinates": [
          11.136236199917501,
          50.029850120870144
        ]
      }
    },
    {
      "type": "Feature",
      "geometry": {
        "type": "Point",
        "coordinates": [
          10.952345395748656,
          50.01379764257764
        ]
      },
      "properties": {
        "id": "214",
        "land-id": "09471",
        "name": "Zapfendorf",
        "population": 4933,
        "area": 30.57,
        "centroid_coordinates": [
          10.952345395748656,
          50.01379764257764
        ]
      }
    },
    {
      "type": "Feature",
      "geometry": {
        "type": "Point",
        "coordinates": [
          10.629138300648428,
          49.76789180294212
        ]
      },
      "properties": {
        "id": "220",
        "land-id": "09471",
        "name": "Schlüsselfeld",
        "population": 5945,
        "area": 70.13,
        "centroid_coordinates": [
          10.629138300648428,
          49.76789180294212
        ]
      }
    }
  ]
}