{
  "type": "FeatureCollection",
  "features": [
    {
      "type": "Feature",
      "geometry": {
        "type": "Point",
        "coordinates": [
          10.17733005319532,
          47.79076117413964
        ]
      },
      "properties": {
        "id": "112",
        "land-id": "09780",
        "name": "Altusried",
        "population": 10257,
        "area": 91.63,
        "centroid_coordinates": [
          10.17733005319532,
          47.79076117413964
        ]
      }
    },
    {
      "type": "Feature",
      "geometry": {
        "type": "Point",
        "coordinates": [
          10.114755287454559,
          47.4355687206639
        ]
      },
      "properties": {
        "id": "113",
        "land-id": "09780",
        "name": "Balderschwang",
        "population": 222,
        "area": 41.72,
        "centroid_coordinates": [
          10.114755287454559,
          47.4355687206639
        ]
      }
    },
    {
      "type": "Feature",
      "geometry": {
        "type": "Point",
        "coordinates": [
          10.408240602374839,
          47.73362440168352
        ]
      },
      "properties": {
        "id": "114",
        "land-id": "09780",
        "name": "Betzigau",
        "population": 2867,
        "area": 29.25,
        "centroid_coordinates": [
          10.408240602374839,
          47.73362440168352
        ]
      }
    },
    {
      "type": "Feature",
      "geometry": {
        "type": "Point",
        "coordinates": [
          10.185840305848366,
          47.502466720056916
        ]
      },
      "properties": {
        "id": "115",
        "land-id": "09780",
        "name": "Blaichach",
        "population": 5452,
        "area": 50.13,
        "centroid_coordinates": [
          10.185840305848366,
          47.502466720056916
        ]
      }
    },
    {
      "type": "Feature",
      "geometry": {
        "type": "Point",
        "coordinates": [
          10.213997325984547,
          47.46091476367731
        ]
      },
      "properties": {
        "id": "116",
        "land-id": "09780",
        "name": "Bolsterlang",
        "population": 994,
        "area": 20.32,
        "centroid_coordinates": [
          10.213997325984547,
          47.46091476367731
        ]
      }
    },
    {
      "type": "Feature",
      "geometry": {
        "type": "Point",
        "coordinates": [
          10.195171453214785,
          47.70745445951846
        ]
      },
      "properties": {
        "id": "117",
        "land-id": "09780",
        "name": "Buchenberg",
        "population": 4089,
        "area": 58.15,
        "centroid_coordinates": [
          10.195171453214785,
          47.70745445951846
        ]
      }
    },
    {
      "type": "Feature",
      "geometry": {
        "type": "Point",
        "coordinates": [
          10.299213152669028,
          47.54486386073029
        ]
      },
      "properties": {
        "id": "118",
        "land-id": "09780",
        "name": "Burgberg i.Allgäu",
        "population": 3017,
        "area": 15.94,
        "centroid_coordinates": [
          10.299213152669028,
          47.54486386073029
        ]
      }
    },
    {
      "type": "Feature",
      "geometry": {
        "type": "Point",
        "coordinates": [
          10.283049129275287,
          47.82892499859694
        ]
      },
      "properties": {
        "id": "119",
        "land-id": "09780",
        "name": "Dietmannsried",
        "population": 8467,
        "area": 53.66,
        "centroid_coordinates": [
          10.283049129275287,
          47.82892499859694
        ]
      }
    },
    {
      "type": "Feature",
      "geometry": {
        "type": "Point",
        "coordinates": [
          10.381158796813498,
          47.696146269780144
        ]
      },
      "properties": {
        "id": "120",
        "land-id": "09780",
        "name": "Durach",
        "population": 6957,
        "area": 20.76,
        "centroid_coordinates": [
          10.381158796813498,
          47.696146269780144
        ]
      }
    },
    {
      "type": "Feature",
      "geometry": {
        "type": "Point",
        "coordinates": [
          10.26753424249372,
          47.451399060501046
        ]
      },
      "properties": {
        "id": "121",
        "land-id": "09780",
        "name": "Fischen i.Allgäu",
        "population": 2963,
        "area": 13.59,
        "centroid_coordinates": [
          10.26753424249372,
          47.451399060501046
        ]
      }
    },
    {
      "type": "Feature",
      "geometry": {
        "type": "Point",
        "coordinates": [
          10.358843848872459,
          47.79109445259215
        ]
      },
      "properties": {
        "id": "122",
        "land-id": "09780",
        "name": "Haldenwang",
        "population": 3781,
        "area": 26.59,
        "centroid_coordinates": [
          10.358843848872459,
          47.79109445259215
        ]
      }
    },
    {
      "type": "Feature",
      "geometry": {
        "type": "Point",
        "coordinates": [
          10.401716860290362,
          47.46686676554
        ]
      },
      "properties": {
        "id": "123",
        "land-id": "09780",
        "name": "Bad Hindelang",
        "population": 5046,
        "area": 137.07,
        "centroid_coordinates": [
          10.401716860290362,
          47.46686676554
        ]
      }
    },
    {
      "type": "Feature",
      "geometry": {
        "type": "Point",
        "coordinates": [
          10.195247702987183,
          47.57422957910629
        ]
      },
      "properties": {
        "id": "124",
        "land-id": "09780",
        "name": "Immenstadt i.Allgäu",
        "population": 14031,
        "area": 81.28,
        "centroid_coordinates": [
          10.195247702987183,
          47.57422957910629
        ]
      }
    },
    {
      "type": "Feature",
      "geometry": {
        "type": "Point",
        "coordinates": [
          10.309129820828423,
          47.78021569629309
        ]
      },
      "properties": {
        "id": "125",
        "land-id": "09780",
        "name": "Lauben",
        "population": 3469,
        "area": 8.43,
        "centroid_coordinates": [
          10.309129820828423,
          47.78021569629309
        ]
      }
    },
    {
      "type": "Feature",
      "geometry": {
        "type": "Point",
        "coordinates": [
          10.111300940285782,
          47.598421175470584
        ]
      },
      "properties": {
        "id": "127",
        "land-id": "09780",
        "name": "Missen-Wilhams",
        "population": 1566,
        "area": 34.9,
        "centroid_coordinates": [
          10.111300940285782,
          47.598421175470584
        ]
      }
    },
    {
      "type": "Feature",
      "geometry": {
        "type": "Point",
        "coordinates": [
          10.439261404335397,
          47.648633595355385
        ]
      },
      "properties": {
        "id": "128",
        "land-id": "09780",
        "name": "Oy-Mittelberg",
        "population": 4598,
        "area": 60.22,
        "centroid_coordinates": [
          10.439261404335397,
          47.648633595355385
        ]
      }
    },
    {
      "type": "Feature",
      "geometry": {
        "type": "Point",
        "coordinates": [
          10.193913730165233,
          47.43369604040835
        ]
      },
      "properties": {
        "id": "131",
        "land-id": "09780",
        "name": "Obermaiselstein",
        "population": 970,
        "area": 25.05,
        "centroid_coordinates": [
          10.193913730165233,
          47.43369604040835
        ]
      }
    },
    {
      "type": "Feature",
      "geometry": {
        "type": "Point",
        "coordinates": [
          10.058074359464745,
          47.528130395114076
        ]
      },
      "properties": {
        "id": "132",
        "land-id": "09780",
        "name": "Oberstaufen",
        "population": 7243,
        "area": 125.91,
        "centroid_coordinates": [
          10.058074359464745,
          47.528130395114076
        ]
      }
    },
    {
      "type": "Feature",
      "geometry": {
        "type": "Point",
        "coordinates": [
          10.268003531665975,
          47.36873016175024
        ]
      },
      "properties": {
        "id": "133",
        "land-id": "09780",
        "name": "Oberstdorf",
        "population": 9319,
        "area": 229.69,
        "centroid_coordinates": [
          10.268003531665975,
          47.36873016175024
        ]
      }
    },
    {
      "type": "Feature",
      "geometry": {
        "type": "Point",
        "coordinates": [
          10.23743857573943,
          47.4973247815551
        ]
      },
      "properties": {
        "id": "134",
        "land-id": "09780",
        "name": "Ofterschwang",
        "population": 1925,
        "area": 19.52,
        "centroid_coordinates": [
          10.23743857573943,
          47.4973247815551
        ]
      }
    },
    {
      "type": "Feature",
      "geometry": {
        "type": "Point",
        "coordinates": [
          10.319110009165115,
          47.58644707252504
        ]
      },
      "properties": {
        "id": "137",
        "land-id": "09780",
        "name": "Rettenberg",
        "population": 4471,
        "area": 60.16,
        "centroid_coordinates": [
          10.319110009165115,
          47.58644707252504
        ]
      }
    },
    {
      "type": "Feature",
      "geometry": {
        "type": "Point",
        "coordinates": [
          10.31395000674177,
          47.50474286781513
        ]
      },
      "properties": {
        "id": "139",
        "land-id": "09780",
        "name": "Sonthofen",
        "population": 21709,
        "area": 46.45,
        "centroid_coordinates": [
          10.31395000674177,
          47.50474286781513
        ]
      }
    },
    {
      "type": "Feature",
      "geometry": {
        "type": "Point",
        "coordinates": [
          10.355603794375964,
          47.65945785208842
        ]
      },
      "properties": {
        "id": "140",
        "land-id": "09780",
        "name": "Sulzberg",
        "population": 5006,
        "area": 40.87,
        "centroid_coordinates": [
          10.355603794375964,
          47.65945785208842
        ]
      }
    },
    {
      "type": "Feature",
      "geometry": {
        "type": "Point",
        "coordinates": [
          10.265436906163897,
          47.64847120708456
        ]
      },
      "properties": {
        "id": "143",
        "land-id": "09780",
        "name": "Waltenhofen",
        "population": 9807,
        "area": 59.74,
        "centroid_coordinates": [
          10.265436906163897,
          47.64847120708456
        ]
      }
    },
    {
      "type": "Feature",
      "geometry": {
        "type": "Point",
        "coordinates": [
          10.148417939942437,
          47.653678215531464
        ]
      },
      "properties": {
        "id": "144",
        "land-id": "09780",
        "name": "Weitnau",
        "population": 5300,
        "area": 65.24,
        "centroid_coordinates": [
          10.148417939942437,
          47.653678215531464
        ]
      }
    },
    {
      "type": "Feature",
      "geometry": {
        "type": "Point",
        "coordinates": [
          10.411919040524863,
          47.58405032580303
        ]
      },
      "properties": {
        "id": "145",
        "land-id": "09780",
        "name": "Wertach",
        "population": 2687,
        "area": 45.65,
        "centroid_coordinates": [
          10.411919040524863,
          47.58405032580303
        ]
      }
    },
    {
      "type": "Feature",
      "geometry": {
        "type": "Point",
        "coordinates": [
          10.214545294594593,
          47.743946362168984
        ]
      },
      "properties": {
        "id": "146",
        "land-id": "09780",
        "name": "Wiggensbach",
        "population": 4931,
        "area": 31.81,
        "centroid_coordinates": [
          10.214545294594593,
          47.743946362168984
        ]
      }
    },
    {
      "type": "Feature",
      "geometry": {
        "type": "Point",
        "coordinates": [
          10.415339775941789,
          47.77573983982431
        ]
      },
      "properties": {
        "id": "147",
        "land-id": "09780",
        "name": "Wildpoldsried",
        "population": 2558,
        "area": 21.37,
        "centroid_coordinates": [
          10.415339775941789,
          47.77573983982431
        ]
      }
    }
  ]
}