{
  "type": "FeatureCollection",
  "features": [
    {
      "type": "Feature",
      "geometry": {
        "type": "Point",
        "coordinates": [
          11.128243261544524,
          48.35662939400296
        ]
      },
      "properties": {
        "id": "111",
        "land-id": "09771",
        "name": "Adelzhausen",
        "population": 1838,
        "area": 16.92,
        "centroid_coordinates": [
          11.128243261544524,
          48.35662939400296
        ]
      }
    },
    {
      "type": "Feature",
      "geometry": {
        "type": "Point",
        "coordinates": [
          10.963719480098897,
          48.44906396097372
        ]
      },
      "properties": {
        "id": "112",
        "land-id": "09771",
        "name": "Affing",
        "population": 5571,
        "area": 44.8,
        "centroid_coordinates": [
          10.963719480098897,
          48.44906396097372
        ]
      }
    },
    {
      "type": "Feature",
      "geometry": {
        "type": "Point",
        "coordinates": [
          11.1236376067936,
          48.445411097941495
        ]
      },
      "properties": {
        "id": "113",
        "land-id": "09771",
        "name": "Aichach",
        "population": 21881,
        "area": 92.78,
        "centroid_coordinates": [
          11.1236376067936,
          48.445411097941495
        ]
      }
    },
    {
      "type": "Feature",
      "geometry": {
        "type": "Point",
        "coordinates": [
          10.980815660176026,
          48.50742785141341
        ]
      },
      "properties": {
        "id": "114",
        "land-id": "09771",
        "name": "Aindling",
        "population": 4655,
        "area": 31.34,
        "centroid_coordinates": [
          10.980815660176026,
          48.50742785141341
        ]
      }
    },
    {
      "type": "Feature",
      "geometry": {
        "type": "Point",
        "coordinates": [
          11.06679534991313,
          48.3872203341349
        ]
      },
      "properties": {
        "id": "122",
        "land-id": "09771",
        "name": "Dasing",
        "population": 5751,
        "area": 40.84,
        "centroid_coordinates": [
          11.06679534991313,
          48.3872203341349
        ]
      }
    },
    {
      "type": "Feature",
      "geometry": {
        "type": "Point",
        "coordinates": [
          11.109236626848057,
          48.331758018662136
        ]
      },
      "properties": {
        "id": "129",
        "land-id": "09771",
        "name": "Eurasburg",
        "population": 1852,
        "area": 23.9,
        "centroid_coordinates": [
          11.109236626848057,
          48.331758018662136
        ]
      }
    },
    {
      "type": "Feature",
      "geometry": {
        "type": "Point",
        "coordinates": [
          11.00345846595015,
          48.36228353784175
        ]
      },
      "properties": {
        "id": "130",
        "land-id": "09771",
        "name": "Friedberg",
        "population": 29930,
        "area": 81.23,
        "centroid_coordinates": [
          11.00345846595015,
          48.36228353784175
        ]
      }
    },
    {
      "type": "Feature",
      "geometry": {
        "type": "Point",
        "coordinates": [
          11.061006270028553,
          48.48668513286071
        ]
      },
      "properties": {
        "id": "140",
        "land-id": "09771",
        "name": "Hollenbach",
        "population": 2485,
        "area": 26.14,
        "centroid_coordinates": [
          11.061006270028553,
          48.48668513286071
        ]
      }
    },
    {
      "type": "Feature",
      "geometry": {
        "type": "Point",
        "coordinates": [
          11.102783832911937,
          48.5230912058647
        ]
      },
      "properties": {
        "id": "141",
        "land-id": "09771",
        "name": "Inchenhofen",
        "population": 2722,
        "area": 27.51,
        "centroid_coordinates": [
          11.102783832911937,
          48.5230912058647
        ]
      }
    },
    {
      "type": "Feature",
      "geometry": {
        "type": "Point",
        "coordinates": [
          10.980946919720191,
          48.30453117896912
        ]
      },
      "properties": {
        "id": "142",
        "land-id": "09771",
        "name": "Kissing",
        "population": 11737,
        "area": 23.08,
        "centroid_coordinates": [
          10.980946919720191,
          48.30453117896912
        ]
      }
    },
    {
      "type": "Feature",
      "geometry": {
        "type": "Point",
        "coordinates": [
          11.180977932334846,
          48.505936792685674
        ]
      },
      "properties": {
        "id": "144",
        "land-id": "09771",
        "name": "Kühbach",
        "population": 4200,
        "area": 37.51,
        "centroid_coordinates": [
          11.180977932334846,
          48.505936792685674
        ]
      }
    },
    {
      "type": "Feature",
      "geometry": {
        "type": "Point",
        "coordinates": [
          10.982875839330259,
          48.244030431726486
        ]
      },
      "properties": {
        "id": "145",
        "land-id": "09771",
        "name": "Merching",
        "population": 3250,
        "area": 24.8,
        "centroid_coordinates": [
          10.982875839330259,
          48.244030431726486
        ]
      }
    },
    {
      "type": "Feature",
      "geometry": {
        "type": "Point",
        "coordinates": [
          11.002878844300616,
          48.26659213680504
        ]
      },
      "properties": {
        "id": "146",
        "land-id": "09771",
        "name": "Mering",
        "population": 15194,
        "area": 26.77,
        "centroid_coordinates": [
          11.002878844300616,
          48.26659213680504
        ]
      }
    },
    {
      "type": "Feature",
      "geometry": {
        "type": "Point",
        "coordinates": [
          11.047327590554005,
          48.42436085207048
        ]
      },
      "properties": {
        "id": "149",
        "land-id": "09771",
        "name": "Obergriesbach",
        "population": 1995,
        "area": 10.31,
        "centroid_coordinates": [
          11.047327590554005,
          48.42436085207048
        ]
      }
    },
    {
      "type": "Feature",
      "geometry": {
        "type": "Point",
        "coordinates": [
          11.016405206223329,
          48.52368480635957
        ]
      },
      "properties": {
        "id": "155",
        "land-id": "09771",
        "name": "Petersdorf",
        "population": 1746,
        "area": 19.57,
        "centroid_coordinates": [
          11.016405206223329,
          48.52368480635957
        ]
      }
    },
    {
      "type": "Feature",
      "geometry": {
        "type": "Point",
        "coordinates": [
          11.06776834515865,
          48.57300778196782
        ]
      },
      "properties": {
        "id": "156",
        "land-id": "09771",
        "name": "Pöttmes",
        "population": 7005,
        "area": 82.66,
        "centroid_coordinates": [
          11.06776834515865,
          48.57300778196782
        ]
      }
    },
    {
      "type": "Feature",
      "geometry": {
        "type": "Point",
        "coordinates": [
          10.917441464150892,
          48.484571354589065
        ]
      },
      "properties": {
        "id": "158",
        "land-id": "09771",
        "name": "Rehling",
        "population": 2639,
        "area": 26.28,
        "centroid_coordinates": [
          10.917441464150892,
          48.484571354589065
        ]
      }
    },
    {
      "type": "Feature",
      "geometry": {
        "type": "Point",
        "coordinates": [
          11.074399168312828,
          48.28982635036624
        ]
      },
      "properties": {
        "id": "160",
        "land-id": "09771",
        "name": "Ried",
        "population": 3225,
        "area": 29.22,
        "centroid_coordinates": [
          11.074399168312828,
          48.28982635036624
        ]
      }
    },
    {
      "type": "Feature",
      "geometry": {
        "type": "Point",
        "coordinates": [
          11.244316500504505,
          48.45586973865387
        ]
      },
      "properties": {
        "id": "162",
        "land-id": "09771",
        "name": "Schiltberg",
        "population": 1941,
        "area": 29.79,
        "centroid_coordinates": [
          11.244316500504505,
          48.45586973865387
        ]
      }
    },
    {
      "type": "Feature",
      "geometry": {
        "type": "Point",
        "coordinates": [
          10.946712083605508,
          48.2271267705155
        ]
      },
      "properties": {
        "id": "163",
        "land-id": "09771",
        "name": "Schmiechen",
        "population": 1362,
        "area": 13.55,
        "centroid_coordinates": [
          10.946712083605508,
          48.2271267705155
        ]
      }
    },
    {
      "type": "Feature",
      "geometry": {
        "type": "Point",
        "coordinates": [
          11.163452616337137,
          48.39122108138838
        ]
      },
      "properties": {
        "id": "165",
        "land-id": "09771",
        "name": "Sielenbach",
        "population": 1860,
        "area": 17.86,
        "centroid_coordinates": [
          11.163452616337137,
          48.39122108138838
        ]
      }
    },
    {
      "type": "Feature",
      "geometry": {
        "type": "Point",
        "coordinates": [
          11.021105176725834,
          48.2131130712738
        ]
      },
      "properties": {
        "id": "168",
        "land-id": "09771",
        "name": "Steindorf",
        "population": 971,
        "area": 16.16,
        "centroid_coordinates": [
          11.021105176725834,
          48.2131130712738
        ]
      }
    },
    {
      "type": "Feature",
      "geometry": {
        "type": "Point",
        "coordinates": [
          10.903240239912645,
          48.518722620759156
        ]
      },
      "properties": {
        "id": "169",
        "land-id": "09771",
        "name": "Todtenweis",
        "population": 1436,
        "area": 20.23,
        "centroid_coordinates": [
          10.903240239912645,
          48.518722620759156
        ]
      }
    },
    {
      "type": "Feature",
      "geometry": {
        "type": "Point",
        "coordinates": [
          10.961045341183269,
          48.591059988820376
        ]
      },
      "properties": {
        "id": "176",
        "land-id": "09771",
        "name": "Baar (Schwaben)",
        "population": 1279,
        "area": 0.0,
        "centroid_coordinates": [
          10.961045341183269,
          48.591059988820376
        ]
      }
    }
  ]
}