{
  "type": "FeatureCollection",
  "features": [
    {
      "type": "Feature",
      "geometry": {
        "type": "Point",
        "coordinates": [
          11.473223262519815,
          48.68047167028151
        ]
      },
      "properties": {
        "id": "113",
        "land-id": "09186",
        "name": "Baar-Ebenhausen",
        "population": 5567,
        "area": 14.79,
        "centroid_coordinates": [
          11.473223262519815,
          48.68047167028151
        ]
      }
    },
    {
      "type": "Feature",
      "geometry": {
        "type": "Point",
        "coordinates": [
          11.567794130042664,
          48.724240149710454
        ]
      },
      "properties": {
        "id": "116",
        "land-id": "09186",
        "name": "Ernsgaden",
        "population": 1818,
        "area": 7.47,
        "centroid_coordinates": [
          11.567794130042664,
          48.724240149710454
        ]
      }
    },
    {
      "type": "Feature",
      "geometry": {
        "type": "Point",
        "coordinates": [
          11.619938874900987,
          48.683861901460006
        ]
      },
      "properties": {
        "id": "122",
        "land-id": "09186",
        "name": "Geisenfeld",
        "population": 11578,
        "area": 88.37,
        "centroid_coordinates": [
          11.619938874900987,
          48.683861901460006
        ]
      }
    },
    {
      "type": "Feature",
      "geometry": {
        "type": "Point",
        "coordinates": [
          11.355709852752165,
          48.48947627064613
        ]
      },
      "properties": {
        "id": "125",
        "land-id": "09186",
        "name": "Gerolsbach",
        "population": 3814,
        "area": 58.9,
        "centroid_coordinates": [
          11.355709852752165,
          48.48947627064613
        ]
      }
    },
    {
      "type": "Feature",
      "geometry": {
        "type": "Point",
        "coordinates": [
          11.528547430555578,
          48.502182953330134
        ]
      },
      "properties": {
        "id": "126",
        "land-id": "09186",
        "name": "Hettenshausen",
        "population": 2101,
        "area": 18.59,
        "centroid_coordinates": [
          11.528547430555578,
          48.502182953330134
        ]
      }
    },
    {
      "type": "Feature",
      "geometry": {
        "type": "Point",
        "coordinates": [
          11.3973160568121,
          48.594075954197976
        ]
      },
      "properties": {
        "id": "128",
        "land-id": "09186",
        "name": "Hohenwart",
        "population": 4911,
        "area": 52.26,
        "centroid_coordinates": [
          11.3973160568121,
          48.594075954197976
        ]
      }
    },
    {
      "type": "Feature",
      "geometry": {
        "type": "Point",
        "coordinates": [
          11.499680065234337,
          48.48144995641105
        ]
      },
      "properties": {
        "id": "130",
        "land-id": "09186",
        "name": "Ilmmünster",
        "population": 2220,
        "area": 13.94,
        "centroid_coordinates": [
          11.499680065234337,
          48.48144995641105
        ]
      }
    },
    {
      "type": "Feature",
      "geometry": {
        "type": "Point",
        "coordinates": [
          11.407538483197886,
          48.43843549411045
        ]
      },
      "properties": {
        "id": "132",
        "land-id": "09186",
        "name": "Jetzendorf",
        "population": 3115,
        "area": 21.67,
        "centroid_coordinates": [
          11.407538483197886,
          48.43843549411045
        ]
      }
    },
    {
      "type": "Feature",
      "geometry": {
        "type": "Point",
        "coordinates": [
          11.501836782048601,
          48.715841113604924
        ]
      },
      "properties": {
        "id": "137",
        "land-id": "09186",
        "name": "Manching",
        "population": 12927,
        "area": 35.44,
        "centroid_coordinates": [
          11.501836782048601,
          48.715841113604924
        ]
      }
    },
    {
      "type": "Feature",
      "geometry": {
        "type": "Point",
        "coordinates": [
          11.676091266323589,
          48.765182276664554
        ]
      },
      "properties": {
        "id": "139",
        "land-id": "09186",
        "name": "Münchsmünster",
        "population": 3204,
        "area": 16.18,
        "centroid_coordinates": [
          11.676091266323589,
          48.765182276664554
        ]
      }
    },
    {
      "type": "Feature",
      "geometry": {
        "type": "Point",
        "coordinates": [
          11.493396998613253,
          48.552090545216366
        ]
      },
      "properties": {
        "id": "143",
        "land-id": "09186",
        "name": "Pfaffenhofen a.d.Ilm",
        "population": 26191,
        "area": 92.56,
        "centroid_coordinates": [
          11.493396998613253,
          48.552090545216366
        ]
      }
    },
    {
      "type": "Feature",
      "geometry": {
        "type": "Point",
        "coordinates": [
          11.471551279384489,
          48.61364681025192
        ]
      },
      "properties": {
        "id": "144",
        "land-id": "09186",
        "name": "Pörnbach",
        "population": 2212,
        "area": 22.69,
        "centroid_coordinates": [
          11.471551279384489,
          48.61364681025192
        ]
      }
    },
    {
      "type": "Feature",
      "geometry": {
        "type": "Point",
        "coordinates": [
          11.478023142946391,
          48.4546219815504
        ]
      },
      "properties": {
        "id": "146",
        "land-id": "09186",
        "name": "Reichertshausen",
        "population": 5160,
        "area": 23.64,
        "centroid_coordinates": [
          11.478023142946391,
          48.4546219815504
        ]
      }
    },
    {
      "type": "Feature",
      "geometry": {
        "type": "Point",
        "coordinates": [
          11.500512894454308,
          48.65629871557069
        ]
      },
      "properties": {
        "id": "147",
        "land-id": "09186",
        "name": "Reichertshofen",
        "population": 8118,
        "area": 36.87,
        "centroid_coordinates": [
          11.500512894454308,
          48.65629871557069
        ]
      }
    },
    {
      "type": "Feature",
      "geometry": {
        "type": "Point",
        "coordinates": [
          11.573182765083128,
          48.607173391614026
        ]
      },
      "properties": {
        "id": "149",
        "land-id": "09186",
        "name": "Rohrbach",
        "population": 5973,
        "area": 0.0,
        "centroid_coordinates": [
          11.573182765083128,
          48.607173391614026
        ]
      }
    },
    {
      "type": "Feature",
      "geometry": {
        "type": "Point",
        "coordinates": [
          11.433327759660736,
          48.501299832141655
        ]
      },
      "properties": {
        "id": "151",
        "land-id": "09186",
        "name": "Scheyern",
        "population": 4880,
        "area": 38.32,
        "centroid_coordinates": [
          11.433327759660736,
          48.501299832141655
        ]
      }
    },
    {
      "type": "Feature",
      "geometry": {
        "type": "Point",
        "coordinates": [
          11.613842116246843,
          48.514693287510624
        ]
      },
      "properties": {
        "id": "152",
        "land-id": "09186",
        "name": "Schweitenkirchen",
        "population": 5554,
        "area": 53.05,
        "centroid_coordinates": [
          11.613842116246843,
          48.514693287510624
        ]
      }
    },
    {
      "type": "Feature",
      "geometry": {
        "type": "Point",
        "coordinates": [
          11.612500794051163,
          48.769504038769824
        ]
      },
      "properties": {
        "id": "158",
        "land-id": "09186",
        "name": "Vohburg a.d.Donau",
        "population": 8947,
        "area": 45.11,
        "centroid_coordinates": [
          11.612500794051163,
          48.769504038769824
        ]
      }
    },
    {
      "type": "Feature",
      "geometry": {
        "type": "Point",
        "coordinates": [
          11.63057366667978,
          48.602570855441066
        ]
      },
      "properties": {
        "id": "162",
        "land-id": "09186",
        "name": "Wolnzach",
        "population": 11628,
        "area": 91.51,
        "centroid_coordinates": [
          11.63057366667978,
          48.602570855441066
        ]
      }
    }
  ]
}