{
  "type": "FeatureCollection",
  "features": [
    {
      "type": "Feature",
      "geometry": {
        "type": "Point",
        "coordinates": [
          12.411946170837238,
          49.80987716247958
        ]
      },
      "properties": {
        "id": "112",
        "land-id": "09377",
        "name": "Bärnau",
        "population": 3065,
        "area": 74.41,
        "centroid_coordinates": [
          12.411946170837238,
          49.80987716247958
        ]
      }
    },
    {
      "type": "Feature",
      "geometry": {
        "type": "Point",
        "coordinates": [
          11.90015457311767,
          49.959844491168674
        ]
      },
      "properties": {
        "id": "113",
        "land-id": "09377",
        "name": "Brand",
        "population": 1149,
        "area": 10.28,
        "centroid_coordinates": [
          11.90015457311767,
          49.959844491168674
        ]
      }
    },
    {
      "type": "Feature",
      "geometry": {
        "type": "Point",
        "coordinates": [
          11.938661763323946,
          49.95331575237491
        ]
      },
      "properties": {
        "id": "115",
        "land-id": "09377",
        "name": "Ebnath",
        "population": 1306,
        "area": 11.06,
        "centroid_coordinates": [
          11.938661763323946,
          49.95331575237491
        ]
      }
    },
    {
      "type": "Feature",
      "geometry": {
        "type": "Point",
        "coordinates": [
          12.042735335565894,
          49.83834276377861
        ]
      },
      "properties": {
        "id": "116",
        "land-id": "09377",
        "name": "Erbendorf",
        "population": 5082,
        "area": 67.51,
        "centroid_coordinates": [
          12.042735335565894,
          49.83834276377861
        ]
      }
    },
    {
      "type": "Feature",
      "geometry": {
        "type": "Point",
        "coordinates": [
          12.224713445839377,
          49.85502428742331
        ]
      },
      "properties": {
        "id": "117",
        "land-id": "09377",
        "name": "Falkenberg",
        "population": 922,
        "area": 39.26,
        "centroid_coordinates": [
          12.224713445839377,
          49.85502428742331
        ]
      }
    },
    {
      "type": "Feature",
      "geometry": {
        "type": "Point",
        "coordinates": [
          12.10181520334314,
          49.890516231870684
        ]
      },
      "properties": {
        "id": "118",
        "land-id": "09377",
        "name": "Friedenfels",
        "population": 1177,
        "area": 16.32,
        "centroid_coordinates": [
          12.10181520334314,
          49.890516231870684
        ]
      }
    },
    {
      "type": "Feature",
      "geometry": {
        "type": "Point",
        "coordinates": [
          12.131866635456527,
          49.921572466967355
        ]
      },
      "properties": {
        "id": "119",
        "land-id": "09377",
        "name": "Fuchsmühl",
        "population": 1548,
        "area": 14.79,
        "centroid_coordinates": [
          12.131866635456527,
          49.921572466967355
        ]
      }
    },
    {
      "type": "Feature",
      "geometry": {
        "type": "Point",
        "coordinates": [
          11.849688448016614,
          49.92653649852125
        ]
      },
      "properties": {
        "id": "127",
        "land-id": "09377",
        "name": "Immenreuth",
        "population": 1935,
        "area": 26.4,
        "centroid_coordinates": [
          11.849688448016614,
          49.92653649852125
        ]
      }
    },
    {
      "type": "Feature",
      "geometry": {
        "type": "Point",
        "coordinates": [
          11.911188012764988,
          49.82481578681925
        ]
      },
      "properties": {
        "id": "128",
        "land-id": "09377",
        "name": "Kastl",
        "population": 1450,
        "area": 24.57,
        "centroid_coordinates": [
          11.911188012764988,
          49.82481578681925
        ]
      }
    },
    {
      "type": "Feature",
      "geometry": {
        "type": "Point",
        "coordinates": [
          11.92825192768181,
          49.85949517465025
        ]
      },
      "properties": {
        "id": "129",
        "land-id": "09377",
        "name": "Kemnath",
        "population": 5849,
        "area": 56.91,
        "centroid_coordinates": [
          11.92825192768181,
          49.85949517465025
        ]
      }
    },
    {
      "type": "Feature",
      "geometry": {
        "type": "Point",
        "coordinates": [
          12.223887414006935,
          50.00594444164275
        ]
      },
      "properties": {
        "id": "131",
        "land-id": "09377",
        "name": "Konnersreuth",
        "population": 1766,
        "area": 23.43,
        "centroid_coordinates": [
          12.223887414006935,
          50.00594444164275
        ]
      }
    },
    {
      "type": "Feature",
      "geometry": {
        "type": "Point",
        "coordinates": [
          12.098304754650027,
          49.845052735674436
        ]
      },
      "properties": {
        "id": "132",
        "land-id": "09377",
        "name": "Krummennaab",
        "population": 1453,
        "area": 17.65,
        "centroid_coordinates": [
          12.098304754650027,
          49.845052735674436
        ]
      }
    },
    {
      "type": "Feature",
      "geometry": {
        "type": "Point",
        "coordinates": [
          11.90968007678801,
          49.914451940345195
        ]
      },
      "properties": {
        "id": "133",
        "land-id": "09377",
        "name": "Kulmain",
        "population": 2254,
        "area": 35.54,
        "centroid_coordinates": [
          11.90968007678801,
          49.914451940345195
        ]
      }
    },
    {
      "type": "Feature",
      "geometry": {
        "type": "Point",
        "coordinates": [
          12.305560023510726,
          49.94519731457038
        ]
      },
      "properties": {
        "id": "137",
        "land-id": "09377",
        "name": "Leonberg",
        "population": 1041,
        "area": 51.27,
        "centroid_coordinates": [
          12.305560023510726,
          49.94519731457038
        ]
      }
    },
    {
      "type": "Feature",
      "geometry": {
        "type": "Point",
        "coordinates": [
          12.475258721859541,
          49.89176464416901
        ]
      },
      "properties": {
        "id": "139",
        "land-id": "09377",
        "name": "Mähring",
        "population": 1783,
        "area": 72.93,
        "centroid_coordinates": [
          12.475258721859541,
          49.89176464416901
        ]
      }
    },
    {
      "type": "Feature",
      "geometry": {
        "type": "Point",
        "coordinates": [
          12.240597619681818,
          49.94412287578255
        ]
      },
      "properties": {
        "id": "141",
        "land-id": "09377",
        "name": "Mitterteich",
        "population": 6632,
        "area": 39.46,
        "centroid_coordinates": [
          12.240597619681818,
          49.94412287578255
        ]
      }
    },
    {
      "type": "Feature",
      "geometry": {
        "type": "Point",
        "coordinates": [
          12.424969734648998,
          49.9662052616634
        ]
      },
      "properties": {
        "id": "142",
        "land-id": "09377",
        "name": "Bad Neualbenreuth",
        "population": 1418,
        "area": 50.13,
        "centroid_coordinates": [
          12.424969734648998,
          49.9662052616634
        ]
      }
    },
    {
      "type": "Feature",
      "geometry": {
        "type": "Point",
        "coordinates": [
          11.967785775381339,
          49.94122096566622
        ]
      },
      "properties": {
        "id": "143",
        "land-id": "09377",
        "name": "Neusorg",
        "population": 1955,
        "area": 17.79,
        "centroid_coordinates": [
          11.967785775381339,
          49.94122096566622
        ]
      }
    },
    {
      "type": "Feature",
      "geometry": {
        "type": "Point",
        "coordinates": [
          12.170183950368228,
          49.969270468148515
        ]
      },
      "properties": {
        "id": "145",
        "land-id": "09377",
        "name": "Pechbrunn",
        "population": 1286,
        "area": 26.43,
        "centroid_coordinates": [
          12.170183950368228,
          49.969270468148515
        ]
      }
    },
    {
      "type": "Feature",
      "geometry": {
        "type": "Point",
        "coordinates": [
          12.295759418376827,
          49.802636857441705
        ]
      },
      "properties": {
        "id": "146",
        "land-id": "09377",
        "name": "Plößberg",
        "population": 3149,
        "area": 74.29,
        "centroid_coordinates": [
          12.295759418376827,
          49.802636857441705
        ]
      }
    },
    {
      "type": "Feature",
      "geometry": {
        "type": "Point",
        "coordinates": [
          12.006120212461395,
          49.918017777022655
        ]
      },
      "properties": {
        "id": "148",
        "land-id": "09377",
        "name": "Pullenreuth",
        "population": 1569,
        "area": 43.29,
        "centroid_coordinates": [
          12.006120212461395,
          49.918017777022655
        ]
      }
    },
    {
      "type": "Feature",
      "geometry": {
        "type": "Point",
        "coordinates": [
          12.141877656121874,
          49.85732219432078
        ]
      },
      "properties": {
        "id": "149",
        "land-id": "09377",
        "name": "Reuth b.Erbendorf",
        "population": 1095,
        "area": 16.9,
        "centroid_coordinates": [
          12.141877656121874,
          49.85732219432078
        ]
      }
    },
    {
      "type": "Feature",
      "geometry": {
        "type": "Point",
        "coordinates": [
          12.35065275990086,
          49.8872200904168
        ]
      },
      "properties": {
        "id": "154",
        "land-id": "09377",
        "name": "Tirschenreuth",
        "population": 8550,
        "area": 103.99,
        "centroid_coordinates": [
          12.35065275990086,
          49.8872200904168
        ]
      }
    },
    {
      "type": "Feature",
      "geometry": {
        "type": "Point",
        "coordinates": [
          12.070833440898507,
          49.952146689044994
        ]
      },
      "properties": {
        "id": "157",
        "land-id": "09377",
        "name": "Waldershof",
        "population": 4318,
        "area": 60.42,
        "centroid_coordinates": [
          12.070833440898507,
          49.952146689044994
        ]
      }
    },
    {
      "type": "Feature",
      "geometry": {
        "type": "Point",
        "coordinates": [
          12.315583212951555,
          50.015205497936854
        ]
      },
      "properties": {
        "id": "158",
        "land-id": "09377",
        "name": "Waldsassen",
        "population": 6750,
        "area": 66.49,
        "centroid_coordinates": [
          12.315583212951555,
          50.015205497936854
        ]
      }
    },
    {
      "type": "Feature",
      "geometry": {
        "type": "Point",
        "coordinates": [
          12.18456760303896,
          49.906939593633886
        ]
      },
      "properties": {
        "id": "159",
        "land-id": "09377",
        "name": "Wiesau",
        "population": 3936,
        "area": 42.78,
        "centroid_coordinates": [
          12.18456760303896,
          49.906939593633886
        ]
      }
    }
  ]
}