{
  "type": "FeatureCollection",
  "features": [
    {
      "type": "Feature",
      "geometry": {
        "type": "Point",
        "coordinates": [
          10.424710008339312,
          49.516104851654944
        ]
      },
      "properties": {
        "id": "112",
        "land-id": "09575",
        "name": "Bad Windsheim",
        "population": 12470,
        "area": 78.15,
        "centroid_coordinates": [
          10.424710008339312,
          49.516104851654944
        ]
      }
    },
    {
      "type": "Feature",
      "geometry": {
        "type": "Point",
        "coordinates": [
          10.540702132734953,
          49.63202176406235
        ]
      },
      "properties": {
        "id": "113",
        "land-id": "09575",
        "name": "Baudenbach",
        "population": 1247,
        "area": 22.16,
        "centroid_coordinates": [
          10.540702132734953,
          49.63202176406235
        ]
      }
    },
    {
      "type": "Feature",
      "geometry": {
        "type": "Point",
        "coordinates": [
          10.315818275120446,
          49.46474138246675
        ]
      },
      "properties": {
        "id": "115",
        "land-id": "09575",
        "name": "Burgbernheim",
        "population": 3435,
        "area": 42.25,
        "centroid_coordinates": [
          10.315818275120446,
          49.46474138246675
        ]
      }
    },
    {
      "type": "Feature",
      "geometry": {
        "type": "Point",
        "coordinates": [
          10.557571082895617,
          49.7301367486587
        ]
      },
      "properties": {
        "id": "116",
        "land-id": "09575",
        "name": "Burghaslach",
        "population": 2668,
        "area": 43.99,
        "centroid_coordinates": [
          10.557571082895617,
          49.7301367486587
        ]
      }
    },
    {
      "type": "Feature",
      "geometry": {
        "type": "Point",
        "coordinates": [
          10.716489559411988,
          49.64427031583973
        ]
      },
      "properties": {
        "id": "117",
        "land-id": "09575",
        "name": "Dachsbach",
        "population": 1818,
        "area": 20.61,
        "centroid_coordinates": [
          10.716489559411988,
          49.64427031583973
        ]
      }
    },
    {
      "type": "Feature",
      "geometry": {
        "type": "Point",
        "coordinates": [
          10.625620185942369,
          49.598476760614346
        ]
      },
      "properties": {
        "id": "118",
        "land-id": "09575",
        "name": "Diespeck",
        "population": 3781,
        "area": 21.04,
        "centroid_coordinates": [
          10.625620185942369,
          49.598476760614346
        ]
      }
    },
    {
      "type": "Feature",
      "geometry": {
        "type": "Point",
        "coordinates": [
          10.539864336286813,
          49.54712380998286
        ]
      },
      "properties": {
        "id": "119",
        "land-id": "09575",
        "name": "Dietersheim",
        "population": 2127,
        "area": 31.14,
        "centroid_coordinates": [
          10.539864336286813,
          49.54712380998286
        ]
      }
    },
    {
      "type": "Feature",
      "geometry": {
        "type": "Point",
        "coordinates": [
          10.728021125124,
          49.55178234276146
        ]
      },
      "properties": {
        "id": "121",
        "land-id": "09575",
        "name": "Emskirchen",
        "population": 5859,
        "area": 67.2,
        "centroid_coordinates": [
          10.728021125124,
          49.55178234276146
        ]
      }
    },
    {
      "type": "Feature",
      "geometry": {
        "type": "Point",
        "coordinates": [
          10.308683984130308,
          49.518106678333076
        ]
      },
      "properties": {
        "id": "122",
        "land-id": "09575",
        "name": "Ergersheim",
        "population": 1059,
        "area": 30.03,
        "centroid_coordinates": [
          10.308683984130308,
          49.518106678333076
        ]
      }
    },
    {
      "type": "Feature",
      "geometry": {
        "type": "Point",
        "coordinates": [
          10.267666953401752,
          49.466665743593474
        ]
      },
      "properties": {
        "id": "124",
        "land-id": "09575",
        "name": "Gallmersgarten",
        "population": 805,
        "area": 15.24,
        "centroid_coordinates": [
          10.267666953401752,
          49.466665743593474
        ]
      }
    },
    {
      "type": "Feature",
      "geometry": {
        "type": "Point",
        "coordinates": [
          10.7102315403874,
          49.61626491461971
        ]
      },
      "properties": {
        "id": "125",
        "land-id": "09575",
        "name": "Gerhardshofen",
        "population": 2551,
        "area": 27.2,
        "centroid_coordinates": [
          10.7102315403874,
          49.61626491461971
        ]
      }
    },
    {
      "type": "Feature",
      "geometry": {
        "type": "Point",
        "coordinates": [
          10.17950416039042,
          49.567570233824796
        ]
      },
      "properties": {
        "id": "127",
        "land-id": "09575",
        "name": "Gollhofen",
        "population": 891,
        "area": 17.06,
        "centroid_coordinates": [
          10.17950416039042,
          49.567570233824796
        ]
      }
    },
    {
      "type": "Feature",
      "geometry": {
        "type": "Point",
        "coordinates": [
          10.637489444063444,
          49.624935287354425
        ]
      },
      "properties": {
        "id": "128",
        "land-id": "09575",
        "name": "Gutenstetten",
        "population": 1325,
        "area": 21.3,
        "centroid_coordinates": [
          10.637489444063444,
          49.624935287354425
        ]
      }
    },
    {
      "type": "Feature",
      "geometry": {
        "type": "Point",
        "coordinates": [
          10.762888675606538,
          49.52857280254991
        ]
      },
      "properties": {
        "id": "129",
        "land-id": "09575",
        "name": "Hagenbüchach",
        "population": 1646,
        "area": 11.5,
        "centroid_coordinates": [
          10.762888675606538,
          49.52857280254991
        ]
      }
    },
    {
      "type": "Feature",
      "geometry": {
        "type": "Point",
        "coordinates": [
          10.103535269424478,
          49.5662160179352
        ]
      },
      "properties": {
        "id": "130",
        "land-id": "09575",
        "name": "Hemmersheim",
        "population": 653,
        "area": 23.77,
        "centroid_coordinates": [
          10.103535269424478,
          49.5662160179352
        ]
      }
    },
    {
      "type": "Feature",
      "geometry": {
        "type": "Point",
        "coordinates": [
          10.404753026246171,
          49.463156372022944
        ]
      },
      "properties": {
        "id": "133",
        "land-id": "09575",
        "name": "Illesheim",
        "population": 950,
        "area": 21.4,
        "centroid_coordinates": [
          10.404753026246171,
          49.463156372022944
        ]
      }
    },
    {
      "type": "Feature",
      "geometry": {
        "type": "Point",
        "coordinates": [
          10.223472876080459,
          49.60688332544751
        ]
      },
      "properties": {
        "id": "134",
        "land-id": "09575",
        "name": "Ippesheim",
        "population": 1063,
        "area": 23.58,
        "centroid_coordinates": [
          10.223472876080459,
          49.60688332544751
        ]
      }
    },
    {
      "type": "Feature",
      "geometry": {
        "type": "Point",
        "coordinates": [
          10.501543957545348,
          49.524365069400105
        ]
      },
      "properties": {
        "id": "135",
        "land-id": "09575",
        "name": "Ipsheim",
        "population": 2167,
        "area": 42.22,
        "centroid_coordinates": [
          10.501543957545348,
          49.524365069400105
        ]
      }
    },
    {
      "type": "Feature",
      "geometry": {
        "type": "Point",
        "coordinates": [
          10.51458840380204,
          49.61059855574064
        ]
      },
      "properties": {
        "id": "138",
        "land-id": "09575",
        "name": "Langenfeld",
        "population": 1059,
        "area": 7.28,
        "centroid_coordinates": [
          10.51458840380204,
          49.61059855574064
        ]
      }
    },
    {
      "type": "Feature",
      "geometry": {
        "type": "Point",
        "coordinates": [
          10.366123565912284,
          49.44223601609575
        ]
      },
      "properties": {
        "id": "143",
        "land-id": "09575",
        "name": "Marktbergel",
        "population": 1642,
        "area": 24.2,
        "centroid_coordinates": [
          10.366123565912284,
          49.44223601609575
        ]
      }
    },
    {
      "type": "Feature",
      "geometry": {
        "type": "Point",
        "coordinates": [
          10.400772596620543,
          49.66211313028898
        ]
      },
      "properties": {
        "id": "144",
        "land-id": "09575",
        "name": "Markt Bibart",
        "population": 1797,
        "area": 30.0,
        "centroid_coordinates": [
          10.400772596620543,
          49.66211313028898
        ]
      }
    },
    {
      "type": "Feature",
      "geometry": {
        "type": "Point",
        "coordinates": [
          10.62422067399391,
          49.50080404256516
        ]
      },
      "properties": {
        "id": "145",
        "land-id": "09575",
        "name": "Markt Erlbach",
        "population": 5534,
        "area": 60.83,
        "centroid_coordinates": [
          10.62422067399391,
          49.50080404256516
        ]
      }
    },
    {
      "type": "Feature",
      "geometry": {
        "type": "Point",
        "coordinates": [
          10.331203291820362,
          49.570243966753935
        ]
      },
      "properties": {
        "id": "146",
        "land-id": "09575",
        "name": "Markt Nordheim",
        "population": 1140,
        "area": 39.23,
        "centroid_coordinates": [
          10.331203291820362,
          49.570243966753935
        ]
      }
    },
    {
      "type": "Feature",
      "geometry": {
        "type": "Point",
        "coordinates": [
          10.548303761079573,
          49.68964270113181
        ]
      },
      "properties": {
        "id": "147",
        "land-id": "09575",
        "name": "Markt Taschendorf",
        "population": 1061,
        "area": 27.57,
        "centroid_coordinates": [
          10.548303761079573,
          49.68964270113181
        ]
      }
    },
    {
      "type": "Feature",
      "geometry": {
        "type": "Point",
        "coordinates": [
          10.591250800043774,
          49.65695817211082
        ]
      },
      "properties": {
        "id": "150",
        "land-id": "09575",
        "name": "Münchsteinach",
        "population": 1449,
        "area": 29.43,
        "centroid_coordinates": [
          10.591250800043774,
          49.65695817211082
        ]
      }
    },
    {
      "type": "Feature",
      "geometry": {
        "type": "Point",
        "coordinates": [
          10.653186616432716,
          49.44897362344896
        ]
      },
      "properties": {
        "id": "152",
        "land-id": "09575",
        "name": "Neuhof a.d.Zenn",
        "population": 2185,
        "area": 30.84,
        "centroid_coordinates": [
          10.653186616432716,
          49.44897362344896
        ]
      }
    },
    {
      "type": "Feature",
      "geometry": {
        "type": "Point",
        "coordinates": [
          10.575309471519722,
          49.573309959849794
        ]
      },
      "properties": {
        "id": "153",
        "land-id": "09575",
        "name": "Neustadt a.d.Aisch",
        "population": 13195,
        "area": 61.31,
        "centroid_coordinates": [
          10.575309471519722,
          49.573309959849794
        ]
      }
    },
    {
      "type": "Feature",
      "geometry": {
        "type": "Point",
        "coordinates": [
          10.12772730431433,
          49.59700065455344
        ]
      },
      "properties": {
        "id": "155",
        "land-id": "09575",
        "name": "Oberickelsheim",
        "population": 718,
        "area": 18.25,
        "centroid_coordinates": [
          10.12772730431433,
          49.59700065455344
        ]
      }
    },
    {
      "type": "Feature",
      "geometry": {
        "type": "Point",
        "coordinates": [
          10.488729905852711,
          49.45002169205071
        ]
      },
      "properties": {
        "id": "156",
        "land-id": "09575",
        "name": "Obernzenn",
        "population": 2440,
        "area": 39.65,
        "centroid_coordinates": [
          10.488729905852711,
          49.45002169205071
        ]
      }
    },
    {
      "type": "Feature",
      "geometry": {
        "type": "Point",
        "coordinates": [
          10.43069744405191,
          49.7159351735284
        ]
      },
      "properties": {
        "id": "157",
        "land-id": "09575",
        "name": "Oberscheinfeld",
        "population": 1064,
        "area": 42.27,
        "centroid_coordinates": [
          10.43069744405191,
          49.7159351735284
        ]
      }
    },
    {
      "type": "Feature",
      "geometry": {
        "type": "Point",
        "coordinates": [
          10.475064313116752,
          49.67203498865319
        ]
      },
      "properties": {
        "id": "161",
        "land-id": "09575",
        "name": "Scheinfeld",
        "population": 4548,
        "area": 45.12,
        "centroid_coordinates": [
          10.475064313116752,
          49.67203498865319
        ]
      }
    },
    {
      "type": "Feature",
      "geometry": {
        "type": "Point",
        "coordinates": [
          10.131139160887233,
          49.51580859904218
        ]
      },
      "properties": {
        "id": "163",
        "land-id": "09575",
        "name": "Simmershofen",
        "population": 952,
        "area": 34.19,
        "centroid_coordinates": [
          10.131139160887233,
          49.51580859904218
        ]
      }
    },
    {
      "type": "Feature",
      "geometry": {
        "type": "Point",
        "coordinates": [
          10.412802325182223,
          49.60695815002255
        ]
      },
      "properties": {
        "id": "165",
        "land-id": "09575",
        "name": "Sugenheim",
        "population": 2338,
        "area": 63.38,
        "centroid_coordinates": [
          10.412802325182223,
          49.60695815002255
        ]
      }
    },
    {
      "type": "Feature",
      "geometry": {
        "type": "Point",
        "coordinates": [
          10.57949974822242,
          49.462988854994514
        ]
      },
      "properties": {
        "id": "166",
        "land-id": "09575",
        "name": "Trautskirchen",
        "population": 1294,
        "area": 19.82,
        "centroid_coordinates": [
          10.57949974822242,
          49.462988854994514
        ]
      }
    },
    {
      "type": "Feature",
      "geometry": {
        "type": "Point",
        "coordinates": [
          10.700248742367416,
          49.66782827883557
        ]
      },
      "properties": {
        "id": "167",
        "land-id": "09575",
        "name": "Uehlfeld",
        "population": 3100,
        "area": 31.16,
        "centroid_coordinates": [
          10.700248742367416,
          49.66782827883557
        ]
      }
    },
    {
      "type": "Feature",
      "geometry": {
        "type": "Point",
        "coordinates": [
          10.214559413347697,
          49.52306111388421
        ]
      },
      "properties": {
        "id": "168",
        "land-id": "09575",
        "name": "Uffenheim",
        "population": 6412,
        "area": 59.38,
        "centroid_coordinates": [
          10.214559413347697,
          49.52306111388421
        ]
      }
    },
    {
      "type": "Feature",
      "geometry": {
        "type": "Point",
        "coordinates": [
          10.269764790719542,
          49.58636572427514
        ]
      },
      "properties": {
        "id": "179",
        "land-id": "09575",
        "name": "Weigenheim",
        "population": 985,
        "area": 32.6,
        "centroid_coordinates": [
          10.269764790719542,
          49.58636572427514
        ]
      }
    },
    {
      "type": "Feature",
      "geometry": {
        "type": "Point",
        "coordinates": [
          10.737696646045636,
          49.5757725617789
        ]
      },
      "properties": {
        "id": "181",
        "land-id": "09575",
        "name": "Wilhelmsdorf",
        "population": 1447,
        "area": 7.82,
        "centroid_coordinates": [
          10.737696646045636,
          49.5757725617789
        ]
      }
    }
  ]
}