{
  "type": "FeatureCollection",
  "features": [
    {
      "type": "Feature",
      "geometry": {
        "type": "Point",
        "coordinates": [
          12.38727400356042,
          48.26367595365877
        ]
      },
      "properties": {
        "id": "112",
        "land-id": "09183",
        "name": "Ampfing",
        "population": 7161,
        "area": 31.1,
        "centroid_coordinates": [
          12.38727400356042,
          48.26367595365877
        ]
      }
    },
    {
      "type": "Feature",
      "geometry": {
        "type": "Point",
        "coordinates": [
          12.355491612356891,
          48.1983660108886
        ]
      },
      "properties": {
        "id": "113",
        "land-id": "09183",
        "name": "Aschau a.Inn",
        "population": 3274,
        "area": 20.77,
        "centroid_coordinates": [
          12.355491612356891,
          48.1983660108886
        ]
      }
    },
    {
      "type": "Feature",
      "geometry": {
        "type": "Point",
        "coordinates": [
          12.30302194793911,
          48.30727698383644
        ]
      },
      "properties": {
        "id": "114",
        "land-id": "09183",
        "name": "Buchbach",
        "population": 3368,
        "area": 28.77,
        "centroid_coordinates": [
          12.30302194793911,
          48.30727698383644
        ]
      }
    },
    {
      "type": "Feature",
      "geometry": {
        "type": "Point",
        "coordinates": [
          12.453424452233204,
          48.39203815633579
        ]
      },
      "properties": {
        "id": "115",
        "land-id": "09183",
        "name": "Egglkofen",
        "population": 1359,
        "area": 14.01,
        "centroid_coordinates": [
          12.453424452233204,
          48.39203815633579
        ]
      }
    },
    {
      "type": "Feature",
      "geometry": {
        "type": "Point",
        "coordinates": [
          12.568258133511081,
          48.28022404177891
        ]
      },
      "properties": {
        "id": "116",
        "land-id": "09183",
        "name": "Erharting",
        "population": 977,
        "area": 13.6,
        "centroid_coordinates": [
          12.568258133511081,
          48.28022404177891
        ]
      }
    },
    {
      "type": "Feature",
      "geometry": {
        "type": "Point",
        "coordinates": [
          12.288777314393156,
          48.157330438420885
        ]
      },
      "properties": {
        "id": "118",
        "land-id": "09183",
        "name": "Gars a.Inn",
        "population": 4014,
        "area": 43.63,
        "centroid_coordinates": [
          12.288777314393156,
          48.157330438420885
        ]
      }
    },
    {
      "type": "Feature",
      "geometry": {
        "type": "Point",
        "coordinates": [
          12.162705991234587,
          48.16002417662152
        ]
      },
      "properties": {
        "id": "119",
        "land-id": "09183",
        "name": "Haag i.OB",
        "population": 6521,
        "area": 20.41,
        "centroid_coordinates": [
          12.162705991234587,
          48.16002417662152
        ]
      }
    },
    {
      "type": "Feature",
      "geometry": {
        "type": "Point",
        "coordinates": [
          12.363859253889348,
          48.24060778665612
        ]
      },
      "properties": {
        "id": "120",
        "land-id": "09183",
        "name": "Heldenstein",
        "population": 2823,
        "area": 19.86,
        "centroid_coordinates": [
          12.363859253889348,
          48.24060778665612
        ]
      }
    },
    {
      "type": "Feature",
      "geometry": {
        "type": "Point",
        "coordinates": [
          12.37362914349179,
          48.16119276457072
        ]
      },
      "properties": {
        "id": "122",
        "land-id": "09183",
        "name": "Jettenbach",
        "population": 748,
        "area": 9.14,
        "centroid_coordinates": [
          12.37362914349179,
          48.16119276457072
        ]
      }
    },
    {
      "type": "Feature",
      "geometry": {
        "type": "Point",
        "coordinates": [
          12.18091857934468,
          48.187798644069005
        ]
      },
      "properties": {
        "id": "123",
        "land-id": "09183",
        "name": "Kirchdorf",
        "population": 1344,
        "area": 21.04,
        "centroid_coordinates": [
          12.18091857934468,
          48.187798644069005
        ]
      }
    },
    {
      "type": "Feature",
      "geometry": {
        "type": "Point",
        "coordinates": [
          12.4467465182549,
          48.17927770582165
        ]
      },
      "properties": {
        "id": "124",
        "land-id": "09183",
        "name": "Kraiburg a.Inn",
        "population": 4066,
        "area": 27.61,
        "centroid_coordinates": [
          12.4467465182549,
          48.17927770582165
        ]
      }
    },
    {
      "type": "Feature",
      "geometry": {
        "type": "Point",
        "coordinates": [
          12.449716981106528,
          48.312215449674795
        ]
      },
      "properties": {
        "id": "125",
        "land-id": "09183",
        "name": "Lohkirchen",
        "population": 827,
        "area": 14.84,
        "centroid_coordinates": [
          12.449716981106528,
          48.312215449674795
        ]
      }
    },
    {
      "type": "Feature",
      "geometry": {
        "type": "Point",
        "coordinates": [
          12.091661313280833,
          48.14651622508686
        ]
      },
      "properties": {
        "id": "126",
        "land-id": "09183",
        "name": "Maitenbeth",
        "population": 2012,
        "area": 30.98,
        "centroid_coordinates": [
          12.091661313280833,
          48.14651622508686
        ]
      }
    },
    {
      "type": "Feature",
      "geometry": {
        "type": "Point",
        "coordinates": [
          12.47360976948861,
          48.27232557539776
        ]
      },
      "properties": {
        "id": "127",
        "land-id": "09183",
        "name": "Mettenheim",
        "population": 3701,
        "area": 27.18,
        "centroid_coordinates": [
          12.47360976948861,
          48.27232557539776
        ]
      }
    },
    {
      "type": "Feature",
      "geometry": {
        "type": "Point",
        "coordinates": [
          12.518373304745078,
          48.249378967071024
        ]
      },
      "properties": {
        "id": "128",
        "land-id": "09183",
        "name": "Mühldorf a.Inn",
        "population": 22388,
        "area": 29.48,
        "centroid_coordinates": [
          12.518373304745078,
          48.249378967071024
        ]
      }
    },
    {
      "type": "Feature",
      "geometry": {
        "type": "Point",
        "coordinates": [
          12.51090615919283,
          48.380144157783356
        ]
      },
      "properties": {
        "id": "129",
        "land-id": "09183",
        "name": "Neumarkt-Sankt Veit",
        "population": 6285,
        "area": 61.0,
        "centroid_coordinates": [
          12.51090615919283,
          48.380144157783356
        ]
      }
    },
    {
      "type": "Feature",
      "geometry": {
        "type": "Point",
        "coordinates": [
          12.51797159533104,
          48.310715104187025
        ]
      },
      "properties": {
        "id": "130",
        "land-id": "09183",
        "name": "Niederbergkirchen",
        "population": 1220,
        "area": 24.74,
        "centroid_coordinates": [
          12.51797159533104,
          48.310715104187025
        ]
      }
    },
    {
      "type": "Feature",
      "geometry": {
        "type": "Point",
        "coordinates": [
          12.564103978345381,
          48.34528395706543
        ]
      },
      "properties": {
        "id": "131",
        "land-id": "09183",
        "name": "Niedertaufkirchen",
        "population": 1436,
        "area": 26.7,
        "centroid_coordinates": [
          12.564103978345381,
          48.34528395706543
        ]
      }
    },
    {
      "type": "Feature",
      "geometry": {
        "type": "Point",
        "coordinates": [
          12.380958279557102,
          48.31357804693557
        ]
      },
      "properties": {
        "id": "132",
        "land-id": "09183",
        "name": "Oberbergkirchen",
        "population": 1733,
        "area": 27.53,
        "centroid_coordinates": [
          12.380958279557102,
          48.31357804693557
        ]
      }
    },
    {
      "type": "Feature",
      "geometry": {
        "type": "Point",
        "coordinates": [
          12.516453704851415,
          48.16901582952841
        ]
      },
      "properties": {
        "id": "134",
        "land-id": "09183",
        "name": "Oberneukirchen",
        "population": 830,
        "area": 19.61,
        "centroid_coordinates": [
          12.516453704851415,
          48.16901582952841
        ]
      }
    },
    {
      "type": "Feature",
      "geometry": {
        "type": "Point",
        "coordinates": [
          12.263273995653433,
          48.235558828584125
        ]
      },
      "properties": {
        "id": "135",
        "land-id": "09183",
        "name": "Obertaufkirchen",
        "population": 2680,
        "area": 31.63,
        "centroid_coordinates": [
          12.263273995653433,
          48.235558828584125
        ]
      }
    },
    {
      "type": "Feature",
      "geometry": {
        "type": "Point",
        "coordinates": [
          12.539184111057285,
          48.20789658834385
        ]
      },
      "properties": {
        "id": "136",
        "land-id": "09183",
        "name": "Polling",
        "population": 3321,
        "area": 43.84,
        "centroid_coordinates": [
          12.539184111057285,
          48.20789658834385
        ]
      }
    },
    {
      "type": "Feature",
      "geometry": {
        "type": "Point",
        "coordinates": [
          12.317432268880772,
          48.235953207098056
        ]
      },
      "properties": {
        "id": "138",
        "land-id": "09183",
        "name": "Rattenkirchen",
        "population": 1068,
        "area": 19.88,
        "centroid_coordinates": [
          12.317432268880772,
          48.235953207098056
        ]
      }
    },
    {
      "type": "Feature",
      "geometry": {
        "type": "Point",
        "coordinates": [
          12.163362015792154,
          48.119152413806525
        ]
      },
      "properties": {
        "id": "139",
        "land-id": "09183",
        "name": "Rechtmehring",
        "population": 2086,
        "area": 24.42,
        "centroid_coordinates": [
          12.163362015792154,
          48.119152413806525
        ]
      }
    },
    {
      "type": "Feature",
      "geometry": {
        "type": "Point",
        "coordinates": [
          12.256218034927482,
          48.1868401851044
        ]
      },
      "properties": {
        "id": "140",
        "land-id": "09183",
        "name": "Reichertsheim",
        "population": 1708,
        "area": 31.34,
        "centroid_coordinates": [
          12.256218034927482,
          48.1868401851044
        ]
      }
    },
    {
      "type": "Feature",
      "geometry": {
        "type": "Point",
        "coordinates": [
          12.424443979504943,
          48.344834841676175
        ]
      },
      "properties": {
        "id": "143",
        "land-id": "09183",
        "name": "Schönberg",
        "population": 1113,
        "area": 25.39,
        "centroid_coordinates": [
          12.424443979504943,
          48.344834841676175
        ]
      }
    },
    {
      "type": "Feature",
      "geometry": {
        "type": "Point",
        "coordinates": [
          12.268631030426103,
          48.27385478130585
        ]
      },
      "properties": {
        "id": "144",
        "land-id": "09183",
        "name": "Schwindegg",
        "population": 3540,
        "area": 20.76,
        "centroid_coordinates": [
          12.268631030426103,
          48.27385478130585
        ]
      }
    },
    {
      "type": "Feature",
      "geometry": {
        "type": "Point",
        "coordinates": [
          12.445737406357145,
          48.14118316572879
        ]
      },
      "properties": {
        "id": "145",
        "land-id": "09183",
        "name": "Taufkirchen",
        "population": 1389,
        "area": 25.29,
        "centroid_coordinates": [
          12.445737406357145,
          48.14118316572879
        ]
      }
    },
    {
      "type": "Feature",
      "geometry": {
        "type": "Point",
        "coordinates": [
          12.334613662234595,
          48.12924426352699
        ]
      },
      "properties": {
        "id": "147",
        "land-id": "09183",
        "name": "Unterreit",
        "population": 1763,
        "area": 32.31,
        "centroid_coordinates": [
          12.334613662234595,
          48.12924426352699
        ]
      }
    },
    {
      "type": "Feature",
      "geometry": {
        "type": "Point",
        "coordinates": [
          12.420696468828943,
          48.20186499538085
        ]
      },
      "properties": {
        "id": "148",
        "land-id": "09183",
        "name": "Waldkraiburg",
        "population": 25692,
        "area": 21.59,
        "centroid_coordinates": [
          12.420696468828943,
          48.20186499538085
        ]
      }
    },
    {
      "type": "Feature",
      "geometry": {
        "type": "Point",
        "coordinates": [
          12.42990682105984,
          48.28126901748612
        ]
      },
      "properties": {
        "id": "151",
        "land-id": "09183",
        "name": "Zangberg",
        "population": 1173,
        "area": 9.86,
        "centroid_coordinates": [
          12.42990682105984,
          48.28126901748612
        ]
      }
    }
  ]
}