{
  "type": "FeatureCollection",
  "features": [
    {
      "type": "Feature",
      "geometry": {
        "type": "Point",
        "coordinates": [
          10.947850225686205,
          47.88864919261065
        ]
      },
      "properties": {
        "id": "111",
        "land-id": "09181",
        "name": "Apfeldorf",
        "population": 1224,
        "area": 12.29,
        "centroid_coordinates": [
          10.947850225686205,
          47.88864919261065
        ]
      }
    },
    {
      "type": "Feature",
      "geometry": {
        "type": "Point",
        "coordinates": [
          10.84017056353301,
          47.8884784875956
        ]
      },
      "properties": {
        "id": "113",
        "land-id": "09181",
        "name": "Denklingen",
        "population": 2857,
        "area": 56.58,
        "centroid_coordinates": [
          10.84017056353301,
          47.8884784875956
        ]
      }
    },
    {
      "type": "Feature",
      "geometry": {
        "type": "Point",
        "coordinates": [
          11.049815400966057,
          47.95315031378771
        ]
      },
      "properties": {
        "id": "114",
        "land-id": "09181",
        "name": "Dießen am Ammersee",
        "population": 10683,
        "area": 82.7,
        "centroid_coordinates": [
          11.049815400966057,
          47.95315031378771
        ]
      }
    },
    {
      "type": "Feature",
      "geometry": {
        "type": "Point",
        "coordinates": [
          11.116293790155831,
          48.08308607861149
        ]
      },
      "properties": {
        "id": "115",
        "land-id": "09181",
        "name": "Eching am Ammersee",
        "population": 1631,
        "area": 6.26,
        "centroid_coordinates": [
          11.116293790155831,
          48.08308607861149
        ]
      }
    },
    {
      "type": "Feature",
      "geometry": {
        "type": "Point",
        "coordinates": [
          10.989320093279883,
          48.18555526916062
        ]
      },
      "properties": {
        "id": "116",
        "land-id": "09181",
        "name": "Egling a.d.Paar",
        "population": 2450,
        "area": 20.83,
        "centroid_coordinates": [
          10.989320093279883,
          48.18555526916062
        ]
      }
    },
    {
      "type": "Feature",
      "geometry": {
        "type": "Point",
        "coordinates": [
          11.037948351355093,
          48.09020244011861
        ]
      },
      "properties": {
        "id": "118",
        "land-id": "09181",
        "name": "Eresing",
        "population": 2060,
        "area": 14.27,
        "centroid_coordinates": [
          11.037948351355093,
          48.09020244011861
        ]
      }
    },
    {
      "type": "Feature",
      "geometry": {
        "type": "Point",
        "coordinates": [
          11.013209364872365,
          48.02118755695002
        ]
      },
      "properties": {
        "id": "120",
        "land-id": "09181",
        "name": "Finning",
        "population": 1909,
        "area": 23.4,
        "centroid_coordinates": [
          11.013209364872365,
          48.02118755695002
        ]
      }
    },
    {
      "type": "Feature",
      "geometry": {
        "type": "Point",
        "coordinates": [
          10.822723510618196,
          47.93315855318416
        ]
      },
      "properties": {
        "id": "121",
        "land-id": "09181",
        "name": "Fuchstal",
        "population": 4128,
        "area": 39.79,
        "centroid_coordinates": [
          10.822723510618196,
          47.93315855318416
        ]
      }
    },
    {
      "type": "Feature",
      "geometry": {
        "type": "Point",
        "coordinates": [
          11.006669761770162,
          48.135348229321565
        ]
      },
      "properties": {
        "id": "122",
        "land-id": "09181",
        "name": "Geltendorf",
        "population": 5851,
        "area": 34.8,
        "centroid_coordinates": [
          11.006669761770162,
          48.135348229321565
        ]
      }
    },
    {
      "type": "Feature",
      "geometry": {
        "type": "Point",
        "coordinates": [
          11.0799657102255,
          48.07723635868016
        ]
      },
      "properties": {
        "id": "123",
        "land-id": "09181",
        "name": "Greifenberg",
        "population": 2172,
        "area": 8.23,
        "centroid_coordinates": [
          11.0799657102255,
          48.07723635868016
        ]
      }
    },
    {
      "type": "Feature",
      "geometry": {
        "type": "Point",
        "coordinates": [
          10.967546975993205,
          48.002423656328695
        ]
      },
      "properties": {
        "id": "124",
        "land-id": "09181",
        "name": "Hofstetten",
        "population": 1856,
        "area": 16.94,
        "centroid_coordinates": [
          10.967546975993205,
          48.002423656328695
        ]
      }
    },
    {
      "type": "Feature",
      "geometry": {
        "type": "Point",
        "coordinates": [
          10.82659905330045,
          48.1201030133603
        ]
      },
      "properties": {
        "id": "126",
        "land-id": "09181",
        "name": "Hurlach",
        "population": 1936,
        "area": 17.16,
        "centroid_coordinates": [
          10.82659905330045,
          48.1201030133603
        ]
      }
    },
    {
      "type": "Feature",
      "geometry": {
        "type": "Point",
        "coordinates": [
          10.806622355024261,
          48.06617118221149
        ]
      },
      "properties": {
        "id": "127",
        "land-id": "09181",
        "name": "Igling",
        "population": 2517,
        "area": 26.34,
        "centroid_coordinates": [
          10.806622355024261,
          48.06617118221149
        ]
      }
    },
    {
      "type": "Feature",
      "geometry": {
        "type": "Point",
        "coordinates": [
          10.872104611810595,
          48.09889729258344
        ]
      },
      "properties": {
        "id": "128",
        "land-id": "09181",
        "name": "Kaufering",
        "population": 10074,
        "area": 17.65,
        "centroid_coordinates": [
          10.872104611810595,
          48.09889729258344
        ]
      }
    },
    {
      "type": "Feature",
      "geometry": {
        "type": "Point",
        "coordinates": [
          10.904940120210924,
          47.87863905869511
        ]
      },
      "properties": {
        "id": "129",
        "land-id": "09181",
        "name": "Kinsau",
        "population": 1047,
        "area": 11.44,
        "centroid_coordinates": [
          10.904940120210924,
          47.87863905869511
        ]
      }
    },
    {
      "type": "Feature",
      "geometry": {
        "type": "Point",
        "coordinates": [
          10.861040150538058,
          48.034836503784206
        ]
      },
      "properties": {
        "id": "130",
        "land-id": "09181",
        "name": "Landsberg am Lech",
        "population": 28665,
        "area": 57.88,
        "centroid_coordinates": [
          10.861040150538058,
          48.034836503784206
        ]
      }
    },
    {
      "type": "Feature",
      "geometry": {
        "type": "Point",
        "coordinates": [
          10.827050655994597,
          48.14539401562458
        ]
      },
      "properties": {
        "id": "131",
        "land-id": "09181",
        "name": "Obermeitingen",
        "population": 1748,
        "area": 10.0,
        "centroid_coordinates": [
          10.827050655994597,
          48.14539401562458
        ]
      }
    },
    {
      "type": "Feature",
      "geometry": {
        "type": "Point",
        "coordinates": [
          10.939715738917151,
          48.07847108790845
        ]
      },
      "properties": {
        "id": "132",
        "land-id": "09181",
        "name": "Penzing",
        "population": 4310,
        "area": 33.83,
        "centroid_coordinates": [
          10.939715738917151,
          48.07847108790845
        ]
      }
    },
    {
      "type": "Feature",
      "geometry": {
        "type": "Point",
        "coordinates": [
          10.916823782286702,
          47.95851909782157
        ]
      },
      "properties": {
        "id": "133",
        "land-id": "09181",
        "name": "Vilgertshofen",
        "population": 2733,
        "area": 27.1,
        "centroid_coordinates": [
          10.916823782286702,
          47.95851909782157
        ]
      }
    },
    {
      "type": "Feature",
      "geometry": {
        "type": "Point",
        "coordinates": [
          10.925543745361937,
          48.200444499483126
        ]
      },
      "properties": {
        "id": "134",
        "land-id": "09181",
        "name": "Prittriching",
        "population": 2603,
        "area": 25.37,
        "centroid_coordinates": [
          10.925543745361937,
          48.200444499483126
        ]
      }
    },
    {
      "type": "Feature",
      "geometry": {
        "type": "Point",
        "coordinates": [
          10.937082435970758,
          47.93043391673979
        ]
      },
      "properties": {
        "id": "135",
        "land-id": "09181",
        "name": "Reichling",
        "population": 1739,
        "area": 23.35,
        "centroid_coordinates": [
          10.937082435970758,
          47.93043391673979
        ]
      }
    },
    {
      "type": "Feature",
      "geometry": {
        "type": "Point",
        "coordinates": [
          10.982394042121811,
          47.90890699462112
        ]
      },
      "properties": {
        "id": "137",
        "land-id": "09181",
        "name": "Rott",
        "population": 1762,
        "area": 19.68,
        "centroid_coordinates": [
          10.982394042121811,
          47.90890699462112
        ]
      }
    },
    {
      "type": "Feature",
      "geometry": {
        "type": "Point",
        "coordinates": [
          10.889425548496488,
          48.160208986164626
        ]
      },
      "properties": {
        "id": "138",
        "land-id": "09181",
        "name": "Scheuring",
        "population": 1955,
        "area": 21.22,
        "centroid_coordinates": [
          10.889425548496488,
          48.160208986164626
        ]
      }
    },
    {
      "type": "Feature",
      "geometry": {
        "type": "Point",
        "coordinates": [
          11.086445047957183,
          48.05288905413846
        ]
      },
      "properties": {
        "id": "139",
        "land-id": "09181",
        "name": "Schondorf am Ammersee",
        "population": 3805,
        "area": 6.59,
        "centroid_coordinates": [
          11.086445047957183,
          48.05288905413846
        ]
      }
    },
    {
      "type": "Feature",
      "geometry": {
        "type": "Point",
        "coordinates": [
          10.939528611234799,
          48.0436048645897
        ]
      },
      "properties": {
        "id": "140",
        "land-id": "09181",
        "name": "Schwifting",
        "population": 1040,
        "area": 11.48,
        "centroid_coordinates": [
          10.939528611234799,
          48.0436048645897
        ]
      }
    },
    {
      "type": "Feature",
      "geometry": {
        "type": "Point",
        "coordinates": [
          10.91732632299431,
          48.00652178547365
        ]
      },
      "properties": {
        "id": "141",
        "land-id": "09181",
        "name": "Pürgen",
        "population": 3651,
        "area": 22.0,
        "centroid_coordinates": [
          10.91732632299431,
          48.00652178547365
        ]
      }
    },
    {
      "type": "Feature",
      "geometry": {
        "type": "Point",
        "coordinates": [
          10.963189742611492,
          47.97317712849286
        ]
      },
      "properties": {
        "id": "142",
        "land-id": "09181",
        "name": "Thaining",
        "population": 1102,
        "area": 8.66,
        "centroid_coordinates": [
          10.963189742611492,
          47.97317712849286
        ]
      }
    },
    {
      "type": "Feature",
      "geometry": {
        "type": "Point",
        "coordinates": [
          10.843809743936687,
          47.979012477781346
        ]
      },
      "properties": {
        "id": "143",
        "land-id": "09181",
        "name": "Unterdießen",
        "population": 1501,
        "area": 12.74,
        "centroid_coordinates": [
          10.843809743936687,
          47.979012477781346
        ]
      }
    },
    {
      "type": "Feature",
      "geometry": {
        "type": "Point",
        "coordinates": [
          11.069548949029478,
          48.0193514257092
        ]
      },
      "properties": {
        "id": "144",
        "land-id": "09181",
        "name": "Utting am Ammersee",
        "population": 4626,
        "area": 18.98,
        "centroid_coordinates": [
          11.069548949029478,
          48.0193514257092
        ]
      }
    },
    {
      "type": "Feature",
      "geometry": {
        "type": "Point",
        "coordinates": [
          10.947367459597272,
          48.12344341784578
        ]
      },
      "properties": {
        "id": "145",
        "land-id": "09181",
        "name": "Weil",
        "population": 3948,
        "area": 44.43,
        "centroid_coordinates": [
          10.947367459597272,
          48.12344341784578
        ]
      }
    },
    {
      "type": "Feature",
      "geometry": {
        "type": "Point",
        "coordinates": [
          11.025024142013901,
          48.05981604947071
        ]
      },
      "properties": {
        "id": "146",
        "land-id": "09181",
        "name": "Windach",
        "population": 3802,
        "area": 24.8,
        "centroid_coordinates": [
          11.025024142013901,
          48.05981604947071
        ]
      }
    }
  ]
}