{
  "type": "FeatureCollection",
  "features": [
    {
      "type": "Feature",
      "geometry": {
        "type": "Point",
        "coordinates": [
          12.477765815358342,
          48.93729974708647
        ]
      },
      "properties": {
        "id": "112",
        "land-id": "09278",
        "name": "Aholfing",
        "population": 1899,
        "area": 21.41,
        "centroid_coordinates": [
          12.477765815358342,
          48.93729974708647
        ]
      }
    },
    {
      "type": "Feature",
      "geometry": {
        "type": "Point",
        "coordinates": [
          12.651078215902093,
          48.85875157136362
        ]
      },
      "properties": {
        "id": "113",
        "land-id": "09278",
        "name": "Aiterhofen",
        "population": 3553,
        "area": 43.2,
        "centroid_coordinates": [
          12.651078215902093,
          48.85875157136362
        ]
      }
    },
    {
      "type": "Feature",
      "geometry": {
        "type": "Point",
        "coordinates": [
          12.623233984733,
          48.988965489843835
        ]
      },
      "properties": {
        "id": "116",
        "land-id": "09278",
        "name": "Ascha",
        "population": 1586,
        "area": 19.53,
        "centroid_coordinates": [
          12.623233984733,
          48.988965489843835
        ]
      }
    },
    {
      "type": "Feature",
      "geometry": {
        "type": "Point",
        "coordinates": [
          12.497833620330306,
          48.89177213198568
        ]
      },
      "properties": {
        "id": "117",
        "land-id": "09278",
        "name": "Atting",
        "population": 1670,
        "area": 14.92,
        "centroid_coordinates": [
          12.497833620330306,
          48.89177213198568
        ]
      }
    },
    {
      "type": "Feature",
      "geometry": {
        "type": "Point",
        "coordinates": [
          12.718430745910922,
          48.91509480811457
        ]
      },
      "properties": {
        "id": "118",
        "land-id": "09278",
        "name": "Bogen",
        "population": 10427,
        "area": 49.77,
        "centroid_coordinates": [
          12.718430745910922,
          48.91509480811457
        ]
      }
    },
    {
      "type": "Feature",
      "geometry": {
        "type": "Point",
        "coordinates": [
          12.591097075553739,
          49.003525058214294
        ]
      },
      "properties": {
        "id": "120",
        "land-id": "09278",
        "name": "Falkenfels",
        "population": 1017,
        "area": 11.5,
        "centroid_coordinates": [
          12.591097075553739,
          49.003525058214294
        ]
      }
    },
    {
      "type": "Feature",
      "geometry": {
        "type": "Point",
        "coordinates": [
          12.530248436455855,
          48.830176981821374
        ]
      },
      "properties": {
        "id": "121",
        "land-id": "09278",
        "name": "Feldkirchen",
        "population": 2026,
        "area": 22.63,
        "centroid_coordinates": [
          12.530248436455855,
          48.830176981821374
        ]
      }
    },
    {
      "type": "Feature",
      "geometry": {
        "type": "Point",
        "coordinates": [
          12.397792369914143,
          48.81953206802278
        ]
      },
      "properties": {
        "id": "123",
        "land-id": "09278",
        "name": "Geiselhöring",
        "population": 6970,
        "area": 99.7,
        "centroid_coordinates": [
          12.397792369914143,
          48.81953206802278
        ]
      }
    },
    {
      "type": "Feature",
      "geometry": {
        "type": "Point",
        "coordinates": [
          12.73174191034432,
          49.02682943382782
        ]
      },
      "properties": {
        "id": "129",
        "land-id": "09278",
        "name": "Haibach",
        "population": 2028,
        "area": 32.29,
        "centroid_coordinates": [
          12.73174191034432,
          49.02682943382782
        ]
      }
    },
    {
      "type": "Feature",
      "geometry": {
        "type": "Point",
        "coordinates": [
          12.686988082966856,
          49.001104134847054
        ]
      },
      "properties": {
        "id": "134",
        "land-id": "09278",
        "name": "Haselbach",
        "population": 1875,
        "area": 18.46,
        "centroid_coordinates": [
          12.686988082966856,
          49.001104134847054
        ]
      }
    },
    {
      "type": "Feature",
      "geometry": {
        "type": "Point",
        "coordinates": [
          12.720644230026277,
          48.949534029249726
        ]
      },
      "properties": {
        "id": "139",
        "land-id": "09278",
        "name": "Hunderdorf",
        "population": 3231,
        "area": 22.15,
        "centroid_coordinates": [
          12.720644230026277,
          48.949534029249726
        ]
      }
    },
    {
      "type": "Feature",
      "geometry": {
        "type": "Point",
        "coordinates": [
          12.74285543703391,
          48.85419147743869
        ]
      },
      "properties": {
        "id": "140",
        "land-id": "09278",
        "name": "Irlbach",
        "population": 1142,
        "area": 15.86,
        "centroid_coordinates": [
          12.74285543703391,
          48.85419147743869
        ]
      }
    },
    {
      "type": "Feature",
      "geometry": {
        "type": "Point",
        "coordinates": [
          12.518442264769348,
          48.95763218051951
        ]
      },
      "properties": {
        "id": "141",
        "land-id": "09278",
        "name": "Kirchroth",
        "population": 3914,
        "area": 42.78,
        "centroid_coordinates": [
          12.518442264769348,
          48.95763218051951
        ]
      }
    },
    {
      "type": "Feature",
      "geometry": {
        "type": "Point",
        "coordinates": [
          12.708063061139791,
          49.073824293504735
        ]
      },
      "properties": {
        "id": "143",
        "land-id": "09278",
        "name": "Konzell",
        "population": 1854,
        "area": 26.8,
        "centroid_coordinates": [
          12.708063061139791,
          49.073824293504735
        ]
      }
    },
    {
      "type": "Feature",
      "geometry": {
        "type": "Point",
        "coordinates": [
          12.315280783899123,
          48.781435846747364
        ]
      },
      "properties": {
        "id": "144",
        "land-id": "09278",
        "name": "Laberweinting",
        "population": 3551,
        "area": 76.23,
        "centroid_coordinates": [
          12.315280783899123,
          48.781435846747364
        ]
      }
    },
    {
      "type": "Feature",
      "geometry": {
        "type": "Point",
        "coordinates": [
          12.52417017365648,
          48.77261559089006
        ]
      },
      "properties": {
        "id": "146",
        "land-id": "09278",
        "name": "Leiblfing",
        "population": 4369,
        "area": 78.39,
        "centroid_coordinates": [
          12.52417017365648,
          48.77261559089006
        ]
      }
    },
    {
      "type": "Feature",
      "geometry": {
        "type": "Point",
        "coordinates": [
          12.655275354224974,
          49.092909829758725
        ]
      },
      "properties": {
        "id": "147",
        "land-id": "09278",
        "name": "Loitzendorf",
        "population": 641,
        "area": 12.0,
        "centroid_coordinates": [
          12.655275354224974,
          49.092909829758725
        ]
      }
    },
    {
      "type": "Feature",
      "geometry": {
        "type": "Point",
        "coordinates": [
          12.222265002209614,
          48.77257259184024
        ]
      },
      "properties": {
        "id": "148",
        "land-id": "09278",
        "name": "Mallersdorf-Pfaffenberg",
        "population": 6807,
        "area": 72.6,
        "centroid_coordinates": [
          12.222265002209614,
          48.77257259184024
        ]
      }
    },
    {
      "type": "Feature",
      "geometry": {
        "type": "Point",
        "coordinates": [
          12.8163698901841,
          48.84573698424229
        ]
      },
      "properties": {
        "id": "149",
        "land-id": "09278",
        "name": "Mariaposching",
        "population": 1416,
        "area": 19.57,
        "centroid_coordinates": [
          12.8163698901841,
          48.84573698424229
        ]
      }
    },
    {
      "type": "Feature",
      "geometry": {
        "type": "Point",
        "coordinates": [
          12.668315279138582,
          48.96910624786057
        ]
      },
      "properties": {
        "id": "151",
        "land-id": "09278",
        "name": "Mitterfels",
        "population": 2792,
        "area": 14.23,
        "centroid_coordinates": [
          12.668315279138582,
          48.96910624786057
        ]
      }
    },
    {
      "type": "Feature",
      "geometry": {
        "type": "Point",
        "coordinates": [
          12.765400670356838,
          48.98228213078836
        ]
      },
      "properties": {
        "id": "154",
        "land-id": "09278",
        "name": "Neukirchen",
        "population": 1821,
        "area": 24.45,
        "centroid_coordinates": [
          12.765400670356838,
          48.98228213078836
        ]
      }
    },
    {
      "type": "Feature",
      "geometry": {
        "type": "Point",
        "coordinates": [
          12.79294042616252,
          48.8733235144038
        ]
      },
      "properties": {
        "id": "159",
        "land-id": "09278",
        "name": "Niederwinkling",
        "population": 2925,
        "area": 25.65,
        "centroid_coordinates": [
          12.79294042616252,
          48.8733235144038
        ]
      }
    },
    {
      "type": "Feature",
      "geometry": {
        "type": "Point",
        "coordinates": [
          12.654368307666205,
          48.7812497498618
        ]
      },
      "properties": {
        "id": "167",
        "land-id": "09278",
        "name": "Oberschneiding",
        "population": 3285,
        "area": 60.76,
        "centroid_coordinates": [
          12.654368307666205,
          48.7812497498618
        ]
      }
    },
    {
      "type": "Feature",
      "geometry": {
        "type": "Point",
        "coordinates": [
          12.605100617523211,
          48.92011639182178
        ]
      },
      "properties": {
        "id": "170",
        "land-id": "09278",
        "name": "Parkstetten",
        "population": 3320,
        "area": 19.48,
        "centroid_coordinates": [
          12.605100617523211,
          48.92011639182178
        ]
      }
    },
    {
      "type": "Feature",
      "geometry": {
        "type": "Point",
        "coordinates": [
          12.811387915663081,
          48.95529225255041
        ]
      },
      "properties": {
        "id": "171",
        "land-id": "09278",
        "name": "Perasdorf",
        "population": 517,
        "area": 16.04,
        "centroid_coordinates": [
          12.811387915663081,
          48.95529225255041
        ]
      }
    },
    {
      "type": "Feature",
      "geometry": {
        "type": "Point",
        "coordinates": [
          12.444058168323778,
          48.86483379875797
        ]
      },
      "properties": {
        "id": "172",
        "land-id": "09278",
        "name": "Perkam",
        "population": 1601,
        "area": 14.26,
        "centroid_coordinates": [
          12.444058168323778,
          48.86483379875797
        ]
      }
    },
    {
      "type": "Feature",
      "geometry": {
        "type": "Point",
        "coordinates": [
          12.45776576084,
          48.89894634733676
        ]
      },
      "properties": {
        "id": "177",
        "land-id": "09278",
        "name": "Rain",
        "population": 2941,
        "area": 14.29,
        "centroid_coordinates": [
          12.45776576084,
          48.89894634733676
        ]
      }
    },
    {
      "type": "Feature",
      "geometry": {
        "type": "Point",
        "coordinates": [
          12.763687700536995,
          49.079665599977325
        ]
      },
      "properties": {
        "id": "178",
        "land-id": "09278",
        "name": "Rattenberg",
        "population": 1658,
        "area": 30.2,
        "centroid_coordinates": [
          12.763687700536995,
          49.079665599977325
        ]
      }
    },
    {
      "type": "Feature",
      "geometry": {
        "type": "Point",
        "coordinates": [
          12.630612524759487,
          49.034719290361195
        ]
      },
      "properties": {
        "id": "179",
        "land-id": "09278",
        "name": "Rattiszell",
        "population": 1507,
        "area": 22.19,
        "centroid_coordinates": [
          12.630612524759487,
          49.034719290361195
        ]
      }
    },
    {
      "type": "Feature",
      "geometry": {
        "type": "Point",
        "coordinates": [
          12.58375403122334,
          48.809422742747216
        ]
      },
      "properties": {
        "id": "182",
        "land-id": "09278",
        "name": "Salching",
        "population": 2774,
        "area": 21.96,
        "centroid_coordinates": [
          12.58375403122334,
          48.809422742747216
        ]
      }
    },
    {
      "type": "Feature",
      "geometry": {
        "type": "Point",
        "coordinates": [
          12.820758726073363,
          49.004175289064065
        ]
      },
      "properties": {
        "id": "184",
        "land-id": "09278",
        "name": "Sankt Englmar",
        "population": 1842,
        "area": 36.91,
        "centroid_coordinates": [
          12.820758726073363,
          49.004175289064065
        ]
      }
    },
    {
      "type": "Feature",
      "geometry": {
        "type": "Point",
        "coordinates": [
          12.839036680728787,
          48.9263952867797
        ]
      },
      "properties": {
        "id": "187",
        "land-id": "09278",
        "name": "Schwarzach",
        "population": 2938,
        "area": 33.2,
        "centroid_coordinates": [
          12.839036680728787,
          48.9263952867797
        ]
      }
    },
    {
      "type": "Feature",
      "geometry": {
        "type": "Point",
        "coordinates": [
          12.643299677572541,
          49.06644654137269
        ]
      },
      "properties": {
        "id": "189",
        "land-id": "09278",
        "name": "Stallwang",
        "population": 1424,
        "area": 20.58,
        "centroid_coordinates": [
          12.643299677572541,
          49.06644654137269
        ]
      }
    },
    {
      "type": "Feature",
      "geometry": {
        "type": "Point",
        "coordinates": [
          12.603259864578018,
          48.95354601594228
        ]
      },
      "properties": {
        "id": "190",
        "land-id": "09278",
        "name": "Steinach",
        "population": 3403,
        "area": 23.22,
        "centroid_coordinates": [
          12.603259864578018,
          48.95354601594228
        ]
      }
    },
    {
      "type": "Feature",
      "geometry": {
        "type": "Point",
        "coordinates": [
          12.710302370950851,
          48.829761453652196
        ]
      },
      "properties": {
        "id": "192",
        "land-id": "09278",
        "name": "Straßkirchen",
        "population": 3486,
        "area": 38.39,
        "centroid_coordinates": [
          12.710302370950851,
          48.829761453652196
        ]
      }
    },
    {
      "type": "Feature",
      "geometry": {
        "type": "Point",
        "coordinates": [
          12.545003727285756,
          49.03682704896404
        ]
      },
      "properties": {
        "id": "197",
        "land-id": "09278",
        "name": "Wiesenfelden",
        "population": 3932,
        "area": 78.14,
        "centroid_coordinates": [
          12.545003727285756,
          49.03682704896404
        ]
      }
    },
    {
      "type": "Feature",
      "geometry": {
        "type": "Point",
        "coordinates": [
          12.76088038206638,
          48.94402611866605
        ]
      },
      "properties": {
        "id": "198",
        "land-id": "09278",
        "name": "Windberg",
        "population": 1030,
        "area": 7.96,
        "centroid_coordinates": [
          12.76088038206638,
          48.94402611866605
        ]
      }
    }
  ]
}