{
  "type": "FeatureCollection",
  "features": [
    {
      "type": "Feature",
      "geometry": {
        "type": "Point",
        "coordinates": [
          10.457266119378895,
          50.15810782348702
        ]
      },
      "properties": {
        "id": "111",
        "land-id": "09674",
        "name": "Aidhausen",
        "population": 1651,
        "area": 37.19,
        "centroid_coordinates": [
          10.457266119378895,
          50.15810782348702
        ]
      }
    },
    {
      "type": "Feature",
      "geometry": {
        "type": "Point",
        "coordinates": [
          10.715480807837972,
          50.017813119907295
        ]
      },
      "properties": {
        "id": "118",
        "land-id": "09674",
        "name": "Breitbrunn",
        "population": 1020,
        "area": 12.41,
        "centroid_coordinates": [
          10.715480807837972,
          50.017813119907295
        ]
      }
    },
    {
      "type": "Feature",
      "geometry": {
        "type": "Point",
        "coordinates": [
          10.531523023159307,
          50.19700358074388
        ]
      },
      "properties": {
        "id": "120",
        "land-id": "09674",
        "name": "Bundorf",
        "population": 913,
        "area": 40.29,
        "centroid_coordinates": [
          10.531523023159307,
          50.19700358074388
        ]
      }
    },
    {
      "type": "Feature",
      "geometry": {
        "type": "Point",
        "coordinates": [
          10.630502520013485,
          50.13395229066574
        ]
      },
      "properties": {
        "id": "121",
        "land-id": "09674",
        "name": "Burgpreppach",
        "population": 1352,
        "area": 38.72,
        "centroid_coordinates": [
          10.630502520013485,
          50.13395229066574
        ]
      }
    },
    {
      "type": "Feature",
      "geometry": {
        "type": "Point",
        "coordinates": [
          10.690188539950471,
          49.997677605450875
        ]
      },
      "properties": {
        "id": "129",
        "land-id": "09674",
        "name": "Ebelsbach",
        "population": 3816,
        "area": 25.74,
        "centroid_coordinates": [
          10.690188539950471,
          49.997677605450875
        ]
      }
    },
    {
      "type": "Feature",
      "geometry": {
        "type": "Point",
        "coordinates": [
          10.727923469666205,
          50.09609943816264
        ]
      },
      "properties": {
        "id": "130",
        "land-id": "09674",
        "name": "Ebern",
        "population": 7193,
        "area": 94.99,
        "centroid_coordinates": [
          10.727923469666205,
          50.09609943816264
        ]
      }
    },
    {
      "type": "Feature",
      "geometry": {
        "type": "Point",
        "coordinates": [
          10.668643011013113,
          49.958883640397005
        ]
      },
      "properties": {
        "id": "133",
        "land-id": "09674",
        "name": "Eltmann",
        "population": 5290,
        "area": 40.75,
        "centroid_coordinates": [
          10.668643011013113,
          49.958883640397005
        ]
      }
    },
    {
      "type": "Feature",
      "geometry": {
        "type": "Point",
        "coordinates": [
          10.367034377459095,
          50.028422260343596
        ]
      },
      "properties": {
        "id": "139",
        "land-id": "09674",
        "name": "Gädheim",
        "population": 1304,
        "area": 9.63,
        "centroid_coordinates": [
          10.367034377459095,
          50.028422260343596
        ]
      }
    },
    {
      "type": "Feature",
      "geometry": {
        "type": "Point",
        "coordinates": [
          10.506993389538065,
          50.046236366868406
        ]
      },
      "properties": {
        "id": "147",
        "land-id": "09674",
        "name": "Haßfurt",
        "population": 13878,
        "area": 52.62,
        "centroid_coordinates": [
          10.506993389538065,
          50.046236366868406
        ]
      }
    },
    {
      "type": "Feature",
      "geometry": {
        "type": "Point",
        "coordinates": [
          10.528170032613318,
          50.15022231166588
        ]
      },
      "properties": {
        "id": "149",
        "land-id": "09674",
        "name": "Hofheim i.UFr.",
        "population": 5167,
        "area": 213.46,
        "centroid_coordinates": [
          10.528170032613318,
          50.15022231166588
        ]
      }
    },
    {
      "type": "Feature",
      "geometry": {
        "type": "Point",
        "coordinates": [
          10.439574711068564,
          50.10403983194374
        ]
      },
      "properties": {
        "id": "153",
        "land-id": "09674",
        "name": "Riedbach",
        "population": 1721,
        "area": 31.76,
        "centroid_coordinates": [
          10.439574711068564,
          50.10403983194374
        ]
      }
    },
    {
      "type": "Feature",
      "geometry": {
        "type": "Point",
        "coordinates": [
          10.631817172586587,
          49.925294797677466
        ]
      },
      "properties": {
        "id": "159",
        "land-id": "09674",
        "name": "Oberaurach",
        "population": 4049,
        "area": 45.1,
        "centroid_coordinates": [
          10.631817172586587,
          49.925294797677466
        ]
      }
    },
    {
      "type": "Feature",
      "geometry": {
        "type": "Point",
        "coordinates": [
          10.701288244595991,
          50.04102650727045
        ]
      },
      "properties": {
        "id": "160",
        "land-id": "09674",
        "name": "Kirchlauter",
        "population": 1314,
        "area": 16.88,
        "centroid_coordinates": [
          10.701288244595991,
          50.04102650727045
        ]
      }
    },
    {
      "type": "Feature",
      "geometry": {
        "type": "Point",
        "coordinates": [
          10.516556352830806,
          49.97287464220614
        ]
      },
      "properties": {
        "id": "163",
        "land-id": "09674",
        "name": "Knetzgau",
        "population": 6454,
        "area": 61.5,
        "centroid_coordinates": [
          10.516556352830806,
          49.97287464220614
        ]
      }
    },
    {
      "type": "Feature",
      "geometry": {
        "type": "Point",
        "coordinates": [
          10.584684614045626,
          50.07539813462478
        ]
      },
      "properties": {
        "id": "164",
        "land-id": "09674",
        "name": "Königsberg i.Bay.",
        "population": 3556,
        "area": 61.79,
        "centroid_coordinates": [
          10.584684614045626,
          50.07539813462478
        ]
      }
    },
    {
      "type": "Feature",
      "geometry": {
        "type": "Point",
        "coordinates": [
          10.686516307992445,
          50.19011897042778
        ]
      },
      "properties": {
        "id": "171",
        "land-id": "09674",
        "name": "Maroldsweisach",
        "population": 3129,
        "area": 71.84,
        "centroid_coordinates": [
          10.686516307992445,
          50.19011897042778
        ]
      }
    },
    {
      "type": "Feature",
      "geometry": {
        "type": "Point",
        "coordinates": [
          10.424626749354621,
          50.02865229877225
        ]
      },
      "properties": {
        "id": "180",
        "land-id": "09674",
        "name": "Theres",
        "population": 2693,
        "area": 30.71,
        "centroid_coordinates": [
          10.424626749354621,
          50.02865229877225
        ]
      }
    },
    {
      "type": "Feature",
      "geometry": {
        "type": "Point",
        "coordinates": [
          10.735008369493976,
          50.147571192485934
        ]
      },
      "properties": {
        "id": "184",
        "land-id": "09674",
        "name": "Pfarrweisach",
        "population": 1455,
        "area": 28.44,
        "centroid_coordinates": [
          10.735008369493976,
          50.147571192485934
        ]
      }
    },
    {
      "type": "Feature",
      "geometry": {
        "type": "Point",
        "coordinates": [
          10.56868443505588,
          49.89558728161961
        ]
      },
      "properties": {
        "id": "187",
        "land-id": "09674",
        "name": "Rauhenebrach",
        "population": 2758,
        "area": 60.96,
        "centroid_coordinates": [
          10.56868443505588,
          49.89558728161961
        ]
      }
    },
    {
      "type": "Feature",
      "geometry": {
        "type": "Point",
        "coordinates": [
          10.79370115859737,
          50.054437504260356
        ]
      },
      "properties": {
        "id": "190",
        "land-id": "09674",
        "name": "Rentweinsdorf",
        "population": 1532,
        "area": 24.65,
        "centroid_coordinates": [
          10.79370115859737,
          50.054437504260356
        ]
      }
    },
    {
      "type": "Feature",
      "geometry": {
        "type": "Point",
        "coordinates": [
          10.590362465740208,
          49.97833006700519
        ]
      },
      "properties": {
        "id": "195",
        "land-id": "09674",
        "name": "Sand a.Main",
        "population": 3051,
        "area": 12.3,
        "centroid_coordinates": [
          10.590362465740208,
          49.97833006700519
        ]
      }
    },
    {
      "type": "Feature",
      "geometry": {
        "type": "Point",
        "coordinates": [
          10.729390141199515,
          49.974740719119104
        ]
      },
      "properties": {
        "id": "201",
        "land-id": "09674",
        "name": "Stettfeld",
        "population": 1093,
        "area": 11.19,
        "centroid_coordinates": [
          10.729390141199515,
          49.974740719119104
        ]
      }
    },
    {
      "type": "Feature",
      "geometry": {
        "type": "Point",
        "coordinates": [
          10.839695556997375,
          50.120673018302575
        ]
      },
      "properties": {
        "id": "210",
        "land-id": "09674",
        "name": "Untermerzbach",
        "population": 1613,
        "area": 27.76,
        "centroid_coordinates": [
          10.839695556997375,
          50.120673018302575
        ]
      }
    },
    {
      "type": "Feature",
      "geometry": {
        "type": "Point",
        "coordinates": [
          10.45611308044985,
          49.99606031725848
        ]
      },
      "properties": {
        "id": "219",
        "land-id": "09674",
        "name": "Wonfurt",
        "population": 1903,
        "area": 17.35,
        "centroid_coordinates": [
          10.45611308044985,
          49.99606031725848
        ]
      }
    },
    {
      "type": "Feature",
      "geometry": {
        "type": "Point",
        "coordinates": [
          10.60803766880505,
          50.023639370799756
        ]
      },
      "properties": {
        "id": "221",
        "land-id": "09674",
        "name": "Zeil a.Main",
        "population": 5427,
        "area": 35.71,
        "centroid_coordinates": [
          10.60803766880505,
          50.023639370799756
        ]
      }
    },
    {
      "type": "Feature",
      "geometry": {
        "type": "Point",
        "coordinates": [
          10.626515646519286,
          50.21433310138248
        ]
      },
      "properties": {
        "id": "223",
        "land-id": "09674",
        "name": "Ermershausen",
        "population": 527,
        "area": 9.21,
        "centroid_coordinates": [
          10.626515646519286,
          50.21433310138248
        ]
      }
    }
  ]
}