{
  "type": "FeatureCollection",
  "features": [
    {
      "type": "Feature",
      "geometry": {
        "type": "Point",
        "coordinates": [
          10.860947347529798,
          49.158210875036914
        ]
      },
      "properties": {
        "id": "111",
        "land-id": "09577",
        "name": "Absberg",
        "population": 1414,
        "area": 18.95,
        "centroid_coordinates": [
          10.860947347529798,
          49.158210875036914
        ]
      }
    },
    {
      "type": "Feature",
      "geometry": {
        "type": "Point",
        "coordinates": [
          10.868748737506222,
          49.03912180448178
        ]
      },
      "properties": {
        "id": "113",
        "land-id": "09577",
        "name": "Alesheim",
        "population": 901,
        "area": 20.49,
        "centroid_coordinates": [
          10.868748737506222,
          49.03912180448178
        ]
      }
    },
    {
      "type": "Feature",
      "geometry": {
        "type": "Point",
        "coordinates": [
          10.719079146170628,
          49.160590390949814
        ]
      },
      "properties": {
        "id": "114",
        "land-id": "09577",
        "name": "Muhr a.See",
        "population": 2447,
        "area": 10.96,
        "centroid_coordinates": [
          10.719079146170628,
          49.160590390949814
        ]
      }
    },
    {
      "type": "Feature",
      "geometry": {
        "type": "Point",
        "coordinates": [
          11.116466975093271,
          49.07088722981901
        ]
      },
      "properties": {
        "id": "115",
        "land-id": "09577",
        "name": "Bergen",
        "population": 1163,
        "area": 19.9,
        "centroid_coordinates": [
          11.116466975093271,
          49.07088722981901
        ]
      }
    },
    {
      "type": "Feature",
      "geometry": {
        "type": "Point",
        "coordinates": [
          11.090922078065345,
          49.03419125384822
        ]
      },
      "properties": {
        "id": "120",
        "land-id": "09577",
        "name": "Burgsalach",
        "population": 1159,
        "area": 19.3,
        "centroid_coordinates": [
          11.090922078065345,
          49.03419125384822
        ]
      }
    },
    {
      "type": "Feature",
      "geometry": {
        "type": "Point",
        "coordinates": [
          10.778133361179146,
          49.057682933492615
        ]
      },
      "properties": {
        "id": "122",
        "land-id": "09577",
        "name": "Dittenheim",
        "population": 1907,
        "area": 29.32,
        "centroid_coordinates": [
          10.778133361179146,
          49.057682933492615
        ]
      }
    },
    {
      "type": "Feature",
      "geometry": {
        "type": "Point",
        "coordinates": [
          10.932246609488924,
          49.07165630379525
        ]
      },
      "properties": {
        "id": "125",
        "land-id": "09577",
        "name": "Ellingen",
        "population": 3897,
        "area": 31.23,
        "centroid_coordinates": [
          10.932246609488924,
          49.07165630379525
        ]
      }
    },
    {
      "type": "Feature",
      "geometry": {
        "type": "Point",
        "coordinates": [
          11.062948529516442,
          49.07608921220101
        ]
      },
      "properties": {
        "id": "127",
        "land-id": "09577",
        "name": "Ettenstatt",
        "population": 876,
        "area": 15.85,
        "centroid_coordinates": [
          11.062948529516442,
          49.07608921220101
        ]
      }
    },
    {
      "type": "Feature",
      "geometry": {
        "type": "Point",
        "coordinates": [
          10.709990249824935,
          49.05567653586301
        ]
      },
      "properties": {
        "id": "133",
        "land-id": "09577",
        "name": "Gnotzheim",
        "population": 815,
        "area": 12.5,
        "centroid_coordinates": [
          10.709990249824935,
          49.05567653586301
        ]
      }
    },
    {
      "type": "Feature",
      "geometry": {
        "type": "Point",
        "coordinates": [
          10.728388588275765,
          49.11091031222708
        ]
      },
      "properties": {
        "id": "136",
        "land-id": "09577",
        "name": "Gunzenhausen",
        "population": 16630,
        "area": 82.67,
        "centroid_coordinates": [
          10.728388588275765,
          49.11091031222708
        ]
      }
    },
    {
      "type": "Feature",
      "geometry": {
        "type": "Point",
        "coordinates": [
          10.794389951566227,
          49.16504761945162
        ]
      },
      "properties": {
        "id": "138",
        "land-id": "09577",
        "name": "Haundorf",
        "population": 2746,
        "area": 51.27,
        "centroid_coordinates": [
          10.794389951566227,
          49.16504761945162
        ]
      }
    },
    {
      "type": "Feature",
      "geometry": {
        "type": "Point",
        "coordinates": [
          10.744243082518977,
          48.99575154909642
        ]
      },
      "properties": {
        "id": "140",
        "land-id": "09577",
        "name": "Heidenheim",
        "population": 2494,
        "area": 52.2,
        "centroid_coordinates": [
          10.744243082518977,
          48.99575154909642
        ]
      }
    },
    {
      "type": "Feature",
      "geometry": {
        "type": "Point",
        "coordinates": [
          11.00991753591903,
          49.07094221444353
        ]
      },
      "properties": {
        "id": "141",
        "land-id": "09577",
        "name": "Höttingen",
        "population": 1089,
        "area": 19.25,
        "centroid_coordinates": [
          11.00991753591903,
          49.07094221444353
        ]
      }
    },
    {
      "type": "Feature",
      "geometry": {
        "type": "Point",
        "coordinates": [
          10.916123608237987,
          48.89470039595997
        ]
      },
      "properties": {
        "id": "148",
        "land-id": "09577",
        "name": "Langenaltheim",
        "population": 2239,
        "area": 39.14,
        "centroid_coordinates": [
          10.916123608237987,
          48.89470039595997
        ]
      }
    },
    {
      "type": "Feature",
      "geometry": {
        "type": "Point",
        "coordinates": [
          10.836559758979911,
          49.00691408648067
        ]
      },
      "properties": {
        "id": "149",
        "land-id": "09577",
        "name": "Markt Berolzheim",
        "population": 1290,
        "area": 14.51,
        "centroid_coordinates": [
          10.836559758979911,
          49.00691408648067
        ]
      }
    },
    {
      "type": "Feature",
      "geometry": {
        "type": "Point",
        "coordinates": [
          10.803567642834132,
          49.02574585427347
        ]
      },
      "properties": {
        "id": "150",
        "land-id": "09577",
        "name": "Meinheim",
        "population": 836,
        "area": 16.35,
        "centroid_coordinates": [
          10.803567642834132,
          49.02574585427347
        ]
      }
    },
    {
      "type": "Feature",
      "geometry": {
        "type": "Point",
        "coordinates": [
          11.154040617690827,
          49.043589496384115
        ]
      },
      "properties": {
        "id": "151",
        "land-id": "09577",
        "name": "Nennslingen",
        "population": 1431,
        "area": 21.93,
        "centroid_coordinates": [
          11.154040617690827,
          49.043589496384115
        ]
      }
    },
    {
      "type": "Feature",
      "geometry": {
        "type": "Point",
        "coordinates": [
          11.003425124862337,
          48.93964391138289
        ]
      },
      "properties": {
        "id": "158",
        "land-id": "09577",
        "name": "Pappenheim",
        "population": 3959,
        "area": 64.26,
        "centroid_coordinates": [
          11.003425124862337,
          48.93964391138289
        ]
      }
    },
    {
      "type": "Feature",
      "geometry": {
        "type": "Point",
        "coordinates": [
          10.860498202539034,
          49.11442546458751
        ]
      },
      "properties": {
        "id": "159",
        "land-id": "09577",
        "name": "Pfofeld",
        "population": 1482,
        "area": 23.91,
        "centroid_coordinates": [
          10.860498202539034,
          49.11442546458751
        ]
      }
    },
    {
      "type": "Feature",
      "geometry": {
        "type": "Point",
        "coordinates": [
          10.985242924275857,
          49.11518993420325
        ]
      },
      "properties": {
        "id": "161",
        "land-id": "09577",
        "name": "Pleinfeld",
        "population": 7385,
        "area": 71.4,
        "centroid_coordinates": [
          10.985242924275857,
          49.11518993420325
        ]
      }
    },
    {
      "type": "Feature",
      "geometry": {
        "type": "Point",
        "coordinates": [
          10.729618989403003,
          48.93323221820858
        ]
      },
      "properties": {
        "id": "162",
        "land-id": "09577",
        "name": "Polsingen",
        "population": 1766,
        "area": 33.91,
        "centroid_coordinates": [
          10.729618989403003,
          48.93323221820858
        ]
      }
    },
    {
      "type": "Feature",
      "geometry": {
        "type": "Point",
        "coordinates": [
          11.116671815215792,
          48.99423939237889
        ]
      },
      "properties": {
        "id": "163",
        "land-id": "09577",
        "name": "Raitenbuch",
        "population": 1229,
        "area": 38.13,
        "centroid_coordinates": [
          11.116671815215792,
          48.99423939237889
        ]
      }
    },
    {
      "type": "Feature",
      "geometry": {
        "type": "Point",
        "coordinates": [
          11.001330897276876,
          48.897533206016085
        ]
      },
      "properties": {
        "id": "168",
        "land-id": "09577",
        "name": "Solnhofen",
        "population": 1703,
        "area": 13.56,
        "centroid_coordinates": [
          11.001330897276876,
          48.897533206016085
        ]
      }
    },
    {
      "type": "Feature",
      "geometry": {
        "type": "Point",
        "coordinates": [
          10.840257741556506,
          49.07995999154249
        ]
      },
      "properties": {
        "id": "172",
        "land-id": "09577",
        "name": "Theilenhofen",
        "population": 1142,
        "area": 20.31,
        "centroid_coordinates": [
          10.840257741556506,
          49.07995999154249
        ]
      }
    },
    {
      "type": "Feature",
      "geometry": {
        "type": "Point",
        "coordinates": [
          10.870078058227975,
          48.9574991495225
        ]
      },
      "properties": {
        "id": "173",
        "land-id": "09577",
        "name": "Treuchtlingen",
        "population": 13180,
        "area": 103.37,
        "centroid_coordinates": [
          10.870078058227975,
          48.9574991495225
        ]
      }
    },
    {
      "type": "Feature",
      "geometry": {
        "type": "Point",
        "coordinates": [
          10.987068049633844,
          49.015424722303784
        ]
      },
      "properties": {
        "id": "177",
        "land-id": "09577",
        "name": "Weißenburg i.Bay.",
        "population": 18384,
        "area": 97.6,
        "centroid_coordinates": [
          10.987068049633844,
          49.015424722303784
        ]
      }
    },
    {
      "type": "Feature",
      "geometry": {
        "type": "Point",
        "coordinates": [
          10.678305751157032,
          49.00239008249845
        ]
      },
      "properties": {
        "id": "179",
        "land-id": "09577",
        "name": "Westheim",
        "population": 1142,
        "area": 28.31,
        "centroid_coordinates": [
          10.678305751157032,
          49.00239008249845
        ]
      }
    }
  ]
}